{
"type": "FeatureCollection",
"name": "geojs-25-health_regions",
"crs": { "type": "name", "properties": { "name": "urn:ogc:def:crs:OGC:1.3:CRS84" } },
"features": [
{ "type": "Feature", "properties": { "HREG_ID": "25001", "HREG_NAME": "1ª Região Mata Atlantica", "id": "250060", "name": "Alhandra", "description": "Alhandra", "MUN_ID": "250060", "UF": "PB", "MACRO_ID": "2503", "MACRO_NAME": "Macrorregião I - João Pessoa" }, "geometry": { "type": "MultiPolygon", "coordinates": [ [ [ [ -34.952538, -7.388493 ], [ -34.957775, -7.381084 ], [ -34.967309, -7.36759 ], [ -34.955864, -7.349691 ], [ -34.980375, -7.328268 ], [ -34.983333, -7.325931 ], [ -35.043483, -7.278374 ], [ -35.04485, -7.277116 ], [ -35.044628, -7.274431 ], [ -35.055374, -7.266749 ], [ -35.067183, -7.228886 ], [ -35.077862, -7.228233 ], [ -35.093023, -7.231952 ], [ -35.11011, -7.229975 ], [ -35.126294, -7.234919 ], [ -35.136478, -7.251332 ], [ -35.138867, -7.216428 ], [ -35.150895, -7.212772 ], [ -35.15508, -7.206608 ], [ -35.158703, -7.209261 ], [ -35.169904, -7.196708 ], [ -35.181935, -7.183221 ], [ -35.186227, -7.183005 ], [ -35.187065, -7.176971 ], [ -35.187506, -7.177039 ], [ -35.201561, -7.187332 ], [ -35.2194, -7.190737 ], [ -35.230025, -7.191551 ], [ -35.232228, -7.205119 ], [ -35.23589, -7.205168 ], [ -35.237598, -7.210962 ], [ -35.251933, -7.213225 ], [ -35.254257, -7.210822 ], [ -35.26985, -7.213772 ], [ -35.273749, -7.210101 ], [ -35.281369, -7.212636 ], [ -35.28208, -7.215928 ], [ -35.285711, -7.212401 ], [ -35.289515, -7.216411 ], [ -35.303445, -7.214196 ], [ -35.304421, -7.215635 ], [ -35.308426, -7.204518 ], [ -35.323415, -7.185014 ], [ -35.333578, -7.179452 ], [ -35.332367, -7.174626 ], [ -35.326524, -7.156429 ], [ -35.311639, -7.151212 ], [ -35.305863, -7.141419 ], [ -35.287493, -7.108555 ], [ -35.291348, -7.112399 ], [ -35.299123, -7.112191 ], [ -35.305885, -7.118597 ], [ -35.310246, -7.115289 ], [ -35.315503, -7.117938 ], [ -35.31342, -7.111103 ], [ -35.32322, -7.10926 ], [ -35.321295, -7.10183 ], [ -35.325215, -7.098147 ], [ -35.331723, -7.096825 ], [ -35.375537, -7.032717 ], [ -35.375541, -7.032193 ], [ -35.375376, -7.023193 ], [ -35.370641, -7.021595 ], [ -35.370679, -7.007166 ], [ -35.370588, -7.006918 ], [ -35.364186, -6.997838 ], [ -35.32343, -6.987453 ], [ -35.316847, -6.985063 ], [ -35.31595, -6.984946 ], [ -35.277623, -6.968912 ], [ -35.262692, -6.955419 ], [ -35.26226, -6.955029 ], [ -35.256314, -6.952513 ], [ -35.24377, -6.953806 ], [ -35.222106, -6.946968 ], [ -35.221783, -6.946433 ], [ -35.221483, -6.945939 ], [ -35.219226, -6.942216 ], [ -35.207045, -6.940452 ], [ -35.183961, -6.954483 ], [ -35.178758, -6.950266 ], [ -35.178552, -6.952406 ], [ -35.154749, -6.940027 ], [ -35.148943, -6.942183 ], [ -35.132318, -6.940421 ], [ -35.1062, -6.936828 ], [ -35.100647, -6.938181 ], [ -35.089992, -6.93955 ], [ -35.075441, -6.934774 ], [ -35.058916, -6.934426 ], [ -35.037123, -6.918917 ], [ -34.988824, -6.907777 ], [ -34.975195, -6.901512 ], [ -34.963345, -6.900021 ], [ -34.949667, -6.892034 ], [ -34.934496, -6.889828 ], [ -34.92769, -6.883461 ], [ -34.916978, -6.871835 ], [ -34.902441, -6.864864 ], [ -34.887695, -6.883548 ], [ -34.868415, -6.897414 ], [ -34.853298, -6.899948 ], [ -34.862693, -6.915534 ], [ -34.862947, -6.916761 ], [ -34.866712, -6.936444 ], [ -34.861078, -6.952175 ], [ -34.850463, -6.964194 ], [ -34.854775, -6.971747 ], [ -34.862686, -6.975752 ], [ -34.868527, -6.978979 ], [ -34.870582, -6.985038 ], [ -34.86801, -7.006512 ], [ -34.859277, -7.026711 ], [ -34.854808, -7.027111 ], [ -34.848309, -7.011003 ], [ -34.834831, -6.998341 ], [ -34.835192, -6.978873 ], [ -34.841507, -6.966146 ], [ -34.829893, -6.966212 ], [ -34.825468, -7.006596 ], [ -34.829864, -7.030474 ], [ -34.840529, -7.042291 ], [ -34.843358, -7.055419 ], [ -34.838001, -7.068005 ], [ -34.830117, -7.073002 ], [ -34.83369, -7.097968 ], [ -34.821973, -7.110515 ], [ -34.822003, -7.130409 ], [ -34.809747, -7.144803 ], [ -34.797001, -7.146391 ], [ -34.793335, -7.154091 ], [ -34.794477, -7.195356 ], [ -34.80269, -7.210146 ], [ -34.805252, -7.239691 ], [ -34.804263, -7.260295 ], [ -34.798698, -7.277591 ], [ -34.800468, -7.293979 ], [ -34.797555, -7.300197 ], [ -34.799346, -7.30602 ], [ -34.801464, -7.315438 ], [ -34.798823, -7.320959 ], [ -34.793614, -7.329146 ], [ -34.799669, -7.357248 ], [ -34.796836, -7.366504 ], [ -34.801976, -7.383071 ], [ -34.811135, -7.459059 ], [ -34.80333, -7.471686 ], [ -34.81072, -7.477865 ], [ -34.814608, -7.486318 ], [ -34.809445, -7.511521 ], [ -34.819996, -7.528166 ], [ -34.825831, -7.547369 ], [ -34.831941, -7.548723 ], [ -34.838265, -7.543889 ], [ -34.840038, -7.543424 ], [ -34.853521, -7.539237 ], [ -34.857698, -7.537541 ], [ -34.870391, -7.548749 ], [ -34.873269, -7.542838 ], [ -34.888414, -7.535494 ], [ -34.895217, -7.544665 ], [ -34.901717, -7.543153 ], [ -34.899574, -7.537021 ], [ -34.910165, -7.537727 ], [ -34.910696, -7.543032 ], [ -34.916987, -7.54136 ], [ -34.924122, -7.532201 ], [ -34.932357, -7.528111 ], [ -34.950292, -7.537212 ], [ -34.960461, -7.538356 ], [ -34.969115, -7.520655 ], [ -34.97874, -7.509288 ], [ -34.983898, -7.507478 ], [ -34.984831, -7.500378 ], [ -34.984812, -7.499601 ], [ -34.984657, -7.49899 ], [ -34.97714, -7.469214 ], [ -34.98126, -7.456365 ], [ -34.978271, -7.441142 ], [ -34.975976, -7.436252 ], [ -34.968939, -7.433749 ], [ -34.954278, -7.404886 ], [ -34.952538, -7.388493 ] ] ], [ [ [ -34.867163, -6.987282 ], [ -34.863666, -6.980406 ], [ -34.857949, -6.983908 ], [ -34.847392, -6.981641 ], [ -34.849308, -6.999559 ], [ -34.858836, -7.015215 ], [ -34.865276, -7.0043 ], [ -34.867163, -6.987282 ] ] ] ] } },
{ "type": "Feature", "properties": { "HREG_ID": "25002", "HREG_NAME": "2ª Região", "id": "250050", "name": "Alagoinha", "description": "Alagoinha", "MUN_ID": "250050", "UF": "PB", "MACRO_ID": "2503", "MACRO_NAME": "Macrorregião I - João Pessoa" }, "geometry": { "type": "Polygon", "coordinates": [ [ [ -35.523362, -7.031294 ], [ -35.534651, -7.009372 ], [ -35.556124, -6.981245 ], [ -35.558836, -6.977693 ], [ -35.559165, -6.977262 ], [ -35.573617, -6.96948 ], [ -35.580382, -6.94149 ], [ -35.579706, -6.940815 ], [ -35.570909, -6.934752 ], [ -35.582346, -6.919237 ], [ -35.582801, -6.919193 ], [ -35.604542, -6.91713 ], [ -35.613348, -6.916234 ], [ -35.649474, -6.909575 ], [ -35.649744, -6.909626 ], [ -35.645251, -6.883001 ], [ -35.64574, -6.8823 ], [ -35.653046, -6.881672 ], [ -35.658573, -6.867698 ], [ -35.673988, -6.866298 ], [ -35.67814, -6.867328 ], [ -35.687588, -6.861816 ], [ -35.692562, -6.859807 ], [ -35.699143, -6.846091 ], [ -35.708817, -6.840822 ], [ -35.7016, -6.832853 ], [ -35.700548, -6.814319 ], [ -35.701916, -6.814669 ], [ -35.70577, -6.819209 ], [ -35.715893, -6.820674 ], [ -35.719747, -6.824794 ], [ -35.729098, -6.816859 ], [ -35.742223, -6.813122 ], [ -35.752156, -6.824933 ], [ -35.754955, -6.824517 ], [ -35.759198, -6.824168 ], [ -35.762419, -6.823755 ], [ -35.786522, -6.82378 ], [ -35.792002, -6.82633 ], [ -35.796143, -6.833927 ], [ -35.805065, -6.834169 ], [ -35.806331, -6.840775 ], [ -35.811642, -6.842958 ], [ -35.808148, -6.847611 ], [ -35.809839, -6.863217 ], [ -35.82862, -6.85639 ], [ -35.839075, -6.846158 ], [ -35.844026, -6.836017 ], [ -35.868979, -6.816596 ], [ -35.891179, -6.793034 ], [ -35.897383, -6.793202 ], [ -35.906568, -6.784262 ], [ -35.905308, -6.778133 ], [ -35.899349, -6.77301 ], [ -35.902617, -6.757633 ], [ -35.896152, -6.749991 ], [ -35.898548, -6.743565 ], [ -35.9222, -6.730922 ], [ -35.922393, -6.719905 ], [ -35.910872, -6.717083 ], [ -35.906851, -6.709221 ], [ -35.901022, -6.705978 ], [ -35.898575, -6.704616 ], [ -35.901417, -6.69953 ], [ -35.892943, -6.690664 ], [ -35.874105, -6.69141 ], [ -35.866727, -6.679194 ], [ -35.871312, -6.632413 ], [ -35.871938, -6.626015 ], [ -35.875206, -6.59258 ], [ -35.876619, -6.578089 ], [ -35.867863, -6.545382 ], [ -35.852762, -6.487213 ], [ -35.81699, -6.485094 ], [ -35.782302, -6.483036 ], [ -35.779598, -6.482875 ], [ -35.772996, -6.482444 ], [ -35.749899, -6.478091 ], [ -35.743233, -6.473485 ], [ -35.740828, -6.475904 ], [ -35.725864, -6.469211 ], [ -35.721529, -6.471265 ], [ -35.710929, -6.470694 ], [ -35.697854, -6.462491 ], [ -35.681646, -6.447528 ], [ -35.671021, -6.451324 ], [ -35.664831, -6.450115 ], [ -35.663277, -6.44643 ], [ -35.656937, -6.445382 ], [ -35.636472, -6.453988 ], [ -35.620052, -6.456924 ], [ -35.616548, -6.462233 ], [ -35.599862, -6.46021 ], [ -35.591838, -6.47123 ], [ -35.591386, -6.476758 ], [ -35.581059, -6.485396 ], [ -35.563865, -6.487068 ], [ -35.56447, -6.491379 ], [ -35.558188, -6.492481 ], [ -35.551774, -6.490423 ], [ -35.546368, -6.481466 ], [ -35.540437, -6.482569 ], [ -35.537632, -6.479505 ], [ -35.533311, -6.482632 ], [ -35.526771, -6.478873 ], [ -35.525564, -6.475825 ], [ -35.513629, -6.477757 ], [ -35.501085, -6.477402 ], [ -35.495468, -6.482859 ], [ -35.491657, -6.479684 ], [ -35.478995, -6.486392 ], [ -35.463899, -6.482311 ], [ -35.459721, -6.476378 ], [ -35.446372, -6.486443 ], [ -35.442331, -6.478976 ], [ -35.441404, -6.482069 ], [ -35.441774, -6.486191 ], [ -35.423646, -6.488254 ], [ -35.407434, -6.489183 ], [ -35.400425, -6.491202 ], [ -35.379496, -6.502526 ], [ -35.364188, -6.51164 ], [ -35.375887, -6.530079 ], [ -35.396403, -6.562422 ], [ -35.394646, -6.572971 ], [ -35.389336, -6.598481 ], [ -35.375722, -6.602923 ], [ -35.372027, -6.598105 ], [ -35.361212, -6.598291 ], [ -35.353873, -6.595953 ], [ -35.347484, -6.597969 ], [ -35.340623, -6.589194 ], [ -35.334866, -6.591818 ], [ -35.330577, -6.588654 ], [ -35.330901, -6.596314 ], [ -35.326313, -6.602189 ], [ -35.328379, -6.620827 ], [ -35.33484, -6.637028 ], [ -35.335172, -6.637861 ], [ -35.340361, -6.650878 ], [ -35.333312, -6.652081 ], [ -35.322453, -6.666452 ], [ -35.319216, -6.676131 ], [ -35.319796, -6.707816 ], [ -35.324937, -6.709659 ], [ -35.328491, -6.701915 ], [ -35.334329, -6.703301 ], [ -35.346949, -6.724855 ], [ -35.34566, -6.742197 ], [ -35.349771, -6.748867 ], [ -35.34988, -6.749003 ], [ -35.372051, -6.755296 ], [ -35.35853, -6.756989 ], [ -35.350321, -6.774164 ], [ -35.350169, -6.774244 ], [ -35.34021, -6.779417 ], [ -35.324811, -6.779465 ], [ -35.32077, -6.78849 ], [ -35.315787, -6.788557 ], [ -35.323006, -6.798525 ], [ -35.327425, -6.824482 ], [ -35.305615, -6.831546 ], [ -35.300101, -6.8512 ], [ -35.318453, -6.860412 ], [ -35.315763, -6.871366 ], [ -35.305319, -6.883641 ], [ -35.305215, -6.896014 ], [ -35.30154, -6.903374 ], [ -35.302031, -6.908249 ], [ -35.295739, -6.913011 ], [ -35.292231, -6.925291 ], [ -35.287166, -6.943016 ], [ -35.277477, -6.942579 ], [ -35.273944, -6.947565 ], [ -35.266214, -6.95251 ], [ -35.26283, -6.954766 ], [ -35.26226, -6.955029 ], [ -35.262692, -6.955419 ], [ -35.277623, -6.968912 ], [ -35.31595, -6.984946 ], [ -35.316847, -6.985063 ], [ -35.32343, -6.987453 ], [ -35.364186, -6.997838 ], [ -35.370588, -7.006918 ], [ -35.370679, -7.007166 ], [ -35.370641, -7.021595 ], [ -35.375376, -7.023193 ], [ -35.375541, -7.032193 ], [ -35.390916, -7.044091 ], [ -35.406149, -7.04293 ], [ -35.41663, -7.043269 ], [ -35.422126, -7.056139 ], [ -35.442162, -7.070227 ], [ -35.45192, -7.073518 ], [ -35.490836, -7.066361 ], [ -35.496855, -7.033152 ], [ -35.501109, -7.025912 ], [ -35.506667, -7.025484 ], [ -35.510134, -7.03164 ], [ -35.515022, -7.030405 ], [ -35.523362, -7.031294 ] ] ] } },
{ "type": "Feature", "properties": { "HREG_ID": "25003", "HREG_NAME": "3ª Região", "id": "250030", "name": "Alagoa Grande", "description": "Alagoa Grande", "MUN_ID": "250030", "UF": "PB", "MACRO_ID": "2502", "MACRO_NAME": "Macrorregião II - Campina Grande" }, "geometry": { "type": "Polygon", "coordinates": [ [ [ -35.802167, -7.155544 ], [ -35.809146, -7.161699 ], [ -35.82486, -7.174422 ], [ -35.822646, -7.186965 ], [ -35.833952, -7.194506 ], [ -35.840805, -7.195475 ], [ -35.843446, -7.191956 ], [ -35.851804, -7.202304 ], [ -35.864866, -7.210812 ], [ -35.865665, -7.201866 ], [ -35.872532, -7.193699 ], [ -35.872988, -7.186888 ], [ -35.884305, -7.173743 ], [ -35.887629, -7.156397 ], [ -35.895281, -7.167861 ], [ -35.904299, -7.181373 ], [ -35.904762, -7.181538 ], [ -35.910325, -7.165576 ], [ -35.920492, -7.155764 ], [ -35.921818, -7.149789 ], [ -35.926644, -7.143469 ], [ -35.928328, -7.140955 ], [ -35.9332, -7.135831 ], [ -35.929565, -7.120045 ], [ -35.929742, -7.107319 ], [ -35.947224, -7.109073 ], [ -35.968434, -7.108986 ], [ -35.968534, -7.108959 ], [ -35.979159, -7.100471 ], [ -35.973905, -7.078995 ], [ -35.962398, -7.068638 ], [ -35.962625, -7.068612 ], [ -35.969246, -7.067868 ], [ -35.965243, -7.062096 ], [ -35.958294, -7.059398 ], [ -35.958653, -7.045645 ], [ -35.950139, -7.029152 ], [ -35.955507, -7.024219 ], [ -35.962567, -7.02441 ], [ -35.957027, -7.016798 ], [ -35.95687, -7.016456 ], [ -35.978877, -6.984249 ], [ -35.96671, -6.97428 ], [ -35.96466, -6.965826 ], [ -35.939092, -6.94759 ], [ -35.940858, -6.937703 ], [ -35.940881, -6.937575 ], [ -35.950269, -6.920003 ], [ -35.951498, -6.90906 ], [ -35.963769, -6.922211 ], [ -35.979833, -6.924282 ], [ -35.984234, -6.931433 ], [ -36.010828, -6.943702 ], [ -36.010803, -6.947601 ], [ -36.017543, -6.952088 ], [ -36.019883, -6.961471 ], [ -36.048982, -6.977178 ], [ -36.056497, -6.971001 ], [ -36.077657, -6.970723 ], [ -36.112517, -6.930765 ], [ -36.098142, -6.923477 ], [ -36.071377, -6.906523 ], [ -36.055169, -6.893391 ], [ -36.032394, -6.881501 ], [ -36.024445, -6.87928 ], [ -36.001881, -6.869356 ], [ -35.938568, -6.828565 ], [ -35.938421, -6.828451 ], [ -35.923269, -6.814983 ], [ -35.916455, -6.795782 ], [ -35.897383, -6.793202 ], [ -35.891179, -6.793034 ], [ -35.868979, -6.816596 ], [ -35.844026, -6.836017 ], [ -35.839075, -6.846158 ], [ -35.82862, -6.85639 ], [ -35.809839, -6.863217 ], [ -35.808148, -6.847611 ], [ -35.811642, -6.842958 ], [ -35.806331, -6.840775 ], [ -35.805065, -6.834169 ], [ -35.796143, -6.833927 ], [ -35.792002, -6.82633 ], [ -35.786522, -6.82378 ], [ -35.762419, -6.823755 ], [ -35.759198, -6.824168 ], [ -35.754955, -6.824517 ], [ -35.752156, -6.824933 ], [ -35.742223, -6.813122 ], [ -35.729098, -6.816859 ], [ -35.719747, -6.824794 ], [ -35.715893, -6.820674 ], [ -35.70577, -6.819209 ], [ -35.701916, -6.814669 ], [ -35.700548, -6.814319 ], [ -35.7016, -6.832853 ], [ -35.708817, -6.840822 ], [ -35.699143, -6.846091 ], [ -35.692562, -6.859807 ], [ -35.687588, -6.861816 ], [ -35.67814, -6.867328 ], [ -35.673988, -6.866298 ], [ -35.658573, -6.867698 ], [ -35.653046, -6.881672 ], [ -35.64574, -6.8823 ], [ -35.645251, -6.883001 ], [ -35.649744, -6.909626 ], [ -35.649474, -6.909575 ], [ -35.613348, -6.916234 ], [ -35.604542, -6.91713 ], [ -35.582801, -6.919193 ], [ -35.582346, -6.919237 ], [ -35.570909, -6.934752 ], [ -35.579706, -6.940815 ], [ -35.580382, -6.94149 ], [ -35.573617, -6.96948 ], [ -35.559165, -6.977262 ], [ -35.558836, -6.977693 ], [ -35.556124, -6.981245 ], [ -35.534651, -7.009372 ], [ -35.523362, -7.031294 ], [ -35.515022, -7.030405 ], [ -35.510134, -7.03164 ], [ -35.506667, -7.025484 ], [ -35.501109, -7.025912 ], [ -35.496855, -7.033152 ], [ -35.490836, -7.066361 ], [ -35.514276, -7.062048 ], [ -35.511115, -7.070809 ], [ -35.504566, -7.075376 ], [ -35.50704, -7.08386 ], [ -35.499967, -7.09445 ], [ -35.523272, -7.104903 ], [ -35.525788, -7.109591 ], [ -35.526782, -7.114346 ], [ -35.532763, -7.120059 ], [ -35.569213, -7.122349 ], [ -35.613496, -7.133925 ], [ -35.613747, -7.133989 ], [ -35.624125, -7.132448 ], [ -35.634956, -7.132878 ], [ -35.647455, -7.144961 ], [ -35.652754, -7.139582 ], [ -35.660044, -7.138873 ], [ -35.671928, -7.146944 ], [ -35.680208, -7.14835 ], [ -35.688349, -7.135134 ], [ -35.702152, -7.112719 ], [ -35.707609, -7.103854 ], [ -35.729487, -7.120164 ], [ -35.734219, -7.123654 ], [ -35.739679, -7.122099 ], [ -35.752104, -7.133514 ], [ -35.764338, -7.139418 ], [ -35.77037, -7.139149 ], [ -35.785771, -7.150648 ], [ -35.802167, -7.155544 ] ] ] } },
{ "type": "Feature", "properties": { "HREG_ID": "25004", "HREG_NAME": "4ª Região", "id": "250153", "name": "Baraúna", "description": "Baraúna", "MUN_ID": "250153", "UF": "PB", "MACRO_ID": "2502", "MACRO_NAME": "Macrorregião II - Campina Grande" }, "geometry": { "type": "Polygon", "coordinates": [ [ [ -36.374799, -6.970759 ], [ -36.374974, -6.970871 ], [ -36.393673, -6.98293 ], [ -36.444779, -6.989651 ], [ -36.476373, -6.993805 ], [ -36.473115, -6.949349 ], [ -36.47498, -6.948046 ], [ -36.544263, -6.899622 ], [ -36.557687, -6.888735 ], [ -36.567604, -6.874394 ], [ -36.566459, -6.866189 ], [ -36.573744, -6.857055 ], [ -36.56946, -6.847605 ], [ -36.559821, -6.840371 ], [ -36.543333, -6.841696 ], [ -36.528831, -6.824995 ], [ -36.509627, -6.817546 ], [ -36.505157, -6.808422 ], [ -36.50097, -6.777167 ], [ -36.504419, -6.753536 ], [ -36.520231, -6.745279 ], [ -36.524879, -6.736316 ], [ -36.533183, -6.733084 ], [ -36.543869, -6.730802 ], [ -36.558545, -6.708706 ], [ -36.557009, -6.7057 ], [ -36.547081, -6.694747 ], [ -36.541411, -6.665662 ], [ -36.520408, -6.6102 ], [ -36.523184, -6.601802 ], [ -36.521576, -6.596687 ], [ -36.513476, -6.593992 ], [ -36.507625, -6.59505 ], [ -36.501577, -6.601078 ], [ -36.473146, -6.614006 ], [ -36.460184, -6.633992 ], [ -36.449015, -6.623796 ], [ -36.437888, -6.628882 ], [ -36.435524, -6.625477 ], [ -36.440837, -6.599036 ], [ -36.444056, -6.557919 ], [ -36.448839, -6.553514 ], [ -36.461922, -6.54993 ], [ -36.462366, -6.54985 ], [ -36.468856, -6.548696 ], [ -36.478934, -6.539469 ], [ -36.482296, -6.519138 ], [ -36.518939, -6.50215 ], [ -36.525512, -6.500761 ], [ -36.527876, -6.478884 ], [ -36.530491, -6.471432 ], [ -36.530637, -6.451672 ], [ -36.507157, -6.399717 ], [ -36.504043, -6.386052 ], [ -36.499514, -6.357766 ], [ -36.448452, -6.361552 ], [ -36.444449, -6.361776 ], [ -36.429972, -6.361856 ], [ -36.394228, -6.293576 ], [ -36.362272, -6.30958 ], [ -36.343655, -6.302136 ], [ -36.343131, -6.301832 ], [ -36.307259, -6.281099 ], [ -36.294647, -6.291708 ], [ -36.286714, -6.300666 ], [ -36.27954, -6.308463 ], [ -36.278803, -6.317229 ], [ -36.278145, -6.348958 ], [ -36.296006, -6.370011 ], [ -36.298912, -6.381658 ], [ -36.294889, -6.394161 ], [ -36.282587, -6.397019 ], [ -36.268762, -6.401488 ], [ -36.261912, -6.401876 ], [ -36.250831, -6.404024 ], [ -36.24944, -6.43696 ], [ -36.226203, -6.433629 ], [ -36.203856, -6.43182 ], [ -36.174133, -6.430365 ], [ -36.14342, -6.424925 ], [ -36.109857, -6.428781 ], [ -36.107143, -6.425877 ], [ -36.102783, -6.421148 ], [ -36.098241, -6.419525 ], [ -36.09615, -6.41986 ], [ -36.095773, -6.419799 ], [ -36.086414, -6.415436 ], [ -36.079683, -6.40479 ], [ -36.072377, -6.410023 ], [ -36.073432, -6.414472 ], [ -36.066895, -6.414688 ], [ -36.061408, -6.409846 ], [ -36.050918, -6.431803 ], [ -36.036381, -6.443865 ], [ -36.012955, -6.454641 ], [ -36.008007, -6.464719 ], [ -36.011879, -6.473533 ], [ -36.007026, -6.474122 ], [ -36.005018, -6.480653 ], [ -35.977318, -6.488505 ], [ -35.971911, -6.487138 ], [ -35.964912, -6.483959 ], [ -35.943854, -6.492606 ], [ -35.870032, -6.488237 ], [ -35.852762, -6.487213 ], [ -35.867863, -6.545382 ], [ -35.876619, -6.578089 ], [ -35.875206, -6.59258 ], [ -35.871938, -6.626015 ], [ -35.871312, -6.632413 ], [ -35.866727, -6.679194 ], [ -35.874105, -6.69141 ], [ -35.892943, -6.690664 ], [ -35.901417, -6.69953 ], [ -35.898575, -6.704616 ], [ -35.901022, -6.705978 ], [ -35.906851, -6.709221 ], [ -35.910872, -6.717083 ], [ -35.922393, -6.719905 ], [ -35.9222, -6.730922 ], [ -35.898548, -6.743565 ], [ -35.896152, -6.749991 ], [ -35.902617, -6.757633 ], [ -35.899349, -6.77301 ], [ -35.905308, -6.778133 ], [ -35.906568, -6.784262 ], [ -35.897383, -6.793202 ], [ -35.916455, -6.795782 ], [ -35.923269, -6.814983 ], [ -35.938421, -6.828451 ], [ -35.938568, -6.828565 ], [ -36.001881, -6.869356 ], [ -36.024445, -6.87928 ], [ -36.032394, -6.881501 ], [ -36.055169, -6.893391 ], [ -36.071377, -6.906523 ], [ -36.098142, -6.923477 ], [ -36.112517, -6.930765 ], [ -36.146217, -6.943292 ], [ -36.147363, -6.943537 ], [ -36.1699, -6.941107 ], [ -36.188657, -6.921475 ], [ -36.261249, -6.845417 ], [ -36.282977, -6.890426 ], [ -36.291287, -6.905331 ], [ -36.298814, -6.931331 ], [ -36.308878, -6.938949 ], [ -36.320072, -6.939139 ], [ -36.325772, -6.938526 ], [ -36.334215, -6.947018 ], [ -36.351197, -6.95554 ], [ -36.374799, -6.970759 ] ], [ [ -36.405676, -6.845841 ], [ -36.405676, -6.845842 ], [ -36.399148, -6.850036 ], [ -36.405676, -6.845841 ] ] ] } },
{ "type": "Feature", "properties": { "HREG_ID": "25005", "HREG_NAME": "5ª Região", "id": "250073", "name": "Amparo", "description": "Amparo", "MUN_ID": "250073", "UF": "PB", "MACRO_ID": "2502", "MACRO_NAME": "Macrorregião II - Campina Grande" }, "geometry": { "type": "Polygon", "coordinates": [ [ [ -37.015004, -8.291661 ], [ -37.020307, -8.289258 ], [ -37.039771, -8.265972 ], [ -37.080861, -8.265961 ], [ -37.080279, -8.240669 ], [ -37.06619, -8.232586 ], [ -37.067077, -8.229689 ], [ -37.080554, -8.221478 ], [ -37.089551, -8.230753 ], [ -37.100086, -8.233294 ], [ -37.122573, -8.208653 ], [ -37.125758, -8.191084 ], [ -37.118319, -8.179977 ], [ -37.117918, -8.174939 ], [ -37.12611, -8.173271 ], [ -37.14085, -8.176821 ], [ -37.159883, -8.169988 ], [ -37.163079, -8.158275 ], [ -37.150662, -8.149629 ], [ -37.158271, -8.138457 ], [ -37.152886, -8.127055 ], [ -37.14383, -8.124584 ], [ -37.142216, -8.117532 ], [ -37.147476, -8.09968 ], [ -37.143365, -8.087553 ], [ -37.145167, -8.081778 ], [ -37.156503, -8.064121 ], [ -37.15775, -8.050812 ], [ -37.148057, -8.034702 ], [ -37.149229, -8.023327 ], [ -37.149312, -8.022403 ], [ -37.151452, -8.009003 ], [ -37.160077, -7.996741 ], [ -37.174967, -7.996447 ], [ -37.178051, -7.990175 ], [ -37.185129, -7.990033 ], [ -37.187933, -7.982548 ], [ -37.193052, -7.982455 ], [ -37.192333, -7.960187 ], [ -37.207051, -7.95179 ], [ -37.212527, -7.954504 ], [ -37.216937, -7.95598 ], [ -37.221094, -7.961998 ], [ -37.219246, -7.972381 ], [ -37.22844, -7.972183 ], [ -37.230418, -7.968986 ], [ -37.236999, -7.972896 ], [ -37.24664, -7.968945 ], [ -37.263192, -7.967766 ], [ -37.277059, -7.971568 ], [ -37.295233, -7.96451 ], [ -37.302993, -7.969801 ], [ -37.31665, -7.967654 ], [ -37.33944, -7.979392 ], [ -37.34094, -7.974118 ], [ -37.355528, -7.975454 ], [ -37.355836, -7.972319 ], [ -37.34758, -7.955001 ], [ -37.349873, -7.948183 ], [ -37.334387, -7.942636 ], [ -37.31728, -7.942359 ], [ -37.31436, -7.935523 ], [ -37.308633, -7.933766 ], [ -37.307711, -7.92665 ], [ -37.311057, -7.921238 ], [ -37.307641, -7.914576 ], [ -37.312916, -7.910975 ], [ -37.322426, -7.912587 ], [ -37.318424, -7.908546 ], [ -37.306935, -7.906897 ], [ -37.303308, -7.903765 ], [ -37.287051, -7.903466 ], [ -37.253041, -7.879833 ], [ -37.24375, -7.873435 ], [ -37.246525, -7.867769 ], [ -37.244583, -7.861175 ], [ -37.250027, -7.853245 ], [ -37.246807, -7.846394 ], [ -37.22175, -7.84184 ], [ -37.227812, -7.821108 ], [ -37.240119, -7.822684 ], [ -37.243313, -7.818592 ], [ -37.229834, -7.812699 ], [ -37.230219, -7.806331 ], [ -37.222655, -7.803652 ], [ -37.217073, -7.806276 ], [ -37.197615, -7.798506 ], [ -37.191196, -7.79076 ], [ -37.182693, -7.790307 ], [ -37.175398, -7.795918 ], [ -37.170326, -7.79982 ], [ -37.171024, -7.794761 ], [ -37.167913, -7.794711 ], [ -37.159471, -7.792806 ], [ -37.151609, -7.779435 ], [ -37.156439, -7.776459 ], [ -37.15669, -7.772591 ], [ -37.138603, -7.745108 ], [ -37.150256, -7.728623 ], [ -37.150155, -7.715523 ], [ -37.1542, -7.705995 ], [ -37.160698, -7.697558 ], [ -37.173716, -7.683886 ], [ -37.179775, -7.666696 ], [ -37.194789, -7.651654 ], [ -37.196979, -7.645026 ], [ -37.196331, -7.629173 ], [ -37.183761, -7.615407 ], [ -37.180217, -7.601733 ], [ -37.18018, -7.601585 ], [ -37.172885, -7.587489 ], [ -37.155428, -7.567473 ], [ -37.133391, -7.549637 ], [ -37.121182, -7.535711 ], [ -37.105763, -7.530719 ], [ -37.085855, -7.517386 ], [ -37.067967, -7.516701 ], [ -37.053482, -7.504161 ], [ -37.042817, -7.503506 ], [ -37.030075, -7.49803 ], [ -37.025821, -7.496917 ], [ -37.025648, -7.496804 ], [ -37.024862, -7.49629 ], [ -37.010221, -7.489149 ], [ -37.002913, -7.495981 ], [ -36.983885, -7.481854 ], [ -36.985083, -7.475194 ], [ -36.995113, -7.472182 ], [ -36.993722, -7.464303 ], [ -36.99697, -7.458986 ], [ -37.01039, -7.453228 ], [ -37.012837, -7.444576 ], [ -37.020884, -7.43979 ], [ -37.022461, -7.43562 ], [ -37.023275, -7.43346 ], [ -37.014168, -7.429961 ], [ -37.017224, -7.424166 ], [ -37.025637, -7.422056 ], [ -37.01302, -7.403617 ], [ -37.013362, -7.403386 ], [ -36.979679, -7.388717 ], [ -36.956288, -7.383171 ], [ -36.931767, -7.381116 ], [ -36.918848, -7.385712 ], [ -36.903051, -7.386339 ], [ -36.896617, -7.382674 ], [ -36.883976, -7.383827 ], [ -36.876246, -7.376201 ], [ -36.864805, -7.374171 ], [ -36.860099, -7.367451 ], [ -36.836521, -7.371357 ], [ -36.804797, -7.369088 ], [ -36.77392, -7.37126 ], [ -36.773715, -7.300564 ], [ -36.75672, -7.305437 ], [ -36.749391, -7.304556 ], [ -36.737192, -7.313703 ], [ -36.719422, -7.316395 ], [ -36.715222, -7.313755 ], [ -36.713588, -7.317671 ], [ -36.701273, -7.318141 ], [ -36.707414, -7.291225 ], [ -36.716274, -7.280935 ], [ -36.683417, -7.241164 ], [ -36.679583, -7.236525 ], [ -36.680807, -7.240867 ], [ -36.668832, -7.251173 ], [ -36.660639, -7.247536 ], [ -36.657776, -7.251646 ], [ -36.657579, -7.257785 ], [ -36.663393, -7.258794 ], [ -36.661614, -7.264199 ], [ -36.655224, -7.264416 ], [ -36.660952, -7.267845 ], [ -36.661752, -7.279439 ], [ -36.655833, -7.278333 ], [ -36.651223, -7.282585 ], [ -36.622072, -7.337496 ], [ -36.606975, -7.345896 ], [ -36.60042, -7.339353 ], [ -36.583802, -7.335837 ], [ -36.57511, -7.322976 ], [ -36.566732, -7.323281 ], [ -36.560313, -7.268915 ], [ -36.573884, -7.247131 ], [ -36.55859, -7.244994 ], [ -36.54928, -7.233605 ], [ -36.526119, -7.228343 ], [ -36.543387, -7.218337 ], [ -36.551809, -7.189271 ], [ -36.557051, -7.185539 ], [ -36.567704, -7.178867 ], [ -36.5145, -7.187054 ], [ -36.486665, -7.189512 ], [ -36.485991, -7.189571 ], [ -36.418192, -7.199053 ], [ -36.405723, -7.21789 ], [ -36.325773, -7.18835 ], [ -36.343391, -7.282742 ], [ -36.330512, -7.307126 ], [ -36.381365, -7.402579 ], [ -36.427071, -7.488317 ], [ -36.461839, -7.598637 ], [ -36.478947, -7.65299 ], [ -36.458694, -7.659148 ], [ -36.456745, -7.655265 ], [ -36.452961, -7.657364 ], [ -36.449968, -7.652245 ], [ -36.44298, -7.653433 ], [ -36.445444, -7.674019 ], [ -36.445416, -7.674112 ], [ -36.440884, -7.683032 ], [ -36.398865, -7.765674 ], [ -36.396093, -7.808287 ], [ -36.407087, -7.813665 ], [ -36.423711, -7.815368 ], [ -36.429627, -7.826701 ], [ -36.428721, -7.866626 ], [ -36.440047, -7.87784 ], [ -36.432386, -7.879575 ], [ -36.429521, -7.884658 ], [ -36.434042, -7.895907 ], [ -36.445418, -7.907757 ], [ -36.44336, -7.913919 ], [ -36.445964, -7.915968 ], [ -36.463763, -7.914939 ], [ -36.479798, -7.924352 ], [ -36.487778, -7.914973 ], [ -36.499051, -7.919903 ], [ -36.512519, -7.91446 ], [ -36.536129, -7.901198 ], [ -36.551682, -7.898303 ], [ -36.568368, -7.902744 ], [ -36.574473, -7.907089 ], [ -36.577862, -7.914836 ], [ -36.572252, -7.935563 ], [ -36.579641, -7.948229 ], [ -36.57385, -7.951263 ], [ -36.57287, -7.95554 ], [ -36.576443, -7.959234 ], [ -36.586523, -7.958244 ], [ -36.611538, -7.947486 ], [ -36.613125, -7.956105 ], [ -36.622315, -7.969098 ], [ -36.622834, -7.98167 ], [ -36.627514, -7.985995 ], [ -36.627859, -8.013659 ], [ -36.627514, -8.055337 ], [ -36.633872, -8.058897 ], [ -36.653454, -8.069972 ], [ -36.657239, -8.075147 ], [ -36.657493, -8.07572 ], [ -36.656935, -8.081665 ], [ -36.648296, -8.082319 ], [ -36.6469, -8.092078 ], [ -36.636647, -8.092834 ], [ -36.627516, -8.102445 ], [ -36.628274, -8.110638 ], [ -36.639981, -8.119498 ], [ -36.667506, -8.123853 ], [ -36.688692, -8.137357 ], [ -36.694126, -8.143454 ], [ -36.686712, -8.155265 ], [ -36.708323, -8.155897 ], [ -36.72247, -8.150552 ], [ -36.725443, -8.156035 ], [ -36.715443, -8.166903 ], [ -36.722066, -8.167921 ], [ -36.723633, -8.172056 ], [ -36.74227, -8.172577 ], [ -36.749804, -8.175291 ], [ -36.753169, -8.191065 ], [ -36.761231, -8.195881 ], [ -36.775035, -8.190308 ], [ -36.787498, -8.189421 ], [ -36.794509, -8.189368 ], [ -36.805439, -8.195031 ], [ -36.812172, -8.204881 ], [ -36.861362, -8.222013 ], [ -36.878889, -8.235231 ], [ -36.89561, -8.240407 ], [ -36.907924, -8.252681 ], [ -36.922658, -8.269416 ], [ -36.944606, -8.27484 ], [ -36.947386, -8.278706 ], [ -36.946968, -8.29065 ], [ -36.951048, -8.296486 ], [ -36.954583, -8.298937 ], [ -36.977677, -8.297003 ], [ -36.990814, -8.30254 ], [ -37.015004, -8.291661 ] ] ] } },
{ "type": "Feature", "properties": { "HREG_ID": "25006", "HREG_NAME": "6ª Região", "id": "250115", "name": "Areia de Baraúnas", "description": "Areia de Baraúnas", "MUN_ID": "250115", "UF": "PB", "MACRO_ID": "2501", "MACRO_NAME": "Macrorregião III - Sertão Alto Sertão" }, "geometry": { "type": "Polygon", "coordinates": [ [ [ -37.349167, -7.336622 ], [ -37.38537, -7.356288 ], [ -37.39528, -7.336232 ], [ -37.395641, -7.333315 ], [ -37.392728, -7.319217 ], [ -37.398118, -7.31476 ], [ -37.397323, -7.307599 ], [ -37.444956, -7.310314 ], [ -37.447938, -7.317254 ], [ -37.457922, -7.312786 ], [ -37.476801, -7.320722 ], [ -37.492564, -7.322344 ], [ -37.531387, -7.320516 ], [ -37.551111, -7.318677 ], [ -37.566369, -7.314559 ], [ -37.569993, -7.316653 ], [ -37.580299, -7.307667 ], [ -37.585078, -7.287762 ], [ -37.59331, -7.284156 ], [ -37.595648, -7.271392 ], [ -37.614394, -7.269808 ], [ -37.61502, -7.264306 ], [ -37.623486, -7.261871 ], [ -37.629814, -7.248649 ], [ -37.647786, -7.237132 ], [ -37.648548, -7.232987 ], [ -37.657115, -7.231455 ], [ -37.660318, -7.23385 ], [ -37.661415, -7.22545 ], [ -37.673021, -7.213219 ], [ -37.668589, -7.203745 ], [ -37.675877, -7.19052 ], [ -37.676908, -7.171735 ], [ -37.703493, -7.175055 ], [ -37.704426, -7.174819 ], [ -37.740831, -7.173829 ], [ -37.748608, -7.160989 ], [ -37.754099, -7.141001 ], [ -37.776127, -7.14163 ], [ -37.781301, -7.138596 ], [ -37.791336, -7.122299 ], [ -37.799169, -7.131568 ], [ -37.805538, -7.12339 ], [ -37.823933, -7.11797 ], [ -37.823292, -7.094058 ], [ -37.822279, -7.056234 ], [ -37.821271, -7.018843 ], [ -37.778551, -7.018991 ], [ -37.748477, -7.023985 ], [ -37.705393, -7.020909 ], [ -37.676299, -7.014629 ], [ -37.667026, -7.008399 ], [ -37.676921, -6.969959 ], [ -37.694323, -6.959533 ], [ -37.696114, -6.94396 ], [ -37.67679, -6.938164 ], [ -37.677856, -6.92738 ], [ -37.684971, -6.917448 ], [ -37.680007, -6.912544 ], [ -37.68048, -6.90591 ], [ -37.680614, -6.905197 ], [ -37.679202, -6.898036 ], [ -37.668448, -6.884092 ], [ -37.658377, -6.878937 ], [ -37.644726, -6.863028 ], [ -37.636051, -6.858954 ], [ -37.632528, -6.852199 ], [ -37.633017, -6.840856 ], [ -37.627006, -6.826238 ], [ -37.630696, -6.806218 ], [ -37.63254, -6.796368 ], [ -37.624272, -6.787129 ], [ -37.622361, -6.779721 ], [ -37.632963, -6.767497 ], [ -37.630609, -6.756678 ], [ -37.643826, -6.74361 ], [ -37.647163, -6.72865 ], [ -37.656773, -6.722415 ], [ -37.657004, -6.722265 ], [ -37.638418, -6.721732 ], [ -37.556488, -6.717008 ], [ -37.518266, -6.712025 ], [ -37.484356, -6.709636 ], [ -37.45553, -6.704852 ], [ -37.426636, -6.700055 ], [ -37.406991, -6.696794 ], [ -37.399628, -6.699328 ], [ -37.342371, -6.700846 ], [ -37.313957, -6.688573 ], [ -37.297925, -6.691163 ], [ -37.283374, -6.693514 ], [ -37.289826, -6.712643 ], [ -37.279576, -6.723832 ], [ -37.263579, -6.731769 ], [ -37.269022, -6.761584 ], [ -37.273608, -6.766389 ], [ -37.256985, -6.779994 ], [ -37.260251, -6.786958 ], [ -37.255076, -6.798067 ], [ -37.254803, -6.810659 ], [ -37.251716, -6.812699 ], [ -37.234258, -6.824234 ], [ -37.213555, -6.824417 ], [ -37.190331, -6.824963 ], [ -37.151887, -6.797962 ], [ -37.128596, -6.765575 ], [ -37.11972, -6.76689 ], [ -37.075077, -6.753732 ], [ -37.059084, -6.749023 ], [ -37.034921, -6.733764 ], [ -37.011846, -6.715821 ], [ -37.009647, -6.714111 ], [ -37.003252, -6.709211 ], [ -36.989602, -6.708749 ], [ -36.977283, -6.721454 ], [ -36.971459, -6.740244 ], [ -36.971548, -6.765081 ], [ -36.964228, -6.773653 ], [ -36.952324, -6.774751 ], [ -36.958759, -6.782901 ], [ -36.956797, -6.790076 ], [ -36.931184, -6.768173 ], [ -36.909878, -6.756528 ], [ -36.873996, -6.742782 ], [ -36.834692, -6.730669 ], [ -36.788793, -6.772064 ], [ -36.772392, -6.786663 ], [ -36.769128, -6.838345 ], [ -36.760405, -6.837565 ], [ -36.729861, -6.835993 ], [ -36.744652, -6.879111 ], [ -36.755727, -6.895922 ], [ -36.759661, -6.914137 ], [ -36.766207, -6.935464 ], [ -36.755465, -6.953863 ], [ -36.737039, -6.972405 ], [ -36.730734, -6.975784 ], [ -36.718217, -6.982331 ], [ -36.712103, -6.979615 ], [ -36.699366, -6.947937 ], [ -36.694335, -6.934087 ], [ -36.686882, -6.925559 ], [ -36.654542, -6.927835 ], [ -36.659632, -6.934221 ], [ -36.661417, -6.961147 ], [ -36.66686, -6.969192 ], [ -36.671452, -6.971505 ], [ -36.68583, -6.968896 ], [ -36.69588, -6.976241 ], [ -36.701477, -6.985619 ], [ -36.694841, -7.000952 ], [ -36.686174, -7.009133 ], [ -36.702825, -7.006936 ], [ -36.725251, -7.003456 ], [ -36.730252, -7.018792 ], [ -36.741817, -7.024889 ], [ -36.742482, -7.032557 ], [ -36.753718, -7.042536 ], [ -36.750037, -7.058255 ], [ -36.750992, -7.079507 ], [ -36.751164, -7.07984 ], [ -36.778122, -7.112125 ], [ -36.809771, -7.150039 ], [ -36.833081, -7.14482 ], [ -36.84418, -7.146138 ], [ -36.849845, -7.150198 ], [ -36.85826, -7.14877 ], [ -36.879787, -7.158944 ], [ -36.894419, -7.159768 ], [ -36.904688, -7.15162 ], [ -36.919169, -7.154856 ], [ -36.930687, -7.153046 ], [ -36.930951, -7.149667 ], [ -36.944099, -7.151364 ], [ -36.954338, -7.148517 ], [ -36.954482, -7.14851 ], [ -36.963864, -7.150366 ], [ -36.976323, -7.160062 ], [ -36.992279, -7.179716 ], [ -37.001602, -7.175331 ], [ -37.018815, -7.190053 ], [ -37.034301, -7.189516 ], [ -37.029294, -7.204923 ], [ -37.02927, -7.204995 ], [ -37.014518, -7.250342 ], [ -37.011683, -7.283051 ], [ -37.027036, -7.286536 ], [ -37.028756, -7.292699 ], [ -37.038987, -7.329377 ], [ -37.052845, -7.379092 ], [ -37.069091, -7.381977 ], [ -37.072608, -7.367869 ], [ -37.081057, -7.363128 ], [ -37.085282, -7.35785 ], [ -37.097006, -7.353562 ], [ -37.101523, -7.356225 ], [ -37.106363, -7.353484 ], [ -37.121223, -7.350508 ], [ -37.127637, -7.343596 ], [ -37.134974, -7.346258 ], [ -37.139996, -7.341719 ], [ -37.144602, -7.334639 ], [ -37.156726, -7.337807 ], [ -37.165, -7.336189 ], [ -37.167769, -7.331556 ], [ -37.168189, -7.319545 ], [ -37.176584, -7.309146 ], [ -37.196331, -7.294263 ], [ -37.213833, -7.290896 ], [ -37.232502, -7.274683 ], [ -37.23327, -7.27399 ], [ -37.260476, -7.273754 ], [ -37.277421, -7.274779 ], [ -37.28799, -7.287883 ], [ -37.30747, -7.288836 ], [ -37.313618, -7.288955 ], [ -37.332251, -7.289326 ], [ -37.345696, -7.30856 ], [ -37.35694, -7.322709 ], [ -37.349167, -7.336622 ] ] ] } },
{ "type": "Feature", "properties": { "HREG_ID": "25007", "HREG_NAME": "7ª Região", "id": "250020", "name": "Aguiar", "description": "Aguiar", "MUN_ID": "250020", "UF": "PB", "MACRO_ID": "2501", "MACRO_NAME": "Macrorregião III - Sertão Alto Sertão" }, "geometry": { "type": "Polygon", "coordinates": [ [ [ -38.495446, -7.7384 ], [ -38.496222, -7.749624 ], [ -38.516251, -7.748921 ], [ -38.529329, -7.7547 ], [ -38.545837, -7.749042 ], [ -38.559777, -7.756684 ], [ -38.57175, -7.751066 ], [ -38.574473, -7.75393 ], [ -38.578677, -7.746191 ], [ -38.589604, -7.755274 ], [ -38.593273, -7.753941 ], [ -38.597384, -7.741627 ], [ -38.607222, -7.739071 ], [ -38.607614, -7.72554 ], [ -38.616363, -7.713083 ], [ -38.624975, -7.707911 ], [ -38.626084, -7.694318 ], [ -38.640963, -7.686056 ], [ -38.641729, -7.677229 ], [ -38.651058, -7.676674 ], [ -38.650355, -7.668156 ], [ -38.658312, -7.661905 ], [ -38.663242, -7.657115 ], [ -38.669585, -7.660076 ], [ -38.672429, -7.658388 ], [ -38.678618, -7.646151 ], [ -38.686386, -7.634632 ], [ -38.695638, -7.632395 ], [ -38.705053, -7.621636 ], [ -38.714757, -7.621512 ], [ -38.717239, -7.626481 ], [ -38.71462, -7.615866 ], [ -38.717945, -7.608948 ], [ -38.712668, -7.607946 ], [ -38.710669, -7.586227 ], [ -38.702259, -7.580614 ], [ -38.688463, -7.581779 ], [ -38.67949, -7.574316 ], [ -38.674113, -7.568924 ], [ -38.654971, -7.565136 ], [ -38.658777, -7.560213 ], [ -38.653218, -7.554162 ], [ -38.656133, -7.545787 ], [ -38.652357, -7.539269 ], [ -38.651138, -7.527396 ], [ -38.654304, -7.521815 ], [ -38.646121, -7.517134 ], [ -38.645642, -7.50152 ], [ -38.63055, -7.486924 ], [ -38.635469, -7.474612 ], [ -38.641337, -7.464561 ], [ -38.645819, -7.462933 ], [ -38.644565, -7.459613 ], [ -38.602973, -7.457186 ], [ -38.602491, -7.453152 ], [ -38.60545, -7.444167 ], [ -38.595721, -7.438224 ], [ -38.594665, -7.433531 ], [ -38.583897, -7.432772 ], [ -38.584144, -7.415945 ], [ -38.595772, -7.41435 ], [ -38.590031, -7.400776 ], [ -38.583248, -7.397798 ], [ -38.576128, -7.376203 ], [ -38.56083, -7.357859 ], [ -38.551858, -7.340195 ], [ -38.549029, -7.334592 ], [ -38.543759, -7.338665 ], [ -38.528062, -7.349511 ], [ -38.524041, -7.364261 ], [ -38.519828, -7.364525 ], [ -38.516297, -7.369516 ], [ -38.51596, -7.36682 ], [ -38.504772, -7.364641 ], [ -38.502726, -7.375021 ], [ -38.495409, -7.374542 ], [ -38.48682, -7.378916 ], [ -38.486312, -7.379127 ], [ -38.48029, -7.381631 ], [ -38.476728, -7.374582 ], [ -38.462897, -7.370576 ], [ -38.453281, -7.360987 ], [ -38.440342, -7.357944 ], [ -38.432575, -7.342753 ], [ -38.414879, -7.343129 ], [ -38.408469, -7.331249 ], [ -38.412675, -7.32115 ], [ -38.413485, -7.305696 ], [ -38.421646, -7.303026 ], [ -38.42138, -7.289422 ], [ -38.416553, -7.280993 ], [ -38.419472, -7.269904 ], [ -38.416101, -7.261244 ], [ -38.412804, -7.253667 ], [ -38.403196, -7.248233 ], [ -38.411586, -7.237812 ], [ -38.40563, -7.221281 ], [ -38.406184, -7.207205 ], [ -38.404984, -7.199912 ], [ -38.393478, -7.178717 ], [ -38.384888, -7.179199 ], [ -38.382708, -7.175747 ], [ -38.384397, -7.166193 ], [ -38.344167, -7.154709 ], [ -38.334968, -7.155387 ], [ -38.333183, -7.159916 ], [ -38.31809, -7.1595 ], [ -38.314484, -7.1592 ], [ -38.311697, -7.153579 ], [ -38.298011, -7.156483 ], [ -38.295484, -7.156425 ], [ -38.294435, -7.144688 ], [ -38.283959, -7.129101 ], [ -38.301474, -7.12723 ], [ -38.330945, -7.142188 ], [ -38.331055, -7.115869 ], [ -38.331091, -7.107037 ], [ -38.331276, -7.106262 ], [ -38.32155, -7.096232 ], [ -38.3179, -7.083973 ], [ -38.3095, -7.08233 ], [ -38.335346, -7.063854 ], [ -38.322359, -7.062325 ], [ -38.297651, -7.036041 ], [ -38.283856, -7.01164 ], [ -38.277132, -7.003925 ], [ -38.262278, -6.992833 ], [ -38.253695, -6.994297 ], [ -38.229913, -7.002713 ], [ -38.205036, -7.009806 ], [ -38.156292, -7.009438 ], [ -38.132224, -7.007736 ], [ -38.089672, -7.012437 ], [ -38.088748, -7.008495 ], [ -38.069384, -7.002489 ], [ -38.072639, -6.990245 ], [ -38.072668, -6.990136 ], [ -38.061513, -6.979738 ], [ -38.034764, -6.974335 ], [ -38.026053, -6.956092 ], [ -38.014048, -6.949219 ], [ -38.006071, -6.943898 ], [ -37.999722, -6.948754 ], [ -37.977721, -6.962867 ], [ -37.948361, -6.98169 ], [ -37.929288, -6.993913 ], [ -37.891616, -7.009874 ], [ -37.87023, -7.018531 ], [ -37.832641, -7.021823 ], [ -37.821271, -7.018843 ], [ -37.822279, -7.056234 ], [ -37.823292, -7.094058 ], [ -37.823933, -7.11797 ], [ -37.805538, -7.12339 ], [ -37.799169, -7.131568 ], [ -37.791336, -7.122299 ], [ -37.781301, -7.138596 ], [ -37.776127, -7.14163 ], [ -37.754099, -7.141001 ], [ -37.748608, -7.160989 ], [ -37.740831, -7.173829 ], [ -37.704426, -7.174819 ], [ -37.703493, -7.175055 ], [ -37.676908, -7.171735 ], [ -37.675877, -7.19052 ], [ -37.668589, -7.203745 ], [ -37.673021, -7.213219 ], [ -37.661415, -7.22545 ], [ -37.660318, -7.23385 ], [ -37.657115, -7.231455 ], [ -37.648548, -7.232987 ], [ -37.647786, -7.237132 ], [ -37.629814, -7.248649 ], [ -37.623486, -7.261871 ], [ -37.61502, -7.264306 ], [ -37.614394, -7.269808 ], [ -37.595648, -7.271392 ], [ -37.59331, -7.284156 ], [ -37.585078, -7.287762 ], [ -37.580299, -7.307667 ], [ -37.569993, -7.316653 ], [ -37.583972, -7.331579 ], [ -37.597413, -7.332136 ], [ -37.607619, -7.327434 ], [ -37.613646, -7.32997 ], [ -37.613806, -7.329993 ], [ -37.624817, -7.331585 ], [ -37.640099, -7.323092 ], [ -37.650291, -7.328173 ], [ -37.662014, -7.32926 ], [ -37.682598, -7.323901 ], [ -37.697396, -7.335046 ], [ -37.705032, -7.352095 ], [ -37.715393, -7.342907 ], [ -37.721763, -7.342924 ], [ -37.724401, -7.344911 ], [ -37.723874, -7.360862 ], [ -37.739264, -7.36575 ], [ -37.736925, -7.378248 ], [ -37.721016, -7.381922 ], [ -37.720119, -7.384437 ], [ -37.745186, -7.394975 ], [ -37.75672, -7.392091 ], [ -37.765996, -7.400109 ], [ -37.769152, -7.39768 ], [ -37.783706, -7.389882 ], [ -37.792041, -7.396984 ], [ -37.803984, -7.39831 ], [ -37.820189, -7.412184 ], [ -37.83943, -7.41731 ], [ -37.846181, -7.426619 ], [ -37.855124, -7.433551 ], [ -37.863412, -7.436697 ], [ -37.885858, -7.444147 ], [ -37.920952, -7.475437 ], [ -37.939425, -7.493188 ], [ -37.944835, -7.493584 ], [ -37.953772, -7.500929 ], [ -37.979587, -7.525361 ], [ -37.973747, -7.532213 ], [ -37.982262, -7.534379 ], [ -37.993964, -7.537675 ], [ -38.000945, -7.530451 ], [ -38.025384, -7.524439 ], [ -38.046351, -7.514291 ], [ -38.046658, -7.541203 ], [ -38.051113, -7.550475 ], [ -38.086056, -7.559677 ], [ -38.102011, -7.568946 ], [ -38.103416, -7.570143 ], [ -38.105101, -7.571145 ], [ -38.125119, -7.591091 ], [ -38.135122, -7.599484 ], [ -38.169259, -7.612794 ], [ -38.183155, -7.612945 ], [ -38.179214, -7.64029 ], [ -38.199369, -7.642786 ], [ -38.229352, -7.6465 ], [ -38.241388, -7.654586 ], [ -38.24652, -7.661147 ], [ -38.244119, -7.66746 ], [ -38.25615, -7.680237 ], [ -38.27151, -7.697023 ], [ -38.283721, -7.702737 ], [ -38.298207, -7.725516 ], [ -38.310526, -7.738669 ], [ -38.315531, -7.728065 ], [ -38.311677, -7.715905 ], [ -38.316906, -7.715117 ], [ -38.315853, -7.708742 ], [ -38.320422, -7.69755 ], [ -38.326334, -7.693296 ], [ -38.330007, -7.695739 ], [ -38.336846, -7.693169 ], [ -38.34434, -7.694589 ], [ -38.357144, -7.676754 ], [ -38.361265, -7.685896 ], [ -38.369722, -7.692241 ], [ -38.370584, -7.698007 ], [ -38.381901, -7.707067 ], [ -38.403578, -7.714034 ], [ -38.40085, -7.72011 ], [ -38.409155, -7.730085 ], [ -38.412134, -7.729699 ], [ -38.427272, -7.729628 ], [ -38.433864, -7.720043 ], [ -38.449719, -7.716964 ], [ -38.456731, -7.717699 ], [ -38.463623, -7.730483 ], [ -38.490168, -7.734253 ], [ -38.495446, -7.7384 ] ] ] } },
{ "type": "Feature", "properties": { "HREG_ID": "25008", "HREG_NAME": "8ª Região", "id": "250200", "name": "Belém do Brejo do Cruz", "description": "Belém do Brejo do Cruz", "MUN_ID": "250200", "UF": "PB", "MACRO_ID": "2501", "MACRO_NAME": "Macrorregião III - Sertão Alto Sertão" }, "geometry": { "type": "Polygon", "coordinates": [ [ [ -37.697259, -6.545983 ], [ -37.690017, -6.556987 ], [ -37.703701, -6.563257 ], [ -37.715315, -6.561686 ], [ -37.713386, -6.570766 ], [ -37.717596, -6.57826 ], [ -37.726297, -6.580293 ], [ -37.743885, -6.578246 ], [ -37.752613, -6.584658 ], [ -37.754459, -6.594716 ], [ -37.773938, -6.597581 ], [ -37.787769, -6.596175 ], [ -37.80018, -6.594838 ], [ -37.831011, -6.591382 ], [ -37.826999, -6.583167 ], [ -37.826365, -6.55862 ], [ -37.837169, -6.556576 ], [ -37.849902, -6.555158 ], [ -37.863005, -6.541792 ], [ -37.903728, -6.541261 ], [ -37.916062, -6.532695 ], [ -37.932104, -6.528869 ], [ -37.93238, -6.528824 ], [ -37.979523, -6.531233 ], [ -37.997509, -6.527339 ], [ -38.014894, -6.527245 ], [ -38.025641, -6.527604 ], [ -38.026996, -6.524802 ], [ -38.019139, -6.502965 ], [ -38.01696, -6.479329 ], [ -38.026411, -6.474358 ], [ -38.021467, -6.468057 ], [ -38.012599, -6.468455 ], [ -38.019621, -6.445606 ], [ -38.007877, -6.431794 ], [ -38.014045, -6.429994 ], [ -38.013348, -6.427029 ], [ -37.98867, -6.428237 ], [ -37.979912, -6.426686 ], [ -37.978737, -6.426295 ], [ -37.968331, -6.418345 ], [ -37.967675, -6.404724 ], [ -37.955048, -6.397809 ], [ -37.954858, -6.407663 ], [ -37.94509, -6.422222 ], [ -37.92777, -6.421194 ], [ -37.919099, -6.411248 ], [ -37.901185, -6.39928 ], [ -37.88991, -6.399737 ], [ -37.885903, -6.396602 ], [ -37.883915, -6.391278 ], [ -37.888165, -6.386811 ], [ -37.887878, -6.363971 ], [ -37.859481, -6.374479 ], [ -37.853896, -6.365918 ], [ -37.840298, -6.360942 ], [ -37.843771, -6.353959 ], [ -37.833914, -6.341987 ], [ -37.842849, -6.33269 ], [ -37.833386, -6.321381 ], [ -37.822327, -6.317381 ], [ -37.814409, -6.314745 ], [ -37.81419, -6.311914 ], [ -37.823684, -6.305636 ], [ -37.810075, -6.29126 ], [ -37.794172, -6.288635 ], [ -37.771353, -6.29055 ], [ -37.757317, -6.290375 ], [ -37.757451, -6.287383 ], [ -37.771076, -6.272668 ], [ -37.770132, -6.265239 ], [ -37.760171, -6.253693 ], [ -37.776268, -6.245478 ], [ -37.762721, -6.240738 ], [ -37.762427, -6.23494 ], [ -37.775271, -6.230946 ], [ -37.7635, -6.218503 ], [ -37.752734, -6.214033 ], [ -37.753189, -6.198072 ], [ -37.742029, -6.188579 ], [ -37.716064, -6.17884 ], [ -37.708652, -6.176607 ], [ -37.697838, -6.186206 ], [ -37.679814, -6.188751 ], [ -37.679747, -6.188756 ], [ -37.646368, -6.188995 ], [ -37.638131, -6.17944 ], [ -37.615905, -6.175801 ], [ -37.599569, -6.173614 ], [ -37.584793, -6.162429 ], [ -37.573427, -6.158377 ], [ -37.573378, -6.158227 ], [ -37.569277, -6.155042 ], [ -37.560309, -6.164135 ], [ -37.539652, -6.165534 ], [ -37.536007, -6.152439 ], [ -37.521534, -6.151394 ], [ -37.502548, -6.151744 ], [ -37.503053, -6.144 ], [ -37.489026, -6.144041 ], [ -37.482648, -6.151284 ], [ -37.473753, -6.148342 ], [ -37.458605, -6.144606 ], [ -37.45357, -6.119677 ], [ -37.44535, -6.111806 ], [ -37.425612, -6.108601 ], [ -37.407467, -6.112386 ], [ -37.391841, -6.107777 ], [ -37.381997, -6.085158 ], [ -37.378441, -6.084736 ], [ -37.371223, -6.082383 ], [ -37.354092, -6.08609 ], [ -37.335438, -6.067063 ], [ -37.328482, -6.064308 ], [ -37.308858, -6.057364 ], [ -37.300253, -6.049864 ], [ -37.295231, -6.049699 ], [ -37.286576, -6.057593 ], [ -37.272136, -6.055306 ], [ -37.263238, -6.04596 ], [ -37.256133, -6.028075 ], [ -37.250273, -6.025516 ], [ -37.23152, -6.027199 ], [ -37.222347, -6.041752 ], [ -37.204057, -6.037756 ], [ -37.193955, -6.047637 ], [ -37.173591, -6.04762 ], [ -37.175233, -6.054543 ], [ -37.17022, -6.082659 ], [ -37.172312, -6.098433 ], [ -37.166635, -6.109959 ], [ -37.174755, -6.141786 ], [ -37.166041, -6.153512 ], [ -37.156583, -6.152091 ], [ -37.165343, -6.169977 ], [ -37.173881, -6.179706 ], [ -37.192603, -6.182683 ], [ -37.193898, -6.19785 ], [ -37.20124, -6.205306 ], [ -37.233931, -6.212881 ], [ -37.251186, -6.226061 ], [ -37.270211, -6.251317 ], [ -37.274385, -6.281028 ], [ -37.286508, -6.281868 ], [ -37.306117, -6.277667 ], [ -37.318182, -6.279257 ], [ -37.327851, -6.302806 ], [ -37.333616, -6.307942 ], [ -37.363011, -6.321767 ], [ -37.376987, -6.343994 ], [ -37.377505, -6.35004 ], [ -37.377199, -6.368934 ], [ -37.382104, -6.373013 ], [ -37.388207, -6.379335 ], [ -37.388489, -6.390581 ], [ -37.395782, -6.400745 ], [ -37.397328, -6.415886 ], [ -37.386252, -6.425638 ], [ -37.381152, -6.435576 ], [ -37.380971, -6.4364 ], [ -37.380905, -6.436697 ], [ -37.39061, -6.452443 ], [ -37.396889, -6.514201 ], [ -37.415367, -6.53148 ], [ -37.436003, -6.532845 ], [ -37.436222, -6.532842 ], [ -37.444553, -6.532671 ], [ -37.464382, -6.532264 ], [ -37.489041, -6.512372 ], [ -37.492513, -6.509572 ], [ -37.4947, -6.523569 ], [ -37.508332, -6.526172 ], [ -37.529606, -6.540266 ], [ -37.539304, -6.543787 ], [ -37.572362, -6.550446 ], [ -37.580651, -6.547329 ], [ -37.603653, -6.536303 ], [ -37.613862, -6.514579 ], [ -37.617949, -6.515176 ], [ -37.620263, -6.527898 ], [ -37.628745, -6.528316 ], [ -37.629077, -6.528333 ], [ -37.643879, -6.532224 ], [ -37.648764, -6.546569 ], [ -37.665531, -6.547585 ], [ -37.689127, -6.548537 ], [ -37.697259, -6.545983 ] ] ] } },
{ "type": "Feature", "properties": { "HREG_ID": "25009", "HREG_NAME": "9ª Região", "id": "250070", "name": "São João do Rio do Peixe", "description": "São João do Rio do Peixe", "MUN_ID": "250070", "UF": "PB", "MACRO_ID": "2501", "MACRO_NAME": "Macrorregião III - Sertão Alto Sertão" }, "geometry": { "type": "Polygon", "coordinates": [ [ [ -38.406184, -7.207205 ], [ -38.40563, -7.221281 ], [ -38.411586, -7.237812 ], [ -38.403196, -7.248233 ], [ -38.412804, -7.253667 ], [ -38.416101, -7.261244 ], [ -38.419472, -7.269904 ], [ -38.416553, -7.280993 ], [ -38.42138, -7.289422 ], [ -38.421646, -7.303026 ], [ -38.413485, -7.305696 ], [ -38.412675, -7.32115 ], [ -38.408469, -7.331249 ], [ -38.414879, -7.343129 ], [ -38.432575, -7.342753 ], [ -38.440342, -7.357944 ], [ -38.453281, -7.360987 ], [ -38.462897, -7.370576 ], [ -38.476728, -7.374582 ], [ -38.48029, -7.381631 ], [ -38.486312, -7.379127 ], [ -38.48682, -7.378916 ], [ -38.495409, -7.374542 ], [ -38.502726, -7.375021 ], [ -38.504772, -7.364641 ], [ -38.51596, -7.36682 ], [ -38.516297, -7.369516 ], [ -38.519828, -7.364525 ], [ -38.524041, -7.364261 ], [ -38.528062, -7.349511 ], [ -38.543759, -7.338665 ], [ -38.549029, -7.334592 ], [ -38.54873, -7.325416 ], [ -38.550002, -7.315059 ], [ -38.539757, -7.305813 ], [ -38.534234, -7.293388 ], [ -38.542278, -7.277987 ], [ -38.541792, -7.265497 ], [ -38.551747, -7.263156 ], [ -38.554092, -7.251453 ], [ -38.551608, -7.243074 ], [ -38.556579, -7.239277 ], [ -38.58273, -7.247978 ], [ -38.59476, -7.246124 ], [ -38.600291, -7.234362 ], [ -38.605071, -7.236471 ], [ -38.615014, -7.229781 ], [ -38.619063, -7.220318 ], [ -38.622698, -7.207266 ], [ -38.619441, -7.196652 ], [ -38.624449, -7.190917 ], [ -38.636197, -7.193351 ], [ -38.64385, -7.183355 ], [ -38.673058, -7.184888 ], [ -38.687476, -7.189757 ], [ -38.682661, -7.175577 ], [ -38.676776, -7.170532 ], [ -38.676365, -7.167168 ], [ -38.68484, -7.16094 ], [ -38.674939, -7.155318 ], [ -38.674581, -7.143405 ], [ -38.677061, -7.130532 ], [ -38.66819, -7.116919 ], [ -38.6618, -7.109776 ], [ -38.6568, -7.093863 ], [ -38.659447, -7.085141 ], [ -38.666334, -7.081279 ], [ -38.671098, -7.070131 ], [ -38.676888, -7.066699 ], [ -38.669495, -7.047302 ], [ -38.672662, -7.045828 ], [ -38.689447, -7.039827 ], [ -38.691087, -7.028737 ], [ -38.713163, -7.017681 ], [ -38.71676, -7.016539 ], [ -38.730229, -7.011625 ], [ -38.750637, -6.996909 ], [ -38.758331, -6.998059 ], [ -38.764644, -6.993493 ], [ -38.76061, -6.989652 ], [ -38.751534, -6.98818 ], [ -38.742524, -6.974601 ], [ -38.747722, -6.966302 ], [ -38.746611, -6.960178 ], [ -38.756947, -6.957775 ], [ -38.764995, -6.947536 ], [ -38.755363, -6.939727 ], [ -38.757137, -6.934215 ], [ -38.762055, -6.926142 ], [ -38.758413, -6.924877 ], [ -38.758573, -6.916225 ], [ -38.764858, -6.910512 ], [ -38.755925, -6.90319 ], [ -38.729934, -6.896412 ], [ -38.731178, -6.88887 ], [ -38.728304, -6.886974 ], [ -38.713659, -6.885745 ], [ -38.713807, -6.876382 ], [ -38.708777, -6.874024 ], [ -38.700056, -6.876201 ], [ -38.686337, -6.86539 ], [ -38.678165, -6.863664 ], [ -38.675063, -6.861428 ], [ -38.676847, -6.853926 ], [ -38.671921, -6.846576 ], [ -38.669981, -6.842969 ], [ -38.677591, -6.834112 ], [ -38.675216, -6.829811 ], [ -38.661434, -6.823276 ], [ -38.65752, -6.816159 ], [ -38.655266, -6.813765 ], [ -38.654415, -6.812861 ], [ -38.648085, -6.806985 ], [ -38.635106, -6.80422 ], [ -38.641972, -6.791279 ], [ -38.639779, -6.788795 ], [ -38.629116, -6.789501 ], [ -38.617059, -6.793577 ], [ -38.613575, -6.782037 ], [ -38.628671, -6.777308 ], [ -38.639915, -6.763589 ], [ -38.652327, -6.759363 ], [ -38.65205, -6.756651 ], [ -38.649619, -6.751836 ], [ -38.65718, -6.74036 ], [ -38.655623, -6.729843 ], [ -38.665966, -6.719409 ], [ -38.672519, -6.70632 ], [ -38.669683, -6.702148 ], [ -38.672797, -6.696821 ], [ -38.664109, -6.67979 ], [ -38.66023, -6.678402 ], [ -38.662007, -6.673918 ], [ -38.651611, -6.672783 ], [ -38.646863, -6.663596 ], [ -38.646612, -6.653808 ], [ -38.656728, -6.64189 ], [ -38.65491, -6.630079 ], [ -38.648776, -6.627186 ], [ -38.646306, -6.615581 ], [ -38.628807, -6.604183 ], [ -38.632286, -6.590137 ], [ -38.6425, -6.580778 ], [ -38.632728, -6.568811 ], [ -38.632279, -6.562038 ], [ -38.625308, -6.557584 ], [ -38.626253, -6.552555 ], [ -38.606732, -6.529116 ], [ -38.610167, -6.531895 ], [ -38.615758, -6.527746 ], [ -38.611935, -6.512793 ], [ -38.59462, -6.500044 ], [ -38.570057, -6.469797 ], [ -38.569464, -6.454478 ], [ -38.565303, -6.451105 ], [ -38.556052, -6.447244 ], [ -38.555093, -6.437112 ], [ -38.553913, -6.432365 ], [ -38.524165, -6.406685 ], [ -38.517557, -6.408334 ], [ -38.525962, -6.394329 ], [ -38.530481, -6.392728 ], [ -38.542363, -6.401582 ], [ -38.55117, -6.397769 ], [ -38.573061, -6.403401 ], [ -38.577372, -6.402485 ], [ -38.582005, -6.399913 ], [ -38.581194, -6.396334 ], [ -38.588961, -6.395181 ], [ -38.593775, -6.396463 ], [ -38.601694, -6.389224 ], [ -38.594591, -6.386172 ], [ -38.592113, -6.377848 ], [ -38.582611, -6.373646 ], [ -38.572755, -6.37452 ], [ -38.575723, -6.362294 ], [ -38.567001, -6.361128 ], [ -38.564908, -6.356296 ], [ -38.562956, -6.355634 ], [ -38.544713, -6.35336 ], [ -38.549497, -6.350305 ], [ -38.544661, -6.344191 ], [ -38.533755, -6.341529 ], [ -38.516247, -6.345837 ], [ -38.505069, -6.356111 ], [ -38.493824, -6.34442 ], [ -38.484563, -6.339737 ], [ -38.480877, -6.336975 ], [ -38.474633, -6.332848 ], [ -38.458035, -6.329816 ], [ -38.475688, -6.34533 ], [ -38.490182, -6.365678 ], [ -38.482731, -6.380715 ], [ -38.485882, -6.398354 ], [ -38.465457, -6.396012 ], [ -38.451712, -6.392091 ], [ -38.448486, -6.394177 ], [ -38.447607, -6.402954 ], [ -38.44126, -6.404304 ], [ -38.437993, -6.409477 ], [ -38.42569, -6.413726 ], [ -38.405682, -6.409793 ], [ -38.402685, -6.409386 ], [ -38.401388, -6.409161 ], [ -38.391198, -6.415809 ], [ -38.387835, -6.418551 ], [ -38.382617, -6.424356 ], [ -38.381587, -6.431659 ], [ -38.374769, -6.436981 ], [ -38.373312, -6.455382 ], [ -38.36344, -6.453243 ], [ -38.360625, -6.461589 ], [ -38.354868, -6.456823 ], [ -38.343451, -6.456253 ], [ -38.338974, -6.459727 ], [ -38.33244, -6.457792 ], [ -38.328087, -6.460257 ], [ -38.317905, -6.473376 ], [ -38.315634, -6.482021 ], [ -38.31246, -6.48788 ], [ -38.312144, -6.487735 ], [ -38.311658, -6.488474 ], [ -38.308564, -6.489128 ], [ -38.297161, -6.486808 ], [ -38.293678, -6.489003 ], [ -38.28837, -6.505218 ], [ -38.283104, -6.522494 ], [ -38.305116, -6.527312 ], [ -38.298562, -6.559365 ], [ -38.303658, -6.572094 ], [ -38.318378, -6.577491 ], [ -38.334269, -6.577924 ], [ -38.34244, -6.590932 ], [ -38.342493, -6.602984 ], [ -38.352736, -6.614372 ], [ -38.352616, -6.619961 ], [ -38.341166, -6.628506 ], [ -38.345875, -6.636575 ], [ -38.350534, -6.659203 ], [ -38.355064, -6.680811 ], [ -38.355069, -6.681255 ], [ -38.355224, -6.693821 ], [ -38.355997, -6.757391 ], [ -38.359893, -6.762148 ], [ -38.372146, -6.772302 ], [ -38.353382, -6.771525 ], [ -38.351072, -6.793936 ], [ -38.35171, -6.795802 ], [ -38.352735, -6.798794 ], [ -38.363097, -6.824168 ], [ -38.363751, -6.850659 ], [ -38.363883, -6.85602 ], [ -38.370087, -6.863911 ], [ -38.357794, -6.878767 ], [ -38.348489, -6.880652 ], [ -38.356163, -6.895344 ], [ -38.363156, -6.909842 ], [ -38.369383, -6.91413 ], [ -38.365375, -6.919614 ], [ -38.367375, -6.921124 ], [ -38.378496, -6.9187 ], [ -38.380583, -6.9238 ], [ -38.38295, -6.928196 ], [ -38.401372, -6.928778 ], [ -38.411331, -6.925814 ], [ -38.426305, -6.931415 ], [ -38.426948, -6.936615 ], [ -38.423426, -6.962374 ], [ -38.422472, -6.965987 ], [ -38.404604, -6.967705 ], [ -38.387367, -6.986576 ], [ -38.362302, -6.988311 ], [ -38.314598, -6.993029 ], [ -38.311287, -6.993017 ], [ -38.262278, -6.992833 ], [ -38.277132, -7.003925 ], [ -38.283856, -7.01164 ], [ -38.297651, -7.036041 ], [ -38.322359, -7.062325 ], [ -38.335346, -7.063854 ], [ -38.3095, -7.08233 ], [ -38.3179, -7.083973 ], [ -38.32155, -7.096232 ], [ -38.331276, -7.106262 ], [ -38.331091, -7.107037 ], [ -38.331055, -7.115869 ], [ -38.330945, -7.142188 ], [ -38.301474, -7.12723 ], [ -38.283959, -7.129101 ], [ -38.294435, -7.144688 ], [ -38.295484, -7.156425 ], [ -38.298011, -7.156483 ], [ -38.311697, -7.153579 ], [ -38.314484, -7.1592 ], [ -38.31809, -7.1595 ], [ -38.333183, -7.159916 ], [ -38.334968, -7.155387 ], [ -38.344167, -7.154709 ], [ -38.384397, -7.166193 ], [ -38.382708, -7.175747 ], [ -38.384888, -7.179199 ], [ -38.393478, -7.178717 ], [ -38.404984, -7.199912 ], [ -38.406184, -7.207205 ] ] ] } },
{ "type": "Feature", "properties": { "HREG_ID": "25010", "HREG_NAME": "10ª Região", "id": "250077", "name": "Aparecida", "description": "Aparecida", "MUN_ID": "250077", "UF": "PB", "MACRO_ID": "2501", "MACRO_NAME": "Macrorregião III - Sertão Alto Sertão" }, "geometry": { "type": "Polygon", "coordinates": [ [ [ -38.014048, -6.949219 ], [ -38.026053, -6.956092 ], [ -38.034764, -6.974335 ], [ -38.061513, -6.979738 ], [ -38.072668, -6.990136 ], [ -38.072639, -6.990245 ], [ -38.069384, -7.002489 ], [ -38.088748, -7.008495 ], [ -38.089672, -7.012437 ], [ -38.132224, -7.007736 ], [ -38.156292, -7.009438 ], [ -38.205036, -7.009806 ], [ -38.229913, -7.002713 ], [ -38.253695, -6.994297 ], [ -38.262278, -6.992833 ], [ -38.311287, -6.993017 ], [ -38.314598, -6.993029 ], [ -38.362302, -6.988311 ], [ -38.387367, -6.986576 ], [ -38.404604, -6.967705 ], [ -38.422472, -6.965987 ], [ -38.423426, -6.962374 ], [ -38.426948, -6.936615 ], [ -38.426305, -6.931415 ], [ -38.411331, -6.925814 ], [ -38.401372, -6.928778 ], [ -38.38295, -6.928196 ], [ -38.380583, -6.9238 ], [ -38.378496, -6.9187 ], [ -38.367375, -6.921124 ], [ -38.365375, -6.919614 ], [ -38.369383, -6.91413 ], [ -38.363156, -6.909842 ], [ -38.356163, -6.895344 ], [ -38.348489, -6.880652 ], [ -38.357794, -6.878767 ], [ -38.370087, -6.863911 ], [ -38.363883, -6.85602 ], [ -38.363751, -6.850659 ], [ -38.363097, -6.824168 ], [ -38.352735, -6.798794 ], [ -38.35171, -6.795802 ], [ -38.351072, -6.793936 ], [ -38.353382, -6.771525 ], [ -38.372146, -6.772302 ], [ -38.359893, -6.762148 ], [ -38.355997, -6.757391 ], [ -38.355224, -6.693821 ], [ -38.355069, -6.681255 ], [ -38.355064, -6.680811 ], [ -38.350534, -6.659203 ], [ -38.345875, -6.636575 ], [ -38.341166, -6.628506 ], [ -38.352616, -6.619961 ], [ -38.352736, -6.614372 ], [ -38.342493, -6.602984 ], [ -38.34244, -6.590932 ], [ -38.334269, -6.577924 ], [ -38.318378, -6.577491 ], [ -38.303658, -6.572094 ], [ -38.298562, -6.559365 ], [ -38.305116, -6.527312 ], [ -38.283104, -6.522494 ], [ -38.28837, -6.505218 ], [ -38.269496, -6.494042 ], [ -38.261064, -6.484747 ], [ -38.256181, -6.482811 ], [ -38.252538, -6.485024 ], [ -38.238879, -6.479898 ], [ -38.228672, -6.482948 ], [ -38.22677, -6.483549 ], [ -38.200202, -6.48788 ], [ -38.191915, -6.49793 ], [ -38.172838, -6.499433 ], [ -38.160824, -6.498715 ], [ -38.147533, -6.491089 ], [ -38.135169, -6.518077 ], [ -38.119863, -6.521982 ], [ -38.116709, -6.522269 ], [ -38.097639, -6.509092 ], [ -38.095049, -6.493187 ], [ -38.082669, -6.485489 ], [ -38.070518, -6.463528 ], [ -38.066269, -6.46004 ], [ -38.061588, -6.459049 ], [ -38.058895, -6.452731 ], [ -38.053607, -6.453285 ], [ -38.051104, -6.442007 ], [ -38.046, -6.440532 ], [ -38.04305, -6.44295 ], [ -38.043575, -6.451577 ], [ -38.035908, -6.459593 ], [ -38.040726, -6.470775 ], [ -38.033824, -6.475448 ], [ -38.026411, -6.474358 ], [ -38.01696, -6.479329 ], [ -38.019139, -6.502965 ], [ -38.026996, -6.524802 ], [ -38.025641, -6.527604 ], [ -38.014894, -6.527245 ], [ -37.997509, -6.527339 ], [ -37.979523, -6.531233 ], [ -37.96197, -6.56946 ], [ -37.968699, -6.578074 ], [ -37.973295, -6.592932 ], [ -37.96296, -6.604878 ], [ -37.962112, -6.609202 ], [ -37.966157, -6.613625 ], [ -38.017128, -6.646441 ], [ -38.012871, -6.668284 ], [ -38.011564, -6.674991 ], [ -37.997828, -6.676743 ], [ -37.982829, -6.696493 ], [ -37.985833, -6.711526 ], [ -38.028822, -6.717178 ], [ -38.024519, -6.763573 ], [ -38.024508, -6.76369 ], [ -38.016206, -6.771675 ], [ -38.014136, -6.780728 ], [ -38.01633, -6.788104 ], [ -38.00968, -6.797251 ], [ -37.999867, -6.816404 ], [ -37.989796, -6.826567 ], [ -37.994966, -6.828173 ], [ -38.002659, -6.823824 ], [ -38.009964, -6.830906 ], [ -38.010028, -6.831079 ], [ -38.011626, -6.847813 ], [ -38.00082, -6.855343 ], [ -37.997162, -6.872492 ], [ -38.014294, -6.884263 ], [ -38.006071, -6.943898 ], [ -38.014048, -6.949219 ] ] ] } },
{ "type": "Feature", "properties": { "HREG_ID": "25011", "HREG_NAME": "11ª Região", "id": "250010", "name": "Água Branca", "description": "Água Branca", "MUN_ID": "250010", "UF": "PB", "MACRO_ID": "2501", "MACRO_NAME": "Macrorregião III - Sertão Alto Sertão" }, "geometry": { "type": "Polygon", "coordinates": [ [ [ -38.143413, -7.782996 ], [ -38.162053, -7.779552 ], [ -38.162322, -7.779545 ], [ -38.183639, -7.79514 ], [ -38.205512, -7.807278 ], [ -38.221572, -7.819979 ], [ -38.235114, -7.825549 ], [ -38.238219, -7.830317 ], [ -38.256686, -7.830655 ], [ -38.264592, -7.827567 ], [ -38.275876, -7.833411 ], [ -38.286441, -7.829815 ], [ -38.297394, -7.813538 ], [ -38.302222, -7.78799 ], [ -38.295185, -7.779179 ], [ -38.3009, -7.768295 ], [ -38.299465, -7.762787 ], [ -38.316408, -7.764199 ], [ -38.301804, -7.744796 ], [ -38.310526, -7.738669 ], [ -38.298207, -7.725516 ], [ -38.283721, -7.702737 ], [ -38.27151, -7.697023 ], [ -38.25615, -7.680237 ], [ -38.244119, -7.66746 ], [ -38.24652, -7.661147 ], [ -38.241388, -7.654586 ], [ -38.229352, -7.6465 ], [ -38.199369, -7.642786 ], [ -38.179214, -7.64029 ], [ -38.183155, -7.612945 ], [ -38.169259, -7.612794 ], [ -38.135122, -7.599484 ], [ -38.125119, -7.591091 ], [ -38.105101, -7.571145 ], [ -38.103416, -7.570143 ], [ -38.102011, -7.568946 ], [ -38.086056, -7.559677 ], [ -38.051113, -7.550475 ], [ -38.046658, -7.541203 ], [ -38.046351, -7.514291 ], [ -38.025384, -7.524439 ], [ -38.000945, -7.530451 ], [ -37.993964, -7.537675 ], [ -37.982262, -7.534379 ], [ -37.973747, -7.532213 ], [ -37.979587, -7.525361 ], [ -37.953772, -7.500929 ], [ -37.944835, -7.493584 ], [ -37.939425, -7.493188 ], [ -37.920952, -7.475437 ], [ -37.885858, -7.444147 ], [ -37.863412, -7.436697 ], [ -37.855124, -7.433551 ], [ -37.846181, -7.426619 ], [ -37.83943, -7.41731 ], [ -37.820189, -7.412184 ], [ -37.803984, -7.39831 ], [ -37.792041, -7.396984 ], [ -37.783706, -7.389882 ], [ -37.769152, -7.39768 ], [ -37.765996, -7.400109 ], [ -37.75672, -7.392091 ], [ -37.745186, -7.394975 ], [ -37.720119, -7.384437 ], [ -37.721016, -7.381922 ], [ -37.736925, -7.378248 ], [ -37.739264, -7.36575 ], [ -37.723874, -7.360862 ], [ -37.724401, -7.344911 ], [ -37.721763, -7.342924 ], [ -37.715393, -7.342907 ], [ -37.705032, -7.352095 ], [ -37.697396, -7.335046 ], [ -37.682598, -7.323901 ], [ -37.662014, -7.32926 ], [ -37.650291, -7.328173 ], [ -37.640099, -7.323092 ], [ -37.624817, -7.331585 ], [ -37.613806, -7.329993 ], [ -37.613646, -7.32997 ], [ -37.607619, -7.327434 ], [ -37.597413, -7.332136 ], [ -37.583972, -7.331579 ], [ -37.569993, -7.316653 ], [ -37.566369, -7.314559 ], [ -37.551111, -7.318677 ], [ -37.531387, -7.320516 ], [ -37.492564, -7.322344 ], [ -37.476801, -7.320722 ], [ -37.457922, -7.312786 ], [ -37.447938, -7.317254 ], [ -37.444956, -7.310314 ], [ -37.397323, -7.307599 ], [ -37.398118, -7.31476 ], [ -37.392728, -7.319217 ], [ -37.395641, -7.333315 ], [ -37.39528, -7.336232 ], [ -37.38537, -7.356288 ], [ -37.407796, -7.357698 ], [ -37.412307, -7.361467 ], [ -37.425168, -7.35251 ], [ -37.431478, -7.356252 ], [ -37.444411, -7.360271 ], [ -37.465579, -7.357637 ], [ -37.478406, -7.35958 ], [ -37.48555, -7.361661 ], [ -37.497695, -7.366436 ], [ -37.486614, -7.394648 ], [ -37.494328, -7.398615 ], [ -37.496637, -7.403057 ], [ -37.499191, -7.406957 ], [ -37.50535, -7.418753 ], [ -37.513295, -7.42432 ], [ -37.513831, -7.432628 ], [ -37.521361, -7.439072 ], [ -37.527059, -7.447974 ], [ -37.528246, -7.459661 ], [ -37.527613, -7.464904 ], [ -37.532722, -7.472546 ], [ -37.552192, -7.479208 ], [ -37.571438, -7.488706 ], [ -37.586384, -7.498701 ], [ -37.609425, -7.507624 ], [ -37.611027, -7.518161 ], [ -37.619599, -7.525472 ], [ -37.630032, -7.532104 ], [ -37.644196, -7.529471 ], [ -37.649481, -7.529903 ], [ -37.659183, -7.52273 ], [ -37.676288, -7.535206 ], [ -37.681804, -7.547969 ], [ -37.70616, -7.550176 ], [ -37.709742, -7.559118 ], [ -37.706225, -7.569059 ], [ -37.710665, -7.573345 ], [ -37.720685, -7.581485 ], [ -37.728385, -7.579322 ], [ -37.734603, -7.596807 ], [ -37.741106, -7.597125 ], [ -37.743754, -7.603603 ], [ -37.745359, -7.608923 ], [ -37.7555, -7.619114 ], [ -37.757631, -7.633712 ], [ -37.76424, -7.630974 ], [ -37.766895, -7.657071 ], [ -37.766983, -7.656141 ], [ -37.767636, -7.656187 ], [ -37.767807, -7.655489 ], [ -37.767052, -7.655429 ], [ -37.767738, -7.648266 ], [ -37.771571, -7.647828 ], [ -37.775776, -7.64622 ], [ -37.776013, -7.634304 ], [ -37.780613, -7.626636 ], [ -37.79046, -7.625536 ], [ -37.807623, -7.643552 ], [ -37.843562, -7.646764 ], [ -37.856811, -7.651561 ], [ -37.869302, -7.66715 ], [ -37.88025, -7.683241 ], [ -37.897006, -7.690418 ], [ -37.902964, -7.697609 ], [ -37.902937, -7.697641 ], [ -37.902978, -7.697691 ], [ -37.891949, -7.710529 ], [ -37.893987, -7.713217 ], [ -37.912719, -7.709064 ], [ -37.916926, -7.711321 ], [ -37.91957, -7.712738 ], [ -37.920618, -7.713301 ], [ -37.922902, -7.715691 ], [ -37.922003, -7.723229 ], [ -37.942753, -7.740627 ], [ -37.944329, -7.74601 ], [ -37.947197, -7.755813 ], [ -37.958079, -7.765575 ], [ -37.964453, -7.772277 ], [ -37.966326, -7.773923 ], [ -37.970979, -7.777151 ], [ -37.982619, -7.772239 ], [ -37.989919, -7.778467 ], [ -38.000371, -7.778552 ], [ -38.005104, -7.777353 ], [ -38.007797, -7.76646 ], [ -38.012114, -7.765397 ], [ -38.029566, -7.749426 ], [ -38.039233, -7.74771 ], [ -38.069129, -7.771915 ], [ -38.074866, -7.788716 ], [ -38.073133, -7.79311 ], [ -38.075392, -7.804974 ], [ -38.065956, -7.817257 ], [ -38.069026, -7.825708 ], [ -38.076719, -7.83017 ], [ -38.080203, -7.828773 ], [ -38.082989, -7.827654 ], [ -38.09689, -7.826918 ], [ -38.119706, -7.818565 ], [ -38.123803, -7.812572 ], [ -38.122086, -7.807025 ], [ -38.130808, -7.803459 ], [ -38.131076, -7.79535 ], [ -38.131076, -7.795349 ], [ -38.143413, -7.782996 ] ] ] } },
{ "type": "Feature", "properties": { "HREG_ID": "25012", "HREG_NAME": "12ª Região", "id": "250380", "name": "Caldas Brandão", "description": "Caldas Brandão", "MUN_ID": "250380", "UF": "PB", "MACRO_ID": "2503", "MACRO_NAME": "Macrorregião I - João Pessoa" }, "geometry": { "type": "Polygon", "coordinates": [ [ [ -35.382307, -7.448721 ], [ -35.40791, -7.460724 ], [ -35.415406, -7.471747 ], [ -35.422028, -7.474767 ], [ -35.434081, -7.470381 ], [ -35.441241, -7.456567 ], [ -35.451727, -7.452545 ], [ -35.475028, -7.444491 ], [ -35.488962, -7.44975 ], [ -35.502973, -7.455671 ], [ -35.507276, -7.486086 ], [ -35.505942, -7.496939 ], [ -35.503691, -7.499351 ], [ -35.537612, -7.496887 ], [ -35.540891, -7.493465 ], [ -35.552398, -7.481204 ], [ -35.552297, -7.475366 ], [ -35.545973, -7.471106 ], [ -35.550025, -7.465045 ], [ -35.543393, -7.449325 ], [ -35.547963, -7.44779 ], [ -35.551081, -7.441169 ], [ -35.55671, -7.4441 ], [ -35.567957, -7.438213 ], [ -35.583646, -7.450184 ], [ -35.589824, -7.447154 ], [ -35.594653, -7.453982 ], [ -35.600798, -7.449565 ], [ -35.604697, -7.450487 ], [ -35.617387, -7.449069 ], [ -35.623585, -7.451802 ], [ -35.631233, -7.44959 ], [ -35.642377, -7.453768 ], [ -35.661618, -7.459613 ], [ -35.666978, -7.465714 ], [ -35.677902, -7.45998 ], [ -35.679227, -7.46765 ], [ -35.686251, -7.468071 ], [ -35.686245, -7.475859 ], [ -35.693116, -7.476944 ], [ -35.699234, -7.467992 ], [ -35.707455, -7.47222 ], [ -35.711803, -7.47008 ], [ -35.71982, -7.473989 ], [ -35.721854, -7.471433 ], [ -35.722747, -7.465306 ], [ -35.733952, -7.474367 ], [ -35.736899, -7.467502 ], [ -35.746749, -7.474033 ], [ -35.754357, -7.469407 ], [ -35.733301, -7.416266 ], [ -35.71296, -7.364616 ], [ -35.712912, -7.364495 ], [ -35.702354, -7.337698 ], [ -35.722939, -7.332845 ], [ -35.744713, -7.341653 ], [ -35.735733, -7.323681 ], [ -35.726447, -7.305101 ], [ -35.703812, -7.259825 ], [ -35.699627, -7.225712 ], [ -35.699596, -7.22546 ], [ -35.699156, -7.221875 ], [ -35.698164, -7.218416 ], [ -35.695276, -7.217226 ], [ -35.671351, -7.207373 ], [ -35.663958, -7.194922 ], [ -35.663869, -7.194753 ], [ -35.661588, -7.190442 ], [ -35.640538, -7.183952 ], [ -35.62266, -7.17844 ], [ -35.607593, -7.168276 ], [ -35.610437, -7.160636 ], [ -35.620277, -7.153382 ], [ -35.624125, -7.132448 ], [ -35.613747, -7.133989 ], [ -35.613496, -7.133925 ], [ -35.569213, -7.122349 ], [ -35.532763, -7.120059 ], [ -35.526782, -7.114346 ], [ -35.525788, -7.109591 ], [ -35.523272, -7.104903 ], [ -35.499967, -7.09445 ], [ -35.50704, -7.08386 ], [ -35.504566, -7.075376 ], [ -35.511115, -7.070809 ], [ -35.514276, -7.062048 ], [ -35.490836, -7.066361 ], [ -35.45192, -7.073518 ], [ -35.442162, -7.070227 ], [ -35.422126, -7.056139 ], [ -35.41663, -7.043269 ], [ -35.406149, -7.04293 ], [ -35.390916, -7.044091 ], [ -35.375541, -7.032193 ], [ -35.375537, -7.032717 ], [ -35.331723, -7.096825 ], [ -35.325215, -7.098147 ], [ -35.321295, -7.10183 ], [ -35.32322, -7.10926 ], [ -35.31342, -7.111103 ], [ -35.315503, -7.117938 ], [ -35.310246, -7.115289 ], [ -35.305885, -7.118597 ], [ -35.299123, -7.112191 ], [ -35.291348, -7.112399 ], [ -35.287493, -7.108555 ], [ -35.305863, -7.141419 ], [ -35.311639, -7.151212 ], [ -35.326524, -7.156429 ], [ -35.332367, -7.174626 ], [ -35.333578, -7.179452 ], [ -35.323415, -7.185014 ], [ -35.308426, -7.204518 ], [ -35.304421, -7.215635 ], [ -35.303445, -7.214196 ], [ -35.289515, -7.216411 ], [ -35.285711, -7.212401 ], [ -35.28208, -7.215928 ], [ -35.281369, -7.212636 ], [ -35.273749, -7.210101 ], [ -35.26985, -7.213772 ], [ -35.254257, -7.210822 ], [ -35.251933, -7.213225 ], [ -35.237598, -7.210962 ], [ -35.23589, -7.205168 ], [ -35.232228, -7.205119 ], [ -35.230025, -7.191551 ], [ -35.2194, -7.190737 ], [ -35.201561, -7.187332 ], [ -35.187506, -7.177039 ], [ -35.187065, -7.176971 ], [ -35.186227, -7.183005 ], [ -35.181935, -7.183221 ], [ -35.169904, -7.196708 ], [ -35.158703, -7.209261 ], [ -35.15508, -7.206608 ], [ -35.150895, -7.212772 ], [ -35.138867, -7.216428 ], [ -35.136478, -7.251332 ], [ -35.126294, -7.234919 ], [ -35.11011, -7.229975 ], [ -35.093023, -7.231952 ], [ -35.077862, -7.228233 ], [ -35.067183, -7.228886 ], [ -35.055374, -7.266749 ], [ -35.044628, -7.274431 ], [ -35.04485, -7.277116 ], [ -35.043483, -7.278374 ], [ -34.983333, -7.325931 ], [ -34.980375, -7.328268 ], [ -34.955864, -7.349691 ], [ -34.967309, -7.36759 ], [ -34.957775, -7.381084 ], [ -34.952538, -7.388493 ], [ -34.954278, -7.404886 ], [ -34.968939, -7.433749 ], [ -34.975976, -7.436252 ], [ -34.978271, -7.441142 ], [ -34.98126, -7.456365 ], [ -34.97714, -7.469214 ], [ -34.984657, -7.49899 ], [ -34.984812, -7.499601 ], [ -34.989857, -7.488469 ], [ -34.98388, -7.468912 ], [ -34.98509, -7.461598 ], [ -35.011304, -7.444757 ], [ -35.029231, -7.425412 ], [ -35.047773, -7.417403 ], [ -35.070019, -7.398467 ], [ -35.074858, -7.397004 ], [ -35.078694, -7.395898 ], [ -35.08458, -7.402266 ], [ -35.097465, -7.407919 ], [ -35.108992, -7.40683 ], [ -35.125091, -7.402193 ], [ -35.125833, -7.399526 ], [ -35.125942, -7.399495 ], [ -35.148057, -7.394125 ], [ -35.153466, -7.392049 ], [ -35.17174, -7.387632 ], [ -35.18048, -7.395493 ], [ -35.18942, -7.396854 ], [ -35.190418, -7.397483 ], [ -35.199779, -7.387197 ], [ -35.22425, -7.378867 ], [ -35.228987, -7.377962 ], [ -35.234048, -7.377785 ], [ -35.245741, -7.374199 ], [ -35.279852, -7.387247 ], [ -35.306192, -7.407508 ], [ -35.315829, -7.405282 ], [ -35.32377, -7.410912 ], [ -35.334692, -7.406396 ], [ -35.332563, -7.414924 ], [ -35.33319, -7.422348 ], [ -35.342295, -7.421625 ], [ -35.343502, -7.422065 ], [ -35.347826, -7.421851 ], [ -35.352026, -7.421989 ], [ -35.348273, -7.434532 ], [ -35.350776, -7.439853 ], [ -35.36258, -7.442389 ], [ -35.368627, -7.440394 ], [ -35.375631, -7.448477 ], [ -35.380363, -7.448414 ], [ -35.382307, -7.448721 ] ] ] } },
{ "type": "Feature", "properties": { "HREG_ID": "25013", "HREG_NAME": "13ª Região", "id": "250375", "name": "Cajazeirinhas", "description": "Cajazeirinhas", "MUN_ID": "250375", "UF": "PB", "MACRO_ID": "2501", "MACRO_NAME": "Macrorregião III - Sertão Alto Sertão" }, "geometry": { "type": "Polygon", "coordinates": [ [ [ -37.667026, -7.008399 ], [ -37.676299, -7.014629 ], [ -37.705393, -7.020909 ], [ -37.748477, -7.023985 ], [ -37.778551, -7.018991 ], [ -37.821271, -7.018843 ], [ -37.832641, -7.021823 ], [ -37.87023, -7.018531 ], [ -37.891616, -7.009874 ], [ -37.929288, -6.993913 ], [ -37.948361, -6.98169 ], [ -37.977721, -6.962867 ], [ -37.999722, -6.948754 ], [ -38.006071, -6.943898 ], [ -38.014294, -6.884263 ], [ -37.997162, -6.872492 ], [ -38.00082, -6.855343 ], [ -38.011626, -6.847813 ], [ -38.010028, -6.831079 ], [ -38.009964, -6.830906 ], [ -38.002659, -6.823824 ], [ -37.994966, -6.828173 ], [ -37.989796, -6.826567 ], [ -37.999867, -6.816404 ], [ -38.00968, -6.797251 ], [ -38.01633, -6.788104 ], [ -38.014136, -6.780728 ], [ -38.016206, -6.771675 ], [ -38.024508, -6.76369 ], [ -38.024519, -6.763573 ], [ -38.028822, -6.717178 ], [ -37.985833, -6.711526 ], [ -37.982829, -6.696493 ], [ -37.997828, -6.676743 ], [ -38.011564, -6.674991 ], [ -38.012871, -6.668284 ], [ -38.017128, -6.646441 ], [ -37.966157, -6.613625 ], [ -37.962112, -6.609202 ], [ -37.96296, -6.604878 ], [ -37.973295, -6.592932 ], [ -37.968699, -6.578074 ], [ -37.96197, -6.56946 ], [ -37.979523, -6.531233 ], [ -37.93238, -6.528824 ], [ -37.932104, -6.528869 ], [ -37.916062, -6.532695 ], [ -37.903728, -6.541261 ], [ -37.863005, -6.541792 ], [ -37.849902, -6.555158 ], [ -37.837169, -6.556576 ], [ -37.826365, -6.55862 ], [ -37.826999, -6.583167 ], [ -37.831011, -6.591382 ], [ -37.80018, -6.594838 ], [ -37.787769, -6.596175 ], [ -37.773938, -6.597581 ], [ -37.754459, -6.594716 ], [ -37.752613, -6.584658 ], [ -37.743885, -6.578246 ], [ -37.726297, -6.580293 ], [ -37.717596, -6.57826 ], [ -37.713386, -6.570766 ], [ -37.715315, -6.561686 ], [ -37.703701, -6.563257 ], [ -37.690017, -6.556987 ], [ -37.697259, -6.545983 ], [ -37.689127, -6.548537 ], [ -37.665531, -6.547585 ], [ -37.648764, -6.546569 ], [ -37.643879, -6.532224 ], [ -37.629077, -6.528333 ], [ -37.628745, -6.528316 ], [ -37.620263, -6.527898 ], [ -37.617949, -6.515176 ], [ -37.613862, -6.514579 ], [ -37.603653, -6.536303 ], [ -37.580651, -6.547329 ], [ -37.572362, -6.550446 ], [ -37.539304, -6.543787 ], [ -37.529606, -6.540266 ], [ -37.508332, -6.526172 ], [ -37.4947, -6.523569 ], [ -37.492513, -6.509572 ], [ -37.489041, -6.512372 ], [ -37.464382, -6.532264 ], [ -37.473599, -6.537569 ], [ -37.482785, -6.550011 ], [ -37.48024, -6.55942 ], [ -37.474472, -6.564051 ], [ -37.479775, -6.59375 ], [ -37.480041, -6.604818 ], [ -37.475657, -6.607714 ], [ -37.474189, -6.617513 ], [ -37.476873, -6.641511 ], [ -37.465848, -6.659559 ], [ -37.474858, -6.672422 ], [ -37.470638, -6.679936 ], [ -37.484356, -6.709636 ], [ -37.518266, -6.712025 ], [ -37.556488, -6.717008 ], [ -37.638418, -6.721732 ], [ -37.657004, -6.722265 ], [ -37.656773, -6.722415 ], [ -37.647163, -6.72865 ], [ -37.643826, -6.74361 ], [ -37.630609, -6.756678 ], [ -37.632963, -6.767497 ], [ -37.622361, -6.779721 ], [ -37.624272, -6.787129 ], [ -37.63254, -6.796368 ], [ -37.630696, -6.806218 ], [ -37.627006, -6.826238 ], [ -37.633017, -6.840856 ], [ -37.632528, -6.852199 ], [ -37.636051, -6.858954 ], [ -37.644726, -6.863028 ], [ -37.658377, -6.878937 ], [ -37.668448, -6.884092 ], [ -37.679202, -6.898036 ], [ -37.680614, -6.905197 ], [ -37.68048, -6.90591 ], [ -37.680007, -6.912544 ], [ -37.684971, -6.917448 ], [ -37.677856, -6.92738 ], [ -37.67679, -6.938164 ], [ -37.696114, -6.94396 ], [ -37.694323, -6.959533 ], [ -37.676921, -6.969959 ], [ -37.667026, -7.008399 ] ] ] } },
{ "type": "Feature", "properties": { "HREG_ID": "25014", "HREG_NAME": "14ª Região", "id": "250140", "name": "Baía da Traição", "description": "Baía da Traição", "MUN_ID": "250140", "UF": "PB", "MACRO_ID": "2503", "MACRO_NAME": "Macrorregião I - João Pessoa" }, "geometry": { "type": "Polygon", "coordinates": [ [ [ -35.1062, -6.936828 ], [ -35.132318, -6.940421 ], [ -35.148943, -6.942183 ], [ -35.154749, -6.940027 ], [ -35.178552, -6.952406 ], [ -35.178758, -6.950266 ], [ -35.183961, -6.954483 ], [ -35.207045, -6.940452 ], [ -35.219226, -6.942216 ], [ -35.221483, -6.945939 ], [ -35.221783, -6.946433 ], [ -35.222106, -6.946968 ], [ -35.24377, -6.953806 ], [ -35.256314, -6.952513 ], [ -35.26226, -6.955029 ], [ -35.26283, -6.954766 ], [ -35.266214, -6.95251 ], [ -35.273944, -6.947565 ], [ -35.277477, -6.942579 ], [ -35.287166, -6.943016 ], [ -35.292231, -6.925291 ], [ -35.295739, -6.913011 ], [ -35.302031, -6.908249 ], [ -35.30154, -6.903374 ], [ -35.305215, -6.896014 ], [ -35.305319, -6.883641 ], [ -35.315763, -6.871366 ], [ -35.318453, -6.860412 ], [ -35.300101, -6.8512 ], [ -35.305615, -6.831546 ], [ -35.327425, -6.824482 ], [ -35.323006, -6.798525 ], [ -35.315787, -6.788557 ], [ -35.32077, -6.78849 ], [ -35.324811, -6.779465 ], [ -35.34021, -6.779417 ], [ -35.350169, -6.774244 ], [ -35.350321, -6.774164 ], [ -35.35853, -6.756989 ], [ -35.372051, -6.755296 ], [ -35.34988, -6.749003 ], [ -35.349771, -6.748867 ], [ -35.34566, -6.742197 ], [ -35.346949, -6.724855 ], [ -35.334329, -6.703301 ], [ -35.328491, -6.701915 ], [ -35.324937, -6.709659 ], [ -35.319796, -6.707816 ], [ -35.319216, -6.676131 ], [ -35.322453, -6.666452 ], [ -35.333312, -6.652081 ], [ -35.340361, -6.650878 ], [ -35.335172, -6.637861 ], [ -35.33484, -6.637028 ], [ -35.328379, -6.620827 ], [ -35.326313, -6.602189 ], [ -35.330901, -6.596314 ], [ -35.330577, -6.588654 ], [ -35.334866, -6.591818 ], [ -35.340623, -6.589194 ], [ -35.347484, -6.597969 ], [ -35.353873, -6.595953 ], [ -35.361212, -6.598291 ], [ -35.372027, -6.598105 ], [ -35.375722, -6.602923 ], [ -35.389336, -6.598481 ], [ -35.394646, -6.572971 ], [ -35.396403, -6.562422 ], [ -35.375887, -6.530079 ], [ -35.364188, -6.51164 ], [ -35.34094, -6.538216 ], [ -35.330449, -6.54394 ], [ -35.302391, -6.543752 ], [ -35.274241, -6.543477 ], [ -35.272895, -6.543075 ], [ -35.252887, -6.533609 ], [ -35.232025, -6.531375 ], [ -35.224106, -6.521232 ], [ -35.223137, -6.515831 ], [ -35.217912, -6.518204 ], [ -35.206987, -6.543317 ], [ -35.199152, -6.549543 ], [ -35.193684, -6.549918 ], [ -35.169976, -6.557991 ], [ -35.157162, -6.551307 ], [ -35.145485, -6.552358 ], [ -35.132308, -6.535361 ], [ -35.123132, -6.529459 ], [ -35.112228, -6.504717 ], [ -35.112228, -6.504716 ], [ -35.103359, -6.505444 ], [ -35.101337, -6.49975 ], [ -35.09522, -6.497277 ], [ -35.066825, -6.524259 ], [ -35.057411, -6.52739 ], [ -35.036642, -6.516724 ], [ -35.02822, -6.505121 ], [ -35.01848, -6.50266 ], [ -35.010796, -6.505722 ], [ -34.991747, -6.501094 ], [ -34.979372, -6.489732 ], [ -34.971253, -6.484839 ], [ -34.968461, -6.489725 ], [ -34.967183, -6.491964 ], [ -34.965179, -6.602715 ], [ -34.961946, -6.639781 ], [ -34.956003, -6.662144 ], [ -34.946865, -6.680623 ], [ -34.930838, -6.68779 ], [ -34.934388, -6.698273 ], [ -34.933792, -6.710124 ], [ -34.931627, -6.720463 ], [ -34.934381, -6.731342 ], [ -34.928859, -6.739475 ], [ -34.938778, -6.752993 ], [ -34.93288, -6.756364 ], [ -34.931651, -6.766036 ], [ -34.936956, -6.770362 ], [ -34.925662, -6.770593 ], [ -34.918779, -6.766781 ], [ -34.918334, -6.769985 ], [ -34.915475, -6.790805 ], [ -34.908561, -6.840231 ], [ -34.902394, -6.854617 ], [ -34.902441, -6.864864 ], [ -34.916978, -6.871835 ], [ -34.92769, -6.883461 ], [ -34.934496, -6.889828 ], [ -34.949667, -6.892034 ], [ -34.963345, -6.900021 ], [ -34.975195, -6.901512 ], [ -34.988824, -6.907777 ], [ -35.037123, -6.918917 ], [ -35.058916, -6.934426 ], [ -35.075441, -6.934774 ], [ -35.089992, -6.93955 ], [ -35.100647, -6.938181 ], [ -35.1062, -6.936828 ] ] ] } },
{ "type": "Feature", "properties": { "HREG_ID": "25015", "HREG_NAME": "15ª Região", "id": "250053", "name": "Alcantil", "description": "Alcantil", "MUN_ID": "250053", "UF": "PB", "MACRO_ID": "2502", "MACRO_NAME": "Macrorregião II - Campina Grande" }, "geometry": { "type": "Polygon", "coordinates": [ [ [ -36.042915, -7.793251 ], [ -36.053539, -7.800949 ], [ -36.068659, -7.780562 ], [ -36.103039, -7.779016 ], [ -36.116944, -7.785375 ], [ -36.126488, -7.783792 ], [ -36.143036, -7.781152 ], [ -36.18194, -7.783427 ], [ -36.200624, -7.789493 ], [ -36.20615, -7.769967 ], [ -36.2163, -7.763694 ], [ -36.245971, -7.7849 ], [ -36.253861, -7.795976 ], [ -36.254001, -7.801283 ], [ -36.239202, -7.810801 ], [ -36.239677, -7.81727 ], [ -36.252958, -7.82954 ], [ -36.263172, -7.83133 ], [ -36.270777, -7.830155 ], [ -36.294027, -7.811487 ], [ -36.308796, -7.806277 ], [ -36.336549, -7.809013 ], [ -36.360385, -7.805308 ], [ -36.373117, -7.81221 ], [ -36.396093, -7.808287 ], [ -36.398865, -7.765674 ], [ -36.440884, -7.683032 ], [ -36.445416, -7.674112 ], [ -36.445444, -7.674019 ], [ -36.44298, -7.653433 ], [ -36.449968, -7.652245 ], [ -36.452961, -7.657364 ], [ -36.456745, -7.655265 ], [ -36.458694, -7.659148 ], [ -36.478947, -7.65299 ], [ -36.461839, -7.598637 ], [ -36.427071, -7.488317 ], [ -36.381365, -7.402579 ], [ -36.330512, -7.307126 ], [ -36.345389, -7.367458 ], [ -36.323316, -7.371737 ], [ -36.280927, -7.369425 ], [ -36.272313, -7.357701 ], [ -36.251553, -7.362423 ], [ -36.241483, -7.354889 ], [ -36.241232, -7.354867 ], [ -36.233459, -7.359773 ], [ -36.238621, -7.365983 ], [ -36.236888, -7.368094 ], [ -36.225573, -7.369577 ], [ -36.211389, -7.355051 ], [ -36.202032, -7.362583 ], [ -36.195572, -7.361358 ], [ -36.175391, -7.347011 ], [ -36.147326, -7.345889 ], [ -36.128281, -7.358247 ], [ -36.039159, -7.367255 ], [ -36.034357, -7.3696 ], [ -36.019089, -7.381459 ], [ -36.016419, -7.379557 ], [ -36.013593, -7.386064 ], [ -36.008419, -7.38301 ], [ -36.003015, -7.384269 ], [ -36.003568, -7.380562 ], [ -35.986237, -7.367755 ], [ -35.986066, -7.3481 ], [ -35.987134, -7.345328 ], [ -35.981814, -7.343915 ], [ -35.982995, -7.3401 ], [ -35.979556, -7.339196 ], [ -35.98278, -7.321951 ], [ -35.977576, -7.319888 ], [ -35.977632, -7.313375 ], [ -35.976873, -7.301458 ], [ -35.982578, -7.295776 ], [ -35.961679, -7.297771 ], [ -35.962013, -7.288174 ], [ -35.957018, -7.287239 ], [ -35.950632, -7.279318 ], [ -35.944171, -7.279773 ], [ -35.944673, -7.284623 ], [ -35.939232, -7.285816 ], [ -35.909194, -7.286196 ], [ -35.88775, -7.286465 ], [ -35.887981, -7.291685 ], [ -35.871957, -7.299787 ], [ -35.841667, -7.300979 ], [ -35.838272, -7.329387 ], [ -35.838127, -7.3306 ], [ -35.836883, -7.340974 ], [ -35.836553, -7.355952 ], [ -35.837736, -7.359626 ], [ -35.837165, -7.362013 ], [ -35.839969, -7.381725 ], [ -35.840032, -7.382161 ], [ -35.836558, -7.394985 ], [ -35.829101, -7.40525 ], [ -35.820082, -7.421766 ], [ -35.831753, -7.427884 ], [ -35.837866, -7.439687 ], [ -35.835151, -7.450294 ], [ -35.837103, -7.455406 ], [ -35.827413, -7.453229 ], [ -35.824528, -7.459912 ], [ -35.820714, -7.46402 ], [ -35.813774, -7.460119 ], [ -35.806419, -7.463515 ], [ -35.809047, -7.465805 ], [ -35.807391, -7.471398 ], [ -35.795863, -7.471099 ], [ -35.791051, -7.463538 ], [ -35.786458, -7.466099 ], [ -35.786931, -7.472204 ], [ -35.786361, -7.475178 ], [ -35.778799, -7.470239 ], [ -35.772981, -7.473626 ], [ -35.773419, -7.479554 ], [ -35.770417, -7.481307 ], [ -35.764087, -7.476957 ], [ -35.759327, -7.477507 ], [ -35.754357, -7.469407 ], [ -35.746749, -7.474033 ], [ -35.736899, -7.467502 ], [ -35.733952, -7.474367 ], [ -35.722747, -7.465306 ], [ -35.721854, -7.471433 ], [ -35.71982, -7.473989 ], [ -35.711803, -7.47008 ], [ -35.707455, -7.47222 ], [ -35.699234, -7.467992 ], [ -35.693116, -7.476944 ], [ -35.686245, -7.475859 ], [ -35.686251, -7.468071 ], [ -35.679227, -7.46765 ], [ -35.677902, -7.45998 ], [ -35.666978, -7.465714 ], [ -35.661618, -7.459613 ], [ -35.642377, -7.453768 ], [ -35.631233, -7.44959 ], [ -35.623585, -7.451802 ], [ -35.617387, -7.449069 ], [ -35.604697, -7.450487 ], [ -35.600798, -7.449565 ], [ -35.594653, -7.453982 ], [ -35.589824, -7.447154 ], [ -35.583646, -7.450184 ], [ -35.567957, -7.438213 ], [ -35.55671, -7.4441 ], [ -35.551081, -7.441169 ], [ -35.547963, -7.44779 ], [ -35.543393, -7.449325 ], [ -35.550025, -7.465045 ], [ -35.545973, -7.471106 ], [ -35.552297, -7.475366 ], [ -35.552398, -7.481204 ], [ -35.540891, -7.493465 ], [ -35.537612, -7.496887 ], [ -35.503691, -7.499351 ], [ -35.501596, -7.512102 ], [ -35.504503, -7.513633 ], [ -35.508855, -7.517083 ], [ -35.510425, -7.527842 ], [ -35.519375, -7.535036 ], [ -35.519586, -7.549973 ], [ -35.523832, -7.558398 ], [ -35.526882, -7.569552 ], [ -35.536945, -7.580234 ], [ -35.536952, -7.580314 ], [ -35.53698, -7.580312 ], [ -35.53751, -7.586232 ], [ -35.530638, -7.589599 ], [ -35.514865, -7.584611 ], [ -35.517586, -7.589296 ], [ -35.520828, -7.595996 ], [ -35.51777, -7.606021 ], [ -35.525482, -7.607154 ], [ -35.531359, -7.621256 ], [ -35.514741, -7.642837 ], [ -35.526624, -7.644715 ], [ -35.532483, -7.654407 ], [ -35.547573, -7.656927 ], [ -35.553095, -7.658236 ], [ -35.560461, -7.65946 ], [ -35.565474, -7.65625 ], [ -35.573095, -7.654692 ], [ -35.588741, -7.650392 ], [ -35.597159, -7.653926 ], [ -35.609332, -7.653369 ], [ -35.615497, -7.658536 ], [ -35.61918, -7.663672 ], [ -35.622165, -7.669582 ], [ -35.626518, -7.675126 ], [ -35.644939, -7.691999 ], [ -35.655231, -7.696639 ], [ -35.657239, -7.696781 ], [ -35.65857, -7.69682 ], [ -35.674826, -7.699771 ], [ -35.67486, -7.699778 ], [ -35.680571, -7.699933 ], [ -35.693387, -7.699371 ], [ -35.695026, -7.693564 ], [ -35.699745, -7.691447 ], [ -35.707857, -7.696937 ], [ -35.711278, -7.704805 ], [ -35.721074, -7.709052 ], [ -35.736218, -7.709189 ], [ -35.742775, -7.713359 ], [ -35.745885, -7.720438 ], [ -35.746126, -7.720977 ], [ -35.751481, -7.723253 ], [ -35.764517, -7.72449 ], [ -35.780249, -7.737942 ], [ -35.789601, -7.740026 ], [ -35.791539, -7.74001 ], [ -35.797158, -7.740424 ], [ -35.805767, -7.746274 ], [ -35.815526, -7.746265 ], [ -35.819991, -7.748369 ], [ -35.829462, -7.751336 ], [ -35.832795, -7.749488 ], [ -35.841415, -7.746573 ], [ -35.861954, -7.750624 ], [ -35.871787, -7.749128 ], [ -35.881369, -7.755717 ], [ -35.880711, -7.765933 ], [ -35.882572, -7.771566 ], [ -35.893165, -7.783262 ], [ -35.90284, -7.791161 ], [ -35.905265, -7.792016 ], [ -35.914457, -7.789672 ], [ -35.932549, -7.784013 ], [ -35.943025, -7.789576 ], [ -35.958693, -7.786851 ], [ -35.969626, -7.789049 ], [ -35.97896, -7.801581 ], [ -35.992416, -7.800054 ], [ -35.99789, -7.813345 ], [ -36.00296, -7.812423 ], [ -36.021255, -7.809828 ], [ -36.03508, -7.79578 ], [ -36.042915, -7.793251 ] ] ] } },
{ "type": "Feature", "properties": { "HREG_ID": "25016", "HREG_NAME": "16ª Região", "id": "250135", "name": "Assunção", "description": "Assunção", "MUN_ID": "250135", "UF": "PB", "MACRO_ID": "2502", "MACRO_NAME": "Macrorregião II - Campina Grande" }, "geometry": { "type": "Polygon", "coordinates": [ [ [ -36.836521, -7.371357 ], [ -36.860099, -7.367451 ], [ -36.864805, -7.374171 ], [ -36.876246, -7.376201 ], [ -36.883976, -7.383827 ], [ -36.896617, -7.382674 ], [ -36.903051, -7.386339 ], [ -36.918848, -7.385712 ], [ -36.931767, -7.381116 ], [ -36.956288, -7.383171 ], [ -36.979679, -7.388717 ], [ -37.013362, -7.403386 ], [ -37.027584, -7.385458 ], [ -37.049646, -7.377182 ], [ -37.052845, -7.379092 ], [ -37.038987, -7.329377 ], [ -37.028756, -7.292699 ], [ -37.027036, -7.286536 ], [ -37.011683, -7.283051 ], [ -37.014518, -7.250342 ], [ -37.02927, -7.204995 ], [ -37.029294, -7.204923 ], [ -37.034301, -7.189516 ], [ -37.018815, -7.190053 ], [ -37.001602, -7.175331 ], [ -36.992279, -7.179716 ], [ -36.976323, -7.160062 ], [ -36.963864, -7.150366 ], [ -36.954482, -7.14851 ], [ -36.954338, -7.148517 ], [ -36.944099, -7.151364 ], [ -36.930951, -7.149667 ], [ -36.930687, -7.153046 ], [ -36.919169, -7.154856 ], [ -36.904688, -7.15162 ], [ -36.894419, -7.159768 ], [ -36.879787, -7.158944 ], [ -36.85826, -7.14877 ], [ -36.849845, -7.150198 ], [ -36.84418, -7.146138 ], [ -36.833081, -7.14482 ], [ -36.809771, -7.150039 ], [ -36.778122, -7.112125 ], [ -36.751164, -7.07984 ], [ -36.750992, -7.079507 ], [ -36.750037, -7.058255 ], [ -36.753718, -7.042536 ], [ -36.742482, -7.032557 ], [ -36.741817, -7.024889 ], [ -36.730252, -7.018792 ], [ -36.725251, -7.003456 ], [ -36.702825, -7.006936 ], [ -36.686174, -7.009133 ], [ -36.694841, -7.000952 ], [ -36.701477, -6.985619 ], [ -36.69588, -6.976241 ], [ -36.68583, -6.968896 ], [ -36.671452, -6.971505 ], [ -36.66686, -6.969192 ], [ -36.661417, -6.961147 ], [ -36.659632, -6.934221 ], [ -36.654542, -6.927835 ], [ -36.637112, -6.933404 ], [ -36.616195, -6.933612 ], [ -36.609458, -6.936434 ], [ -36.567604, -6.874394 ], [ -36.557687, -6.888735 ], [ -36.544263, -6.899622 ], [ -36.47498, -6.948046 ], [ -36.473115, -6.949349 ], [ -36.476373, -6.993805 ], [ -36.444779, -6.989651 ], [ -36.393673, -6.98293 ], [ -36.374974, -6.970871 ], [ -36.374799, -6.970759 ], [ -36.351197, -6.95554 ], [ -36.334215, -6.947018 ], [ -36.325772, -6.938526 ], [ -36.320072, -6.939139 ], [ -36.308878, -6.938949 ], [ -36.298814, -6.931331 ], [ -36.291287, -6.905331 ], [ -36.282977, -6.890426 ], [ -36.261249, -6.845417 ], [ -36.188657, -6.921475 ], [ -36.1699, -6.941107 ], [ -36.147363, -6.943537 ], [ -36.146217, -6.943292 ], [ -36.112517, -6.930765 ], [ -36.077657, -6.970723 ], [ -36.056497, -6.971001 ], [ -36.048982, -6.977178 ], [ -36.019883, -6.961471 ], [ -36.017543, -6.952088 ], [ -36.010803, -6.947601 ], [ -36.010828, -6.943702 ], [ -35.984234, -6.931433 ], [ -35.979833, -6.924282 ], [ -35.963769, -6.922211 ], [ -35.951498, -6.90906 ], [ -35.950269, -6.920003 ], [ -35.940881, -6.937575 ], [ -35.940858, -6.937703 ], [ -35.939092, -6.94759 ], [ -35.96466, -6.965826 ], [ -35.96671, -6.97428 ], [ -35.978877, -6.984249 ], [ -35.95687, -7.016456 ], [ -35.957027, -7.016798 ], [ -35.962567, -7.02441 ], [ -35.955507, -7.024219 ], [ -35.950139, -7.029152 ], [ -35.958653, -7.045645 ], [ -35.958294, -7.059398 ], [ -35.965243, -7.062096 ], [ -35.969246, -7.067868 ], [ -35.962625, -7.068612 ], [ -35.962398, -7.068638 ], [ -35.973905, -7.078995 ], [ -35.979159, -7.100471 ], [ -35.968534, -7.108959 ], [ -35.968434, -7.108986 ], [ -35.947224, -7.109073 ], [ -35.929742, -7.107319 ], [ -35.929565, -7.120045 ], [ -35.9332, -7.135831 ], [ -35.928328, -7.140955 ], [ -35.926644, -7.143469 ], [ -35.921818, -7.149789 ], [ -35.920492, -7.155764 ], [ -35.910325, -7.165576 ], [ -35.904762, -7.181538 ], [ -35.904299, -7.181373 ], [ -35.895281, -7.167861 ], [ -35.887629, -7.156397 ], [ -35.884305, -7.173743 ], [ -35.872988, -7.186888 ], [ -35.872532, -7.193699 ], [ -35.865665, -7.201866 ], [ -35.864866, -7.210812 ], [ -35.851804, -7.202304 ], [ -35.843446, -7.191956 ], [ -35.840805, -7.195475 ], [ -35.833952, -7.194506 ], [ -35.822646, -7.186965 ], [ -35.82486, -7.174422 ], [ -35.809146, -7.161699 ], [ -35.802167, -7.155544 ], [ -35.785771, -7.150648 ], [ -35.77037, -7.139149 ], [ -35.764338, -7.139418 ], [ -35.752104, -7.133514 ], [ -35.739679, -7.122099 ], [ -35.734219, -7.123654 ], [ -35.729487, -7.120164 ], [ -35.707609, -7.103854 ], [ -35.702152, -7.112719 ], [ -35.688349, -7.135134 ], [ -35.680208, -7.14835 ], [ -35.671928, -7.146944 ], [ -35.660044, -7.138873 ], [ -35.652754, -7.139582 ], [ -35.647455, -7.144961 ], [ -35.634956, -7.132878 ], [ -35.624125, -7.132448 ], [ -35.620277, -7.153382 ], [ -35.610437, -7.160636 ], [ -35.607593, -7.168276 ], [ -35.62266, -7.17844 ], [ -35.640538, -7.183952 ], [ -35.661588, -7.190442 ], [ -35.663869, -7.194753 ], [ -35.663958, -7.194922 ], [ -35.671351, -7.207373 ], [ -35.695276, -7.217226 ], [ -35.698164, -7.218416 ], [ -35.699156, -7.221875 ], [ -35.699596, -7.22546 ], [ -35.699627, -7.225712 ], [ -35.703812, -7.259825 ], [ -35.726447, -7.305101 ], [ -35.735733, -7.323681 ], [ -35.744713, -7.341653 ], [ -35.722939, -7.332845 ], [ -35.702354, -7.337698 ], [ -35.712912, -7.364495 ], [ -35.71296, -7.364616 ], [ -35.733301, -7.416266 ], [ -35.754357, -7.469407 ], [ -35.759327, -7.477507 ], [ -35.764087, -7.476957 ], [ -35.770417, -7.481307 ], [ -35.773419, -7.479554 ], [ -35.772981, -7.473626 ], [ -35.778799, -7.470239 ], [ -35.786361, -7.475178 ], [ -35.786931, -7.472204 ], [ -35.786458, -7.466099 ], [ -35.791051, -7.463538 ], [ -35.795863, -7.471099 ], [ -35.807391, -7.471398 ], [ -35.809047, -7.465805 ], [ -35.806419, -7.463515 ], [ -35.813774, -7.460119 ], [ -35.820714, -7.46402 ], [ -35.824528, -7.459912 ], [ -35.827413, -7.453229 ], [ -35.837103, -7.455406 ], [ -35.835151, -7.450294 ], [ -35.837866, -7.439687 ], [ -35.831753, -7.427884 ], [ -35.820082, -7.421766 ], [ -35.829101, -7.40525 ], [ -35.836558, -7.394985 ], [ -35.840032, -7.382161 ], [ -35.839969, -7.381725 ], [ -35.837165, -7.362013 ], [ -35.837736, -7.359626 ], [ -35.836553, -7.355952 ], [ -35.836883, -7.340974 ], [ -35.838127, -7.3306 ], [ -35.838272, -7.329387 ], [ -35.841667, -7.300979 ], [ -35.871957, -7.299787 ], [ -35.887981, -7.291685 ], [ -35.88775, -7.286465 ], [ -35.909194, -7.286196 ], [ -35.939232, -7.285816 ], [ -35.944673, -7.284623 ], [ -35.944171, -7.279773 ], [ -35.950632, -7.279318 ], [ -35.957018, -7.287239 ], [ -35.962013, -7.288174 ], [ -35.961679, -7.297771 ], [ -35.982578, -7.295776 ], [ -35.976873, -7.301458 ], [ -35.977632, -7.313375 ], [ -35.977576, -7.319888 ], [ -35.98278, -7.321951 ], [ -35.979556, -7.339196 ], [ -35.982995, -7.3401 ], [ -35.981814, -7.343915 ], [ -35.987134, -7.345328 ], [ -35.986066, -7.3481 ], [ -35.986237, -7.367755 ], [ -36.003568, -7.380562 ], [ -36.003015, -7.384269 ], [ -36.008419, -7.38301 ], [ -36.013593, -7.386064 ], [ -36.016419, -7.379557 ], [ -36.019089, -7.381459 ], [ -36.034357, -7.3696 ], [ -36.039159, -7.367255 ], [ -36.128281, -7.358247 ], [ -36.147326, -7.345889 ], [ -36.175391, -7.347011 ], [ -36.195572, -7.361358 ], [ -36.202032, -7.362583 ], [ -36.211389, -7.355051 ], [ -36.225573, -7.369577 ], [ -36.236888, -7.368094 ], [ -36.238621, -7.365983 ], [ -36.233459, -7.359773 ], [ -36.241232, -7.354867 ], [ -36.241483, -7.354889 ], [ -36.251553, -7.362423 ], [ -36.272313, -7.357701 ], [ -36.280927, -7.369425 ], [ -36.323316, -7.371737 ], [ -36.345389, -7.367458 ], [ -36.330512, -7.307126 ], [ -36.343391, -7.282742 ], [ -36.325773, -7.18835 ], [ -36.405723, -7.21789 ], [ -36.418192, -7.199053 ], [ -36.485991, -7.189571 ], [ -36.486665, -7.189512 ], [ -36.5145, -7.187054 ], [ -36.567704, -7.178867 ], [ -36.557051, -7.185539 ], [ -36.551809, -7.189271 ], [ -36.543387, -7.218337 ], [ -36.526119, -7.228343 ], [ -36.54928, -7.233605 ], [ -36.55859, -7.244994 ], [ -36.573884, -7.247131 ], [ -36.560313, -7.268915 ], [ -36.566732, -7.323281 ], [ -36.57511, -7.322976 ], [ -36.583802, -7.335837 ], [ -36.60042, -7.339353 ], [ -36.606975, -7.345896 ], [ -36.622072, -7.337496 ], [ -36.651223, -7.282585 ], [ -36.655833, -7.278333 ], [ -36.661752, -7.279439 ], [ -36.660952, -7.267845 ], [ -36.655224, -7.264416 ], [ -36.661614, -7.264199 ], [ -36.663393, -7.258794 ], [ -36.657579, -7.257785 ], [ -36.657776, -7.251646 ], [ -36.660639, -7.247536 ], [ -36.668832, -7.251173 ], [ -36.680807, -7.240867 ], [ -36.679583, -7.236525 ], [ -36.683417, -7.241164 ], [ -36.716274, -7.280935 ], [ -36.707414, -7.291225 ], [ -36.701273, -7.318141 ], [ -36.713588, -7.317671 ], [ -36.715222, -7.313755 ], [ -36.719422, -7.316395 ], [ -36.737192, -7.313703 ], [ -36.749391, -7.304556 ], [ -36.75672, -7.305437 ], [ -36.773715, -7.300564 ], [ -36.77392, -7.37126 ], [ -36.804797, -7.369088 ], [ -36.836521, -7.371357 ] ] ] } }
]
}
