{
"type": "FeatureCollection",
"name": "geojs-28-health_regions",
"crs": { "type": "name", "properties": { "name": "urn:ogc:def:crs:OGC:1.3:CRS84" } },
"features": [
{ "type": "Feature", "properties": { "HREG_ID": "28001", "HREG_NAME": "Aracajú", "id": "280030", "name": "Aracaju", "description": "Aracaju", "MUN_ID": "280030", "UF": "SE", "MACRO_ID": "2801", "MACRO_NAME": "Macro Única" }, "geometry": { "type": "MultiPolygon", "coordinates": [ [ [ [ -37.350996, -10.849488 ], [ -37.341125, -10.84804 ], [ -37.336761, -10.839175 ], [ -37.328755, -10.833003 ], [ -37.318025, -10.83411 ], [ -37.317737, -10.83177 ], [ -37.30901, -10.832632 ], [ -37.299663, -10.847058 ], [ -37.290992, -10.852066 ], [ -37.272095, -10.851751 ], [ -37.266657, -10.846595 ], [ -37.260242, -10.852646 ], [ -37.250591, -10.854629 ], [ -37.245814, -10.864568 ], [ -37.236207, -10.868815 ], [ -37.218694, -10.878375 ], [ -37.20635, -10.876623 ], [ -37.198007, -10.890169 ], [ -37.190565, -10.886955 ], [ -37.184688, -10.896916 ], [ -37.177448, -10.899574 ], [ -37.172197, -10.905203 ], [ -37.172102, -10.913015 ], [ -37.166607, -10.91638 ], [ -37.166039, -10.916728 ], [ -37.162477, -10.925057 ], [ -37.153847, -10.92433 ], [ -37.147543, -10.929076 ], [ -37.109965, -10.915426 ], [ -37.100386, -10.919465 ], [ -37.107099, -10.904409 ], [ -37.102163, -10.895514 ], [ -37.105677, -10.889945 ], [ -37.103923, -10.886291 ], [ -37.097443, -10.884646 ], [ -37.103568, -10.87672 ], [ -37.097183, -10.875126 ], [ -37.083147, -10.863407 ], [ -37.074446, -10.864394 ], [ -37.067685, -10.876859 ], [ -37.05739, -10.864535 ], [ -37.044156, -10.864509 ], [ -37.035385, -10.867907 ], [ -37.03941, -10.883681 ], [ -37.027704, -10.884777 ], [ -37.023824, -10.876932 ], [ -37.016092, -10.874525 ], [ -37.015311, -10.863929 ], [ -37.008873, -10.864418 ], [ -37.005749, -10.858913 ], [ -36.998166, -10.860302 ], [ -36.994718, -10.857187 ], [ -36.997263, -10.85256 ], [ -36.994805, -10.847356 ], [ -36.989268, -10.851887 ], [ -36.982927, -10.848523 ], [ -36.981449, -10.843413 ], [ -36.988063, -10.836303 ], [ -36.984268, -10.831653 ], [ -36.982333, -10.835406 ], [ -36.978561, -10.831961 ], [ -36.968622, -10.832831 ], [ -36.964934, -10.819251 ], [ -36.95992, -10.816758 ], [ -36.960229, -10.808687 ], [ -36.956687, -10.808743 ], [ -36.947251, -10.798156 ], [ -36.93911, -10.795608 ], [ -36.93698, -10.78684 ], [ -36.92861, -10.79008 ], [ -36.927155, -10.786656 ], [ -36.925733, -10.788245 ], [ -36.899076, -10.772139 ], [ -36.88363, -10.747427 ], [ -36.876426, -10.738554 ], [ -36.872471, -10.740802 ], [ -36.869121, -10.743637 ], [ -36.861113, -10.741963 ], [ -36.853723, -10.743161 ], [ -36.912705, -10.805355 ], [ -36.932655, -10.826396 ], [ -36.935941, -10.829963 ], [ -36.956523, -10.855122 ], [ -36.991277, -10.899709 ], [ -37.011976, -10.927152 ], [ -37.019711, -10.939586 ], [ -37.021584, -10.942602 ], [ -37.026292, -10.951061 ], [ -37.025853, -10.963676 ], [ -37.055725, -10.997688 ], [ -37.130552, -11.104867 ], [ -37.154073, -11.151579 ], [ -37.157096, -11.157403 ], [ -37.15151, -11.162258 ], [ -37.197381, -11.21244 ], [ -37.204551, -11.220173 ], [ -37.260883, -11.288405 ], [ -37.282116, -11.272962 ], [ -37.312241, -11.24904 ], [ -37.313117, -11.247995 ], [ -37.328992, -11.236753 ], [ -37.33086, -11.230873 ], [ -37.327536, -11.221977 ], [ -37.332153, -11.21844 ], [ -37.330254, -11.214147 ], [ -37.340305, -11.206747 ], [ -37.349336, -11.1967 ], [ -37.348326, -11.19288 ], [ -37.345597, -11.175981 ], [ -37.341841, -11.175105 ], [ -37.33751, -11.166357 ], [ -37.33887, -11.161503 ], [ -37.338711, -11.152062 ], [ -37.332144, -11.147211 ], [ -37.331395, -11.138107 ], [ -37.339308, -11.128313 ], [ -37.336943, -11.112416 ], [ -37.350538, -11.090629 ], [ -37.357345, -11.087931 ], [ -37.365528, -11.077661 ], [ -37.369913, -11.071554 ], [ -37.378442, -11.068789 ], [ -37.384561, -11.05494 ], [ -37.388882, -11.053292 ], [ -37.388972, -11.053125 ], [ -37.403918, -11.034588 ], [ -37.404127, -11.034328 ], [ -37.405177, -11.027573 ], [ -37.412748, -11.008376 ], [ -37.425884, -11.000638 ], [ -37.427508, -10.989076 ], [ -37.434002, -10.9876 ], [ -37.439482, -10.981611 ], [ -37.455296, -10.977116 ], [ -37.47081, -10.952404 ], [ -37.474102, -10.947154 ], [ -37.479995, -10.937765 ], [ -37.480707, -10.93663 ], [ -37.503141, -10.900856 ], [ -37.496035, -10.9045 ], [ -37.485319, -10.900101 ], [ -37.472741, -10.8933 ], [ -37.464909, -10.89284 ], [ -37.456213, -10.882175 ], [ -37.442054, -10.866766 ], [ -37.404319, -10.825705 ], [ -37.406588, -10.831739 ], [ -37.403179, -10.844119 ], [ -37.375203, -10.852202 ], [ -37.36325, -10.846711 ], [ -37.350996, -10.849488 ] ] ], [ [ [ -37.144349, -10.765712 ], [ -37.133103, -10.768032 ], [ -37.134046, -10.776146 ], [ -37.131769, -10.78194 ], [ -37.125589, -10.785854 ], [ -37.102611, -10.774353 ], [ -37.087835, -10.782744 ], [ -37.086987, -10.797969 ], [ -37.074948, -10.807115 ], [ -37.064536, -10.822601 ], [ -37.093174, -10.823168 ], [ -37.104297, -10.819139 ], [ -37.111282, -10.82883 ], [ -37.124533, -10.833526 ], [ -37.137445, -10.835117 ], [ -37.153698, -10.832856 ], [ -37.157746, -10.832013 ], [ -37.158503, -10.836255 ], [ -37.173908, -10.842406 ], [ -37.180242, -10.85465 ], [ -37.189903, -10.853404 ], [ -37.189923, -10.852665 ], [ -37.206271, -10.847746 ], [ -37.215071, -10.84808 ], [ -37.231215, -10.836229 ], [ -37.243278, -10.833503 ], [ -37.317327, -10.831208 ], [ -37.283261, -10.806021 ], [ -37.272817, -10.798302 ], [ -37.245251, -10.777924 ], [ -37.272946, -10.751914 ], [ -37.271505, -10.747156 ], [ -37.282192, -10.738151 ], [ -37.282111, -10.728946 ], [ -37.27987, -10.725851 ], [ -37.282678, -10.7211 ], [ -37.276258, -10.711056 ], [ -37.271573, -10.71476 ], [ -37.265274, -10.712585 ], [ -37.265303, -10.70751 ], [ -37.259256, -10.702205 ], [ -37.251192, -10.704799 ], [ -37.249904, -10.708793 ], [ -37.245353, -10.706215 ], [ -37.238796, -10.708228 ], [ -37.236609, -10.704443 ], [ -37.23321, -10.704464 ], [ -37.229623, -10.702504 ], [ -37.226977, -10.707842 ], [ -37.223908, -10.704448 ], [ -37.232489, -10.696363 ], [ -37.227907, -10.684436 ], [ -37.231482, -10.673978 ], [ -37.238799, -10.664711 ], [ -37.247476, -10.661202 ], [ -37.247042, -10.650671 ], [ -37.2598, -10.64892 ], [ -37.268646, -10.635202 ], [ -37.279689, -10.632542 ], [ -37.281249, -10.619986 ], [ -37.291434, -10.610199 ], [ -37.295115, -10.61043 ], [ -37.296054, -10.600597 ], [ -37.292897, -10.594101 ], [ -37.286997, -10.593554 ], [ -37.280998, -10.586862 ], [ -37.265387, -10.586423 ], [ -37.250969, -10.594955 ], [ -37.248718, -10.594621 ], [ -37.23631, -10.603868 ], [ -37.230676, -10.603786 ], [ -37.228779, -10.608359 ], [ -37.218509, -10.611231 ], [ -37.21788, -10.61644 ], [ -37.211104, -10.617924 ], [ -37.204696, -10.624459 ], [ -37.202502, -10.614176 ], [ -37.206927, -10.607162 ], [ -37.177557, -10.625045 ], [ -37.150152, -10.620418 ], [ -37.158561, -10.627358 ], [ -37.143039, -10.624799 ], [ -37.145685, -10.636018 ], [ -37.142021, -10.644115 ], [ -37.133738, -10.650763 ], [ -37.114515, -10.646973 ], [ -37.098644, -10.643845 ], [ -37.093965, -10.638181 ], [ -37.092497, -10.640875 ], [ -37.088772, -10.647829 ], [ -37.090319, -10.654704 ], [ -37.115156, -10.6845 ], [ -37.121112, -10.701997 ], [ -37.142223, -10.700039 ], [ -37.146496, -10.719422 ], [ -37.151846, -10.722198 ], [ -37.153718, -10.725887 ], [ -37.151026, -10.732595 ], [ -37.150717, -10.738114 ], [ -37.157984, -10.741844 ], [ -37.15707, -10.746819 ], [ -37.161027, -10.750989 ], [ -37.152566, -10.769136 ], [ -37.147648, -10.770754 ], [ -37.144349, -10.765712 ] ] ] ] } },
{ "type": "Feature", "properties": { "HREG_ID": "28002", "HREG_NAME": "Estancia", "id": "280040", "name": "Arauá", "description": "Arauá", "MUN_ID": "280040", "UF": "SE", "MACRO_ID": "2801", "MACRO_NAME": "Macro Única" }, "geometry": { "type": "Polygon", "coordinates": [ [ [ -37.392182, -11.478471 ], [ -37.402729, -11.487986 ], [ -37.411556, -11.494668 ], [ -37.449825, -11.519947 ], [ -37.463337, -11.523052 ], [ -37.503239, -11.524013 ], [ -37.509349, -11.529968 ], [ -37.515739, -11.535412 ], [ -37.519548, -11.548407 ], [ -37.552527, -11.547086 ], [ -37.558174, -11.550396 ], [ -37.561931, -11.542784 ], [ -37.5685, -11.539421 ], [ -37.573401, -11.542156 ], [ -37.572198, -11.548312 ], [ -37.578506, -11.551552 ], [ -37.585312, -11.541895 ], [ -37.57878, -11.533936 ], [ -37.581099, -11.53069 ], [ -37.589026, -11.527706 ], [ -37.602975, -11.539863 ], [ -37.608235, -11.535906 ], [ -37.616283, -11.537626 ], [ -37.627817, -11.529255 ], [ -37.631578, -11.518347 ], [ -37.636734, -11.51752 ], [ -37.643532, -11.523786 ], [ -37.65135, -11.517848 ], [ -37.653465, -11.528798 ], [ -37.657117, -11.53279 ], [ -37.664556, -11.532786 ], [ -37.661505, -11.543006 ], [ -37.672222, -11.559001 ], [ -37.669812, -11.56358 ], [ -37.67317, -11.568202 ], [ -37.684344, -11.561566 ], [ -37.687822, -11.565764 ], [ -37.700053, -11.561898 ], [ -37.69545, -11.54898 ], [ -37.696159, -11.544591 ], [ -37.702486, -11.539914 ], [ -37.711913, -11.552243 ], [ -37.71904, -11.549621 ], [ -37.727629, -11.552311 ], [ -37.730702, -11.537079 ], [ -37.748182, -11.537991 ], [ -37.759246, -11.524529 ], [ -37.762988, -11.524231 ], [ -37.762865, -11.528047 ], [ -37.770323, -11.531006 ], [ -37.774644, -11.524019 ], [ -37.790786, -11.523302 ], [ -37.794729, -11.518142 ], [ -37.800434, -11.520026 ], [ -37.811958, -11.515598 ], [ -37.819202, -11.501229 ], [ -37.818152, -11.498872 ], [ -37.812846, -11.500889 ], [ -37.808626, -11.496496 ], [ -37.815905, -11.491558 ], [ -37.82452, -11.491248 ], [ -37.832714, -11.482604 ], [ -37.839766, -11.481218 ], [ -37.848067, -11.469471 ], [ -37.86275, -11.466969 ], [ -37.863331, -11.455004 ], [ -37.862772, -11.452226 ], [ -37.853097, -11.4515 ], [ -37.852199, -11.445894 ], [ -37.84808, -11.443565 ], [ -37.850478, -11.439788 ], [ -37.867423, -11.442044 ], [ -37.86976, -11.435352 ], [ -37.880702, -11.432971 ], [ -37.873861, -11.427851 ], [ -37.865744, -11.428233 ], [ -37.867567, -11.425817 ], [ -37.882782, -11.424444 ], [ -37.891637, -11.435968 ], [ -37.893373, -11.433295 ], [ -37.89996, -11.436615 ], [ -37.901941, -11.427639 ], [ -37.90705, -11.426281 ], [ -37.903579, -11.422565 ], [ -37.906127, -11.419739 ], [ -37.904799, -11.409897 ], [ -37.906982, -11.40773 ], [ -37.914004, -11.407696 ], [ -37.916667, -11.402562 ], [ -37.928669, -11.401492 ], [ -37.928003, -11.40946 ], [ -37.934919, -11.413154 ], [ -37.936336, -11.422135 ], [ -37.941675, -11.422793 ], [ -37.944757, -11.422551 ], [ -37.942487, -11.418165 ], [ -37.945566, -11.412849 ], [ -37.955571, -11.407084 ], [ -37.950814, -11.403996 ], [ -37.952211, -11.395439 ], [ -37.957647, -11.396045 ], [ -37.960657, -11.401306 ], [ -37.965243, -11.402313 ], [ -37.964776, -11.392689 ], [ -37.967546, -11.390083 ], [ -37.977575, -11.393119 ], [ -37.980727, -11.384884 ], [ -37.968386, -11.381399 ], [ -37.969394, -11.372504 ], [ -37.97257, -11.37334 ], [ -37.978412, -11.365328 ], [ -37.982133, -11.347742 ], [ -37.959211, -11.308409 ], [ -37.927045, -11.252024 ], [ -37.914884, -11.23485 ], [ -37.903965, -11.221283 ], [ -37.886431, -11.212546 ], [ -37.883415, -11.211044 ], [ -37.878426, -11.217112 ], [ -37.868089, -11.221822 ], [ -37.865882, -11.209824 ], [ -37.87061, -11.206996 ], [ -37.869318, -11.200792 ], [ -37.875886, -11.189813 ], [ -37.876029, -11.186156 ], [ -37.861529, -11.17386 ], [ -37.861075, -11.173474 ], [ -37.845983, -11.160676 ], [ -37.828039, -11.151452 ], [ -37.792616, -11.133242 ], [ -37.784531, -11.132106 ], [ -37.784343, -11.132144 ], [ -37.775262, -11.132635 ], [ -37.765377, -11.142187 ], [ -37.76145, -11.141344 ], [ -37.750679, -11.14892 ], [ -37.742732, -11.154591 ], [ -37.737648, -11.150528 ], [ -37.727671, -11.165019 ], [ -37.718847, -11.162099 ], [ -37.711911, -11.168567 ], [ -37.706556, -11.175215 ], [ -37.695206, -11.166167 ], [ -37.672185, -11.148171 ], [ -37.672103, -11.1481 ], [ -37.646371, -11.125765 ], [ -37.649115, -11.108669 ], [ -37.633649, -11.081889 ], [ -37.623603, -11.088201 ], [ -37.61794, -11.082853 ], [ -37.6119, -11.078009 ], [ -37.616411, -11.072258 ], [ -37.614787, -11.069858 ], [ -37.62207, -11.067041 ], [ -37.621906, -11.066961 ], [ -37.564803, -11.039618 ], [ -37.569657, -11.03435 ], [ -37.568165, -11.025024 ], [ -37.548768, -11.009903 ], [ -37.546841, -11.008401 ], [ -37.53066, -10.995789 ], [ -37.528412, -11.052564 ], [ -37.538924, -11.096021 ], [ -37.553092, -11.140823 ], [ -37.548364, -11.141646 ], [ -37.541123, -11.142765 ], [ -37.546309, -11.147676 ], [ -37.543692, -11.15383 ], [ -37.554706, -11.153904 ], [ -37.546601, -11.166363 ], [ -37.501094, -11.155777 ], [ -37.499482, -11.155401 ], [ -37.487513, -11.152617 ], [ -37.45863, -11.145895 ], [ -37.436942, -11.126397 ], [ -37.434871, -11.117377 ], [ -37.438726, -11.115612 ], [ -37.437054, -11.111235 ], [ -37.432183, -11.110155 ], [ -37.430027, -11.104887 ], [ -37.43825, -11.096582 ], [ -37.43786, -11.086569 ], [ -37.422093, -11.075783 ], [ -37.388972, -11.053125 ], [ -37.388882, -11.053292 ], [ -37.384561, -11.05494 ], [ -37.378442, -11.068789 ], [ -37.369913, -11.071554 ], [ -37.365528, -11.077661 ], [ -37.357345, -11.087931 ], [ -37.350538, -11.090629 ], [ -37.336943, -11.112416 ], [ -37.339308, -11.128313 ], [ -37.331395, -11.138107 ], [ -37.332144, -11.147211 ], [ -37.338711, -11.152062 ], [ -37.33887, -11.161503 ], [ -37.33751, -11.166357 ], [ -37.341841, -11.175105 ], [ -37.345597, -11.175981 ], [ -37.348326, -11.19288 ], [ -37.349336, -11.1967 ], [ -37.340305, -11.206747 ], [ -37.330254, -11.214147 ], [ -37.332153, -11.21844 ], [ -37.327536, -11.221977 ], [ -37.33086, -11.230873 ], [ -37.328992, -11.236753 ], [ -37.313117, -11.247995 ], [ -37.312241, -11.24904 ], [ -37.282116, -11.272962 ], [ -37.260883, -11.288405 ], [ -37.280609, -11.319559 ], [ -37.292782, -11.344591 ], [ -37.318934, -11.426502 ], [ -37.32531, -11.431403 ], [ -37.32961, -11.444666 ], [ -37.3408, -11.441899 ], [ -37.352382, -11.441983 ], [ -37.372907, -11.454191 ], [ -37.392182, -11.478471 ] ] ] } },
{ "type": "Feature", "properties": { "HREG_ID": "28003", "HREG_NAME": "Itabaiana", "id": "280050", "name": "Areia Branca", "description": "Areia Branca", "MUN_ID": "280050", "UF": "SE", "MACRO_ID": "2801", "MACRO_NAME": "Macro Única" }, "geometry": { "type": "Polygon", "coordinates": [ [ [ -37.509188, -10.834953 ], [ -37.51114, -10.843431 ], [ -37.517063, -10.843986 ], [ -37.540646, -10.838444 ], [ -37.544329, -10.835017 ], [ -37.551615, -10.839935 ], [ -37.565161, -10.836172 ], [ -37.572739, -10.839266 ], [ -37.581114, -10.836136 ], [ -37.596942, -10.821812 ], [ -37.597217, -10.821077 ], [ -37.600314, -10.814513 ], [ -37.610093, -10.812255 ], [ -37.613639, -10.800749 ], [ -37.613413, -10.795379 ], [ -37.600297, -10.780949 ], [ -37.607463, -10.767111 ], [ -37.619887, -10.748015 ], [ -37.63275, -10.746889 ], [ -37.628269, -10.740266 ], [ -37.632134, -10.731728 ], [ -37.629769, -10.724763 ], [ -37.617093, -10.714059 ], [ -37.617968, -10.71157 ], [ -37.620263, -10.705878 ], [ -37.636974, -10.712417 ], [ -37.64665, -10.70887 ], [ -37.64205, -10.699258 ], [ -37.646773, -10.695478 ], [ -37.653682, -10.709239 ], [ -37.663871, -10.716439 ], [ -37.668726, -10.707507 ], [ -37.678428, -10.713903 ], [ -37.684302, -10.707789 ], [ -37.673564, -10.702195 ], [ -37.67716, -10.695885 ], [ -37.685749, -10.691969 ], [ -37.683508, -10.684157 ], [ -37.686014, -10.681805 ], [ -37.694345, -10.683402 ], [ -37.702501, -10.677224 ], [ -37.703732, -10.669299 ], [ -37.709716, -10.67105 ], [ -37.713524, -10.665925 ], [ -37.697579, -10.647044 ], [ -37.693305, -10.639017 ], [ -37.696287, -10.638737 ], [ -37.701839, -10.641066 ], [ -37.706235, -10.632842 ], [ -37.716736, -10.644771 ], [ -37.724087, -10.640112 ], [ -37.721937, -10.633304 ], [ -37.730721, -10.630093 ], [ -37.739547, -10.632097 ], [ -37.749702, -10.620736 ], [ -37.754504, -10.623002 ], [ -37.766557, -10.617815 ], [ -37.766991, -10.605408 ], [ -37.77148, -10.602841 ], [ -37.784938, -10.600517 ], [ -37.800123, -10.591011 ], [ -37.807379, -10.600238 ], [ -37.814711, -10.594691 ], [ -37.818274, -10.585039 ], [ -37.830121, -10.58432 ], [ -37.83013, -10.584265 ], [ -37.825534, -10.579921 ], [ -37.831179, -10.578539 ], [ -37.830294, -10.572591 ], [ -37.834984, -10.570697 ], [ -37.832767, -10.560166 ], [ -37.839316, -10.555643 ], [ -37.840226, -10.549133 ], [ -37.831441, -10.550893 ], [ -37.827597, -10.547198 ], [ -37.82906, -10.54082 ], [ -37.823441, -10.538095 ], [ -37.819176, -10.539008 ], [ -37.82196, -10.530538 ], [ -37.815294, -10.516964 ], [ -37.816681, -10.51266 ], [ -37.812703, -10.508054 ], [ -37.816965, -10.503514 ], [ -37.820713, -10.484224 ], [ -37.849006, -10.442656 ], [ -37.858547, -10.429775 ], [ -37.850825, -10.415663 ], [ -37.852862, -10.406061 ], [ -37.836939, -10.4006 ], [ -37.842183, -10.398073 ], [ -37.840281, -10.389471 ], [ -37.833247, -10.384916 ], [ -37.838642, -10.378782 ], [ -37.833729, -10.379689 ], [ -37.83035, -10.374542 ], [ -37.823738, -10.37757 ], [ -37.821711, -10.371889 ], [ -37.81268, -10.365779 ], [ -37.807355, -10.366225 ], [ -37.787268, -10.354055 ], [ -37.785326, -10.348304 ], [ -37.776238, -10.343812 ], [ -37.762184, -10.344 ], [ -37.743231, -10.337322 ], [ -37.734527, -10.332379 ], [ -37.740997, -10.317503 ], [ -37.741177, -10.316917 ], [ -37.765354, -10.19579 ], [ -37.75488, -10.200284 ], [ -37.716986, -10.187472 ], [ -37.700163, -10.19272 ], [ -37.70075, -10.200729 ], [ -37.695101, -10.207172 ], [ -37.688664, -10.20361 ], [ -37.681424, -10.208104 ], [ -37.681196, -10.208342 ], [ -37.673467, -10.205991 ], [ -37.653489, -10.218375 ], [ -37.648468, -10.225221 ], [ -37.623161, -10.243803 ], [ -37.616339, -10.240216 ], [ -37.613206, -10.249102 ], [ -37.606364, -10.239507 ], [ -37.599957, -10.242663 ], [ -37.600764, -10.246897 ], [ -37.596242, -10.250389 ], [ -37.593733, -10.251576 ], [ -37.591217, -10.244659 ], [ -37.580797, -10.240006 ], [ -37.578923, -10.246628 ], [ -37.572834, -10.249407 ], [ -37.569404, -10.246984 ], [ -37.568297, -10.255866 ], [ -37.561357, -10.260734 ], [ -37.556815, -10.258895 ], [ -37.555501, -10.266316 ], [ -37.550618, -10.262178 ], [ -37.553137, -10.258278 ], [ -37.538943, -10.258323 ], [ -37.538723, -10.264572 ], [ -37.54288, -10.263525 ], [ -37.541341, -10.26807 ], [ -37.545256, -10.268606 ], [ -37.539004, -10.271861 ], [ -37.530954, -10.282371 ], [ -37.524733, -10.28066 ], [ -37.52253, -10.288734 ], [ -37.516477, -10.288267 ], [ -37.515894, -10.288405 ], [ -37.511409, -10.295727 ], [ -37.50712, -10.290386 ], [ -37.505235, -10.293997 ], [ -37.499247, -10.292319 ], [ -37.49782, -10.295019 ], [ -37.487849, -10.283455 ], [ -37.485579, -10.286484 ], [ -37.482138, -10.282379 ], [ -37.482845, -10.295044 ], [ -37.472407, -10.288009 ], [ -37.469569, -10.290238 ], [ -37.468345, -10.281698 ], [ -37.465334, -10.28316 ], [ -37.462397, -10.278374 ], [ -37.459476, -10.279454 ], [ -37.458531, -10.284003 ], [ -37.461584, -10.284948 ], [ -37.459039, -10.287506 ], [ -37.451155, -10.291927 ], [ -37.446426, -10.289335 ], [ -37.44786, -10.294086 ], [ -37.441939, -10.297408 ], [ -37.440536, -10.29505 ], [ -37.435275, -10.296134 ], [ -37.435783, -10.30356 ], [ -37.428214, -10.307523 ], [ -37.427381, -10.302002 ], [ -37.419973, -10.302882 ], [ -37.420216, -10.306346 ], [ -37.417822, -10.306228 ], [ -37.414844, -10.303158 ], [ -37.410329, -10.304995 ], [ -37.407807, -10.290733 ], [ -37.403057, -10.291761 ], [ -37.407941, -10.245311 ], [ -37.398207, -10.255316 ], [ -37.394042, -10.259574 ], [ -37.390424, -10.273172 ], [ -37.393764, -10.288221 ], [ -37.389348, -10.293886 ], [ -37.386598, -10.293051 ], [ -37.387255, -10.304719 ], [ -37.385163, -10.308588 ], [ -37.391347, -10.317292 ], [ -37.38752, -10.319514 ], [ -37.382421, -10.315371 ], [ -37.377851, -10.316914 ], [ -37.37331, -10.329976 ], [ -37.371342, -10.327377 ], [ -37.368806, -10.330027 ], [ -37.362534, -10.328807 ], [ -37.355948, -10.333946 ], [ -37.360381, -10.336288 ], [ -37.359215, -10.344497 ], [ -37.349876, -10.346497 ], [ -37.34991, -10.355353 ], [ -37.344535, -10.357974 ], [ -37.344948, -10.362466 ], [ -37.351042, -10.364649 ], [ -37.353627, -10.362654 ], [ -37.356381, -10.368422 ], [ -37.349271, -10.37122 ], [ -37.349612, -10.37606 ], [ -37.3496, -10.37612 ], [ -37.348592, -10.384113 ], [ -37.340867, -10.383799 ], [ -37.348033, -10.399712 ], [ -37.334691, -10.400072 ], [ -37.332749, -10.407004 ], [ -37.329291, -10.412729 ], [ -37.331508, -10.417459 ], [ -37.324042, -10.420537 ], [ -37.331811, -10.424177 ], [ -37.334078, -10.426554 ], [ -37.331414, -10.431422 ], [ -37.325271, -10.432956 ], [ -37.318099, -10.433719 ], [ -37.308093, -10.425481 ], [ -37.302482, -10.435952 ], [ -37.294401, -10.433221 ], [ -37.291882, -10.43791 ], [ -37.295399, -10.441231 ], [ -37.294444, -10.448734 ], [ -37.289602, -10.448161 ], [ -37.287391, -10.454015 ], [ -37.29212, -10.458135 ], [ -37.290131, -10.466551 ], [ -37.2805, -10.461537 ], [ -37.274502, -10.465004 ], [ -37.301074, -10.474777 ], [ -37.301875, -10.47505 ], [ -37.348992, -10.491129 ], [ -37.359421, -10.482839 ], [ -37.335807, -10.519414 ], [ -37.335538, -10.519742 ], [ -37.32591, -10.531499 ], [ -37.325562, -10.532063 ], [ -37.321939, -10.5379 ], [ -37.320681, -10.539992 ], [ -37.317946, -10.546502 ], [ -37.311078, -10.5483 ], [ -37.313576, -10.558079 ], [ -37.311452, -10.564785 ], [ -37.30351, -10.574249 ], [ -37.29393, -10.575833 ], [ -37.284407, -10.573769 ], [ -37.271845, -10.577964 ], [ -37.26282, -10.576898 ], [ -37.248718, -10.594621 ], [ -37.250969, -10.594955 ], [ -37.265387, -10.586423 ], [ -37.280998, -10.586862 ], [ -37.286997, -10.593554 ], [ -37.292897, -10.594101 ], [ -37.296054, -10.600597 ], [ -37.295115, -10.61043 ], [ -37.291434, -10.610199 ], [ -37.281249, -10.619986 ], [ -37.279689, -10.632542 ], [ -37.268646, -10.635202 ], [ -37.2598, -10.64892 ], [ -37.247042, -10.650671 ], [ -37.247476, -10.661202 ], [ -37.238799, -10.664711 ], [ -37.231482, -10.673978 ], [ -37.227907, -10.684436 ], [ -37.232489, -10.696363 ], [ -37.223908, -10.704448 ], [ -37.226977, -10.707842 ], [ -37.229623, -10.702504 ], [ -37.23321, -10.704464 ], [ -37.236609, -10.704443 ], [ -37.238796, -10.708228 ], [ -37.245353, -10.706215 ], [ -37.249904, -10.708793 ], [ -37.251192, -10.704799 ], [ -37.259256, -10.702205 ], [ -37.265303, -10.70751 ], [ -37.265274, -10.712585 ], [ -37.271573, -10.71476 ], [ -37.276258, -10.711056 ], [ -37.282678, -10.7211 ], [ -37.27987, -10.725851 ], [ -37.282111, -10.728946 ], [ -37.282192, -10.738151 ], [ -37.271505, -10.747156 ], [ -37.272946, -10.751914 ], [ -37.245251, -10.777924 ], [ -37.272817, -10.798302 ], [ -37.283261, -10.806021 ], [ -37.317327, -10.831208 ], [ -37.318013, -10.831716 ], [ -37.317737, -10.83177 ], [ -37.318025, -10.83411 ], [ -37.328755, -10.833003 ], [ -37.336761, -10.839175 ], [ -37.341125, -10.84804 ], [ -37.350996, -10.849488 ], [ -37.36325, -10.846711 ], [ -37.375203, -10.852202 ], [ -37.403179, -10.844119 ], [ -37.406588, -10.831739 ], [ -37.404319, -10.825705 ], [ -37.442054, -10.866766 ], [ -37.456213, -10.882175 ], [ -37.459258, -10.879345 ], [ -37.457248, -10.871993 ], [ -37.470998, -10.852592 ], [ -37.477552, -10.858873 ], [ -37.483082, -10.85805 ], [ -37.480639, -10.840505 ], [ -37.488162, -10.837513 ], [ -37.488297, -10.832744 ], [ -37.49376, -10.830443 ], [ -37.497527, -10.832587 ], [ -37.509188, -10.834953 ] ] ] } },
{ "type": "Feature", "properties": { "HREG_ID": "28004", "HREG_NAME": "Lagarto", "id": "280350", "name": "Lagarto", "description": "Lagarto", "MUN_ID": "280350", "UF": "SE", "MACRO_ID": "2801", "MACRO_NAME": "Macro Única" }, "geometry": { "type": "Polygon", "coordinates": [ [ [ -37.614787, -11.069858 ], [ -37.616411, -11.072258 ], [ -37.6119, -11.078009 ], [ -37.61794, -11.082853 ], [ -37.623603, -11.088201 ], [ -37.633649, -11.081889 ], [ -37.649115, -11.108669 ], [ -37.646371, -11.125765 ], [ -37.672103, -11.1481 ], [ -37.672185, -11.148171 ], [ -37.695206, -11.166167 ], [ -37.706556, -11.175215 ], [ -37.711911, -11.168567 ], [ -37.718847, -11.162099 ], [ -37.727671, -11.165019 ], [ -37.737648, -11.150528 ], [ -37.742732, -11.154591 ], [ -37.750679, -11.14892 ], [ -37.76145, -11.141344 ], [ -37.765377, -11.142187 ], [ -37.775262, -11.132635 ], [ -37.784343, -11.132144 ], [ -37.784531, -11.132106 ], [ -37.792616, -11.133242 ], [ -37.828039, -11.151452 ], [ -37.845983, -11.160676 ], [ -37.861075, -11.173474 ], [ -37.861529, -11.17386 ], [ -37.876029, -11.186156 ], [ -37.875886, -11.189813 ], [ -37.869318, -11.200792 ], [ -37.87061, -11.206996 ], [ -37.865882, -11.209824 ], [ -37.868089, -11.221822 ], [ -37.878426, -11.217112 ], [ -37.883415, -11.211044 ], [ -37.886431, -11.212546 ], [ -37.903965, -11.221283 ], [ -37.914884, -11.23485 ], [ -37.927045, -11.252024 ], [ -37.959211, -11.308409 ], [ -37.982133, -11.347742 ], [ -37.989655, -11.341319 ], [ -37.993247, -11.342954 ], [ -37.999759, -11.33888 ], [ -37.997934, -11.335379 ], [ -37.987516, -11.331137 ], [ -37.998312, -11.321899 ], [ -37.99055, -11.320445 ], [ -37.991961, -11.312325 ], [ -37.995415, -11.311911 ], [ -38.00103, -11.302629 ], [ -38.00311, -11.292308 ], [ -38.010405, -11.293611 ], [ -38.014542, -11.285221 ], [ -38.003987, -11.285723 ], [ -37.992537, -11.279013 ], [ -37.992972, -11.272501 ], [ -37.986972, -11.271499 ], [ -37.985939, -11.266708 ], [ -37.990556, -11.26578 ], [ -37.995615, -11.259054 ], [ -37.986703, -11.25327 ], [ -37.983884, -11.247352 ], [ -37.987092, -11.245484 ], [ -37.989738, -11.248228 ], [ -37.993307, -11.24003 ], [ -37.986274, -11.237067 ], [ -37.990561, -11.228154 ], [ -37.977468, -11.221479 ], [ -37.977099, -11.214256 ], [ -37.981558, -11.209888 ], [ -37.97894, -11.204756 ], [ -37.980882, -11.198431 ], [ -37.97375, -11.194887 ], [ -37.979739, -11.191437 ], [ -37.984549, -11.195445 ], [ -37.986969, -11.19557 ], [ -37.996037, -11.190644 ], [ -38.000474, -11.194647 ], [ -38.013573, -11.184324 ], [ -38.022845, -11.177504 ], [ -38.046435, -11.178237 ], [ -38.061384, -11.171655 ], [ -38.062054, -11.163626 ], [ -38.066399, -11.160447 ], [ -38.065975, -11.148654 ], [ -38.070397, -11.141869 ], [ -38.064772, -11.131 ], [ -38.065101, -11.122609 ], [ -38.068781, -11.118614 ], [ -38.083461, -11.119275 ], [ -38.088766, -11.114795 ], [ -38.088572, -11.105867 ], [ -38.093623, -11.101364 ], [ -38.091849, -11.097923 ], [ -38.086038, -11.097292 ], [ -38.074534, -11.0761 ], [ -38.08099, -11.063948 ], [ -38.08413, -11.064772 ], [ -38.084915, -11.059794 ], [ -38.090542, -11.057613 ], [ -38.090723, -11.051154 ], [ -38.095959, -11.049084 ], [ -38.099935, -11.041032 ], [ -38.097674, -11.038317 ], [ -38.105516, -11.025401 ], [ -38.100607, -11.020211 ], [ -38.101374, -11.014621 ], [ -38.120725, -11.006924 ], [ -38.124592, -11.009734 ], [ -38.12348, -11.01789 ], [ -38.128994, -11.018433 ], [ -38.139548, -11.008563 ], [ -38.143737, -11.001845 ], [ -38.149068, -11.001064 ], [ -38.180177, -10.974297 ], [ -38.179531, -10.969281 ], [ -38.187018, -10.962188 ], [ -38.179959, -10.949831 ], [ -38.180562, -10.943759 ], [ -38.200665, -10.93795 ], [ -38.202447, -10.934889 ], [ -38.198798, -10.926944 ], [ -38.205192, -10.921553 ], [ -38.210777, -10.930796 ], [ -38.214788, -10.92309 ], [ -38.22599, -10.916142 ], [ -38.229764, -10.89381 ], [ -38.236105, -10.881203 ], [ -38.237424, -10.859069 ], [ -38.231841, -10.839472 ], [ -38.239217, -10.82594 ], [ -38.242563, -10.827526 ], [ -38.244693, -10.822537 ], [ -38.234605, -10.811664 ], [ -38.236296, -10.807558 ], [ -38.235996, -10.795798 ], [ -38.232723, -10.792694 ], [ -38.218091, -10.782098 ], [ -38.209992, -10.756184 ], [ -38.210008, -10.756144 ], [ -38.217075, -10.737774 ], [ -38.217771, -10.735797 ], [ -38.215072, -10.724614 ], [ -38.210449, -10.716798 ], [ -38.198635, -10.710553 ], [ -38.185948, -10.707049 ], [ -38.175003, -10.705825 ], [ -38.170011, -10.711893 ], [ -38.15638, -10.712085 ], [ -38.144754, -10.717465 ], [ -38.122551, -10.717915 ], [ -38.112078, -10.712814 ], [ -38.10038, -10.712418 ], [ -38.067274, -10.715228 ], [ -38.048908, -10.705505 ], [ -38.046736, -10.693068 ], [ -38.041742, -10.700355 ], [ -38.040319, -10.702432 ], [ -38.033706, -10.71208 ], [ -38.021078, -10.730497 ], [ -38.012255, -10.734802 ], [ -37.990478, -10.756502 ], [ -37.984839, -10.758645 ], [ -37.974135, -10.754777 ], [ -37.97226, -10.754099 ], [ -37.939187, -10.740868 ], [ -37.91989, -10.733148 ], [ -37.908917, -10.728759 ], [ -37.900657, -10.725454 ], [ -37.897844, -10.724328 ], [ -37.881824, -10.717919 ], [ -37.866646, -10.711846 ], [ -37.844561, -10.703011 ], [ -37.84415, -10.702847 ], [ -37.828481, -10.696578 ], [ -37.813583, -10.690617 ], [ -37.814515, -10.684639 ], [ -37.820832, -10.644081 ], [ -37.830121, -10.58432 ], [ -37.818274, -10.585039 ], [ -37.814711, -10.594691 ], [ -37.807379, -10.600238 ], [ -37.800123, -10.591011 ], [ -37.784938, -10.600517 ], [ -37.77148, -10.602841 ], [ -37.766991, -10.605408 ], [ -37.766557, -10.617815 ], [ -37.754504, -10.623002 ], [ -37.749702, -10.620736 ], [ -37.739547, -10.632097 ], [ -37.730721, -10.630093 ], [ -37.721937, -10.633304 ], [ -37.724087, -10.640112 ], [ -37.716736, -10.644771 ], [ -37.706235, -10.632842 ], [ -37.701839, -10.641066 ], [ -37.696287, -10.638737 ], [ -37.693305, -10.639017 ], [ -37.697579, -10.647044 ], [ -37.713524, -10.665925 ], [ -37.709716, -10.67105 ], [ -37.703732, -10.669299 ], [ -37.702501, -10.677224 ], [ -37.694345, -10.683402 ], [ -37.686014, -10.681805 ], [ -37.683508, -10.684157 ], [ -37.685749, -10.691969 ], [ -37.67716, -10.695885 ], [ -37.673564, -10.702195 ], [ -37.684302, -10.707789 ], [ -37.678428, -10.713903 ], [ -37.668726, -10.707507 ], [ -37.663871, -10.716439 ], [ -37.653682, -10.709239 ], [ -37.646773, -10.695478 ], [ -37.64205, -10.699258 ], [ -37.64665, -10.70887 ], [ -37.636974, -10.712417 ], [ -37.620263, -10.705878 ], [ -37.617968, -10.71157 ], [ -37.617093, -10.714059 ], [ -37.629769, -10.724763 ], [ -37.632134, -10.731728 ], [ -37.628269, -10.740266 ], [ -37.63275, -10.746889 ], [ -37.619887, -10.748015 ], [ -37.607463, -10.767111 ], [ -37.600297, -10.780949 ], [ -37.613413, -10.795379 ], [ -37.613639, -10.800749 ], [ -37.610093, -10.812255 ], [ -37.600314, -10.814513 ], [ -37.597217, -10.821077 ], [ -37.596942, -10.821812 ], [ -37.581114, -10.836136 ], [ -37.572739, -10.839266 ], [ -37.565161, -10.836172 ], [ -37.551615, -10.839935 ], [ -37.544329, -10.835017 ], [ -37.540646, -10.838444 ], [ -37.517063, -10.843986 ], [ -37.51114, -10.843431 ], [ -37.509188, -10.834953 ], [ -37.497527, -10.832587 ], [ -37.49376, -10.830443 ], [ -37.488297, -10.832744 ], [ -37.488162, -10.837513 ], [ -37.480639, -10.840505 ], [ -37.483082, -10.85805 ], [ -37.477552, -10.858873 ], [ -37.470998, -10.852592 ], [ -37.457248, -10.871993 ], [ -37.459258, -10.879345 ], [ -37.456213, -10.882175 ], [ -37.464909, -10.89284 ], [ -37.472741, -10.8933 ], [ -37.485319, -10.900101 ], [ -37.496035, -10.9045 ], [ -37.503141, -10.900856 ], [ -37.480707, -10.93663 ], [ -37.479995, -10.937765 ], [ -37.474102, -10.947154 ], [ -37.47081, -10.952404 ], [ -37.455296, -10.977116 ], [ -37.439482, -10.981611 ], [ -37.434002, -10.9876 ], [ -37.427508, -10.989076 ], [ -37.425884, -11.000638 ], [ -37.412748, -11.008376 ], [ -37.405177, -11.027573 ], [ -37.404127, -11.034328 ], [ -37.403918, -11.034588 ], [ -37.388972, -11.053125 ], [ -37.422093, -11.075783 ], [ -37.43786, -11.086569 ], [ -37.43825, -11.096582 ], [ -37.430027, -11.104887 ], [ -37.432183, -11.110155 ], [ -37.437054, -11.111235 ], [ -37.438726, -11.115612 ], [ -37.434871, -11.117377 ], [ -37.436942, -11.126397 ], [ -37.45863, -11.145895 ], [ -37.487513, -11.152617 ], [ -37.499482, -11.155401 ], [ -37.501094, -11.155777 ], [ -37.546601, -11.166363 ], [ -37.554706, -11.153904 ], [ -37.543692, -11.15383 ], [ -37.546309, -11.147676 ], [ -37.541123, -11.142765 ], [ -37.548364, -11.141646 ], [ -37.553092, -11.140823 ], [ -37.538924, -11.096021 ], [ -37.528412, -11.052564 ], [ -37.53066, -10.995789 ], [ -37.546841, -11.008401 ], [ -37.548768, -11.009903 ], [ -37.568165, -11.025024 ], [ -37.569657, -11.03435 ], [ -37.564803, -11.039618 ], [ -37.621906, -11.066961 ], [ -37.62207, -11.067041 ], [ -37.614787, -11.069858 ] ] ] } },
{ "type": "Feature", "properties": { "HREG_ID": "28005", "HREG_NAME": "Nossa Senhora da Gloria", "id": "280120", "name": "Canindé de São Francisco", "description": "Canindé de São Francisco", "MUN_ID": "280120", "UF": "SE", "MACRO_ID": "2801", "MACRO_NAME": "Macro Única" }, "geometry": { "type": "Polygon", "coordinates": [ [ [ -37.237113, -10.300494 ], [ -37.243599, -10.297599 ], [ -37.254311, -10.304749 ], [ -37.264839, -10.303175 ], [ -37.273679, -10.306065 ], [ -37.272559, -10.308608 ], [ -37.270077, -10.314246 ], [ -37.279584, -10.311367 ], [ -37.286204, -10.313626 ], [ -37.287262, -10.318911 ], [ -37.29467, -10.319626 ], [ -37.297075, -10.325297 ], [ -37.302401, -10.327832 ], [ -37.301029, -10.33296 ], [ -37.308511, -10.347368 ], [ -37.31764, -10.351253 ], [ -37.316229, -10.35856 ], [ -37.325797, -10.365612 ], [ -37.326065, -10.374575 ], [ -37.334291, -10.378723 ], [ -37.343351, -10.3781 ], [ -37.345106, -10.380211 ], [ -37.340867, -10.383799 ], [ -37.348592, -10.384113 ], [ -37.3496, -10.37612 ], [ -37.349612, -10.37606 ], [ -37.349271, -10.37122 ], [ -37.356381, -10.368422 ], [ -37.353627, -10.362654 ], [ -37.351042, -10.364649 ], [ -37.344948, -10.362466 ], [ -37.344535, -10.357974 ], [ -37.34991, -10.355353 ], [ -37.349876, -10.346497 ], [ -37.359215, -10.344497 ], [ -37.360381, -10.336288 ], [ -37.355948, -10.333946 ], [ -37.362534, -10.328807 ], [ -37.368806, -10.330027 ], [ -37.371342, -10.327377 ], [ -37.37331, -10.329976 ], [ -37.377851, -10.316914 ], [ -37.382421, -10.315371 ], [ -37.38752, -10.319514 ], [ -37.391347, -10.317292 ], [ -37.385163, -10.308588 ], [ -37.387255, -10.304719 ], [ -37.386598, -10.293051 ], [ -37.389348, -10.293886 ], [ -37.393764, -10.288221 ], [ -37.390424, -10.273172 ], [ -37.394042, -10.259574 ], [ -37.398207, -10.255316 ], [ -37.407941, -10.245311 ], [ -37.403057, -10.291761 ], [ -37.407807, -10.290733 ], [ -37.410329, -10.304995 ], [ -37.414844, -10.303158 ], [ -37.417822, -10.306228 ], [ -37.420216, -10.306346 ], [ -37.419973, -10.302882 ], [ -37.427381, -10.302002 ], [ -37.428214, -10.307523 ], [ -37.435783, -10.30356 ], [ -37.435275, -10.296134 ], [ -37.440536, -10.29505 ], [ -37.441939, -10.297408 ], [ -37.44786, -10.294086 ], [ -37.446426, -10.289335 ], [ -37.451155, -10.291927 ], [ -37.459039, -10.287506 ], [ -37.461584, -10.284948 ], [ -37.458531, -10.284003 ], [ -37.459476, -10.279454 ], [ -37.462397, -10.278374 ], [ -37.465334, -10.28316 ], [ -37.468345, -10.281698 ], [ -37.469569, -10.290238 ], [ -37.472407, -10.288009 ], [ -37.482845, -10.295044 ], [ -37.482138, -10.282379 ], [ -37.485579, -10.286484 ], [ -37.487849, -10.283455 ], [ -37.49782, -10.295019 ], [ -37.499247, -10.292319 ], [ -37.505235, -10.293997 ], [ -37.50712, -10.290386 ], [ -37.511409, -10.295727 ], [ -37.515894, -10.288405 ], [ -37.516477, -10.288267 ], [ -37.52253, -10.288734 ], [ -37.524733, -10.28066 ], [ -37.530954, -10.282371 ], [ -37.539004, -10.271861 ], [ -37.545256, -10.268606 ], [ -37.541341, -10.26807 ], [ -37.54288, -10.263525 ], [ -37.538723, -10.264572 ], [ -37.538943, -10.258323 ], [ -37.553137, -10.258278 ], [ -37.550618, -10.262178 ], [ -37.555501, -10.266316 ], [ -37.556815, -10.258895 ], [ -37.561357, -10.260734 ], [ -37.568297, -10.255866 ], [ -37.569404, -10.246984 ], [ -37.572834, -10.249407 ], [ -37.578923, -10.246628 ], [ -37.580797, -10.240006 ], [ -37.591217, -10.244659 ], [ -37.593733, -10.251576 ], [ -37.596242, -10.250389 ], [ -37.600764, -10.246897 ], [ -37.599957, -10.242663 ], [ -37.606364, -10.239507 ], [ -37.613206, -10.249102 ], [ -37.616339, -10.240216 ], [ -37.623161, -10.243803 ], [ -37.648468, -10.225221 ], [ -37.653489, -10.218375 ], [ -37.673467, -10.205991 ], [ -37.681196, -10.208342 ], [ -37.681424, -10.208104 ], [ -37.688664, -10.20361 ], [ -37.695101, -10.207172 ], [ -37.70075, -10.200729 ], [ -37.700163, -10.19272 ], [ -37.716986, -10.187472 ], [ -37.75488, -10.200284 ], [ -37.765354, -10.19579 ], [ -37.779816, -10.187446 ], [ -37.782585, -10.180213 ], [ -37.774031, -10.144369 ], [ -37.776803, -10.133371 ], [ -37.780848, -10.127744 ], [ -37.797934, -10.108606 ], [ -37.809391, -10.082484 ], [ -37.820624, -10.056865 ], [ -37.823549, -10.03538 ], [ -37.823581, -10.034108 ], [ -37.82295, -10.015235 ], [ -37.832873, -9.997922 ], [ -37.849251, -9.992686 ], [ -37.875102, -9.978347 ], [ -37.881059, -9.980304 ], [ -37.915172, -9.975433 ], [ -37.921808, -9.972793 ], [ -37.926988, -9.965159 ], [ -37.936329, -9.965594 ], [ -37.949196, -9.971032 ], [ -37.957115, -9.970858 ], [ -37.967985, -9.96236 ], [ -37.987572, -9.921412 ], [ -37.997305, -9.916288 ], [ -37.997418, -9.91038 ], [ -37.991469, -9.902202 ], [ -37.985356, -9.889437 ], [ -37.982193, -9.868372 ], [ -37.976364, -9.860092 ], [ -37.972584, -9.847704 ], [ -37.976237, -9.841673 ], [ -37.974252, -9.829616 ], [ -37.966078, -9.819467 ], [ -37.966322, -9.815628 ], [ -37.973038, -9.814042 ], [ -37.997384, -9.802925 ], [ -38.016798, -9.786995 ], [ -38.019767, -9.777545 ], [ -38.027852, -9.775654 ], [ -38.031214, -9.770612 ], [ -38.029497, -9.765078 ], [ -38.03326, -9.759702 ], [ -38.03874, -9.734075 ], [ -38.039404, -9.732946 ], [ -38.043005, -9.71181 ], [ -38.041471, -9.690962 ], [ -38.03955, -9.686169 ], [ -38.024636, -9.682456 ], [ -38.021822, -9.666372 ], [ -38.006659, -9.651306 ], [ -37.996725, -9.649971 ], [ -37.992671, -9.656396 ], [ -37.990016, -9.655539 ], [ -37.99017, -9.649965 ], [ -37.987527, -9.646969 ], [ -37.989762, -9.641241 ], [ -38.00774, -9.635996 ], [ -38.008395, -9.631357 ], [ -38.015564, -9.628963 ], [ -38.018354, -9.623132 ], [ -38.034939, -9.612222 ], [ -38.040156, -9.602161 ], [ -38.038729, -9.583055 ], [ -38.036489, -9.580697 ], [ -38.040751, -9.575764 ], [ -38.039924, -9.572026 ], [ -38.031374, -9.567638 ], [ -38.029649, -9.574049 ], [ -38.026437, -9.574455 ], [ -38.019794, -9.56143 ], [ -38.017696, -9.551957 ], [ -38.022694, -9.548646 ], [ -38.021506, -9.540582 ], [ -38.013538, -9.534544 ], [ -38.012797, -9.527927 ], [ -38.00294, -9.514608 ], [ -37.98898, -9.526936 ], [ -37.955945, -9.53366 ], [ -37.916794, -9.548532 ], [ -37.893792, -9.539105 ], [ -37.885821, -9.549744 ], [ -37.841877, -9.578994 ], [ -37.837188, -9.58286 ], [ -37.832762, -9.594464 ], [ -37.823426, -9.590874 ], [ -37.8179, -9.592471 ], [ -37.806719, -9.609682 ], [ -37.792752, -9.620185 ], [ -37.787337, -9.632619 ], [ -37.78474, -9.638197 ], [ -37.778328, -9.638296 ], [ -37.746527, -9.625324 ], [ -37.736702, -9.626567 ], [ -37.71142, -9.630876 ], [ -37.686531, -9.644159 ], [ -37.680466, -9.647614 ], [ -37.670504, -9.656219 ], [ -37.666131, -9.66562 ], [ -37.659981, -9.676842 ], [ -37.656489, -9.683214 ], [ -37.64474, -9.691266 ], [ -37.603437, -9.717806 ], [ -37.601578, -9.718791 ], [ -37.581345, -9.733658 ], [ -37.571554, -9.7383 ], [ -37.553189, -9.740229 ], [ -37.527267, -9.743695 ], [ -37.523871, -9.744473 ], [ -37.473358, -9.746413 ], [ -37.466512, -9.7491 ], [ -37.449946, -9.75292 ], [ -37.417413, -9.762532 ], [ -37.408546, -9.768105 ], [ -37.397258, -9.777117 ], [ -37.372645, -9.783733 ], [ -37.362471, -9.78646 ], [ -37.347968, -9.792696 ], [ -37.339724, -9.800108 ], [ -37.320778, -9.820037 ], [ -37.311339, -9.824069 ], [ -37.296855, -9.827174 ], [ -37.285077, -9.830538 ], [ -37.263857, -9.850009 ], [ -37.256594, -9.859843 ], [ -37.24685, -9.884219 ], [ -37.235199, -9.895612 ], [ -37.226249, -9.89905 ], [ -37.194953, -9.897629 ], [ -37.152623, -9.900427 ], [ -37.132302, -9.913374 ], [ -37.080333, -9.960858 ], [ -37.074736, -9.966262 ], [ -37.064904, -9.975297 ], [ -37.062203, -9.977445 ], [ -37.061463, -9.978033 ], [ -37.043869, -9.988266 ], [ -37.029576, -9.985865 ], [ -37.005177, -9.975801 ], [ -36.99454, -9.974946 ], [ -36.967263, -9.992456 ], [ -36.958744, -10.010698 ], [ -36.958099, -10.012504 ], [ -36.957533, -10.014088 ], [ -36.957502, -10.014174 ], [ -36.957172, -10.015099 ], [ -36.956071, -10.023191 ], [ -36.956071, -10.023271 ], [ -36.957801, -10.023752 ], [ -36.965412, -10.025868 ], [ -37.006363, -10.037253 ], [ -37.026759, -10.054258 ], [ -37.060654, -10.060972 ], [ -37.061682, -10.06112 ], [ -37.063765, -10.071899 ], [ -37.064891, -10.07773 ], [ -37.067623, -10.091872 ], [ -37.06462, -10.135973 ], [ -37.089933, -10.144364 ], [ -37.146408, -10.163086 ], [ -37.1516, -10.164807 ], [ -37.151812, -10.164877 ], [ -37.153948, -10.186971 ], [ -37.13703, -10.193266 ], [ -37.13621, -10.199771 ], [ -37.136412, -10.199957 ], [ -37.142842, -10.204391 ], [ -37.149813, -10.222419 ], [ -37.150701, -10.235515 ], [ -37.148635, -10.24099 ], [ -37.140711, -10.246234 ], [ -37.142416, -10.256136 ], [ -37.13839, -10.26173 ], [ -37.137823, -10.274624 ], [ -37.139384, -10.28049 ], [ -37.147019, -10.287658 ], [ -37.150443, -10.288458 ], [ -37.14931, -10.292897 ], [ -37.147417, -10.302687 ], [ -37.155256, -10.306951 ], [ -37.149227, -10.315147 ], [ -37.148939, -10.322426 ], [ -37.165125, -10.331983 ], [ -37.16182, -10.334069 ], [ -37.163494, -10.339854 ], [ -37.1676, -10.342147 ], [ -37.173436, -10.338769 ], [ -37.171176, -10.337772 ], [ -37.174421, -10.334276 ], [ -37.168496, -10.333315 ], [ -37.166276, -10.327749 ], [ -37.172314, -10.324247 ], [ -37.16875, -10.320796 ], [ -37.171909, -10.311338 ], [ -37.181501, -10.307424 ], [ -37.185583, -10.301484 ], [ -37.193375, -10.302989 ], [ -37.200122, -10.296483 ], [ -37.206813, -10.299475 ], [ -37.209567, -10.295933 ], [ -37.210626, -10.300014 ], [ -37.214221, -10.299972 ], [ -37.225014, -10.296674 ], [ -37.23118, -10.283321 ], [ -37.236502, -10.279566 ], [ -37.235674, -10.27393 ], [ -37.24228, -10.262354 ], [ -37.249497, -10.256711 ], [ -37.260868, -10.237947 ], [ -37.261135, -10.237231 ], [ -37.292674, -10.255316 ], [ -37.257885, -10.267731 ], [ -37.255829, -10.27969 ], [ -37.241312, -10.286896 ], [ -37.242345, -10.293122 ], [ -37.237113, -10.300494 ] ], [ [ -37.665883, -10.015309 ], [ -37.665883, -10.01531 ], [ -37.655733, -10.013737 ], [ -37.665883, -10.015309 ] ] ] } },
{ "type": "Feature", "properties": { "HREG_ID": "28006", "HREG_NAME": "Nossa Senhora do Socorro", "id": "280130", "name": "Capela", "description": "Capela", "MUN_ID": "280130", "UF": "SE", "MACRO_ID": "2801", "MACRO_NAME": "Macro Única" }, "geometry": { "type": "Polygon", "coordinates": [ [ [ -37.044156, -10.864509 ], [ -37.05739, -10.864535 ], [ -37.067685, -10.876859 ], [ -37.074446, -10.864394 ], [ -37.083147, -10.863407 ], [ -37.097183, -10.875126 ], [ -37.103568, -10.87672 ], [ -37.097443, -10.884646 ], [ -37.103923, -10.886291 ], [ -37.105677, -10.889945 ], [ -37.102163, -10.895514 ], [ -37.107099, -10.904409 ], [ -37.100386, -10.919465 ], [ -37.109965, -10.915426 ], [ -37.147543, -10.929076 ], [ -37.153847, -10.92433 ], [ -37.162477, -10.925057 ], [ -37.166039, -10.916728 ], [ -37.166607, -10.91638 ], [ -37.172102, -10.913015 ], [ -37.172197, -10.905203 ], [ -37.177448, -10.899574 ], [ -37.184688, -10.896916 ], [ -37.190565, -10.886955 ], [ -37.198007, -10.890169 ], [ -37.20635, -10.876623 ], [ -37.218694, -10.878375 ], [ -37.236207, -10.868815 ], [ -37.245814, -10.864568 ], [ -37.250591, -10.854629 ], [ -37.260242, -10.852646 ], [ -37.266657, -10.846595 ], [ -37.272095, -10.851751 ], [ -37.290992, -10.852066 ], [ -37.299663, -10.847058 ], [ -37.30901, -10.832632 ], [ -37.317737, -10.83177 ], [ -37.318013, -10.831716 ], [ -37.317327, -10.831208 ], [ -37.243278, -10.833503 ], [ -37.231215, -10.836229 ], [ -37.215071, -10.84808 ], [ -37.206271, -10.847746 ], [ -37.189923, -10.852665 ], [ -37.189903, -10.853404 ], [ -37.180242, -10.85465 ], [ -37.173908, -10.842406 ], [ -37.158503, -10.836255 ], [ -37.157746, -10.832013 ], [ -37.153698, -10.832856 ], [ -37.137445, -10.835117 ], [ -37.124533, -10.833526 ], [ -37.111282, -10.82883 ], [ -37.104297, -10.819139 ], [ -37.093174, -10.823168 ], [ -37.064536, -10.822601 ], [ -37.074948, -10.807115 ], [ -37.086987, -10.797969 ], [ -37.087835, -10.782744 ], [ -37.102611, -10.774353 ], [ -37.125589, -10.785854 ], [ -37.131769, -10.78194 ], [ -37.134046, -10.776146 ], [ -37.133103, -10.768032 ], [ -37.144349, -10.765712 ], [ -37.147648, -10.770754 ], [ -37.152566, -10.769136 ], [ -37.161027, -10.750989 ], [ -37.15707, -10.746819 ], [ -37.157984, -10.741844 ], [ -37.150717, -10.738114 ], [ -37.151026, -10.732595 ], [ -37.153718, -10.725887 ], [ -37.151846, -10.722198 ], [ -37.146496, -10.719422 ], [ -37.142223, -10.700039 ], [ -37.121112, -10.701997 ], [ -37.115156, -10.6845 ], [ -37.090319, -10.654704 ], [ -37.088772, -10.647829 ], [ -37.092497, -10.640875 ], [ -37.093965, -10.638181 ], [ -37.098644, -10.643845 ], [ -37.114515, -10.646973 ], [ -37.133738, -10.650763 ], [ -37.142021, -10.644115 ], [ -37.145685, -10.636018 ], [ -37.143039, -10.624799 ], [ -37.158561, -10.627358 ], [ -37.150152, -10.620418 ], [ -37.177557, -10.625045 ], [ -37.206927, -10.607162 ], [ -37.202502, -10.614176 ], [ -37.204696, -10.624459 ], [ -37.211104, -10.617924 ], [ -37.21788, -10.61644 ], [ -37.218509, -10.611231 ], [ -37.228779, -10.608359 ], [ -37.230676, -10.603786 ], [ -37.23631, -10.603868 ], [ -37.248718, -10.594621 ], [ -37.26282, -10.576898 ], [ -37.271845, -10.577964 ], [ -37.284407, -10.573769 ], [ -37.29393, -10.575833 ], [ -37.30351, -10.574249 ], [ -37.311452, -10.564785 ], [ -37.313576, -10.558079 ], [ -37.311078, -10.5483 ], [ -37.317946, -10.546502 ], [ -37.320681, -10.539992 ], [ -37.321939, -10.5379 ], [ -37.325562, -10.532063 ], [ -37.32591, -10.531499 ], [ -37.335538, -10.519742 ], [ -37.335807, -10.519414 ], [ -37.359421, -10.482839 ], [ -37.348992, -10.491129 ], [ -37.301875, -10.47505 ], [ -37.301074, -10.474777 ], [ -37.274502, -10.465004 ], [ -37.2805, -10.461537 ], [ -37.290131, -10.466551 ], [ -37.29212, -10.458135 ], [ -37.287391, -10.454015 ], [ -37.289602, -10.448161 ], [ -37.294444, -10.448734 ], [ -37.295399, -10.441231 ], [ -37.291882, -10.43791 ], [ -37.294401, -10.433221 ], [ -37.302482, -10.435952 ], [ -37.308093, -10.425481 ], [ -37.318099, -10.433719 ], [ -37.325271, -10.432956 ], [ -37.331414, -10.431422 ], [ -37.334078, -10.426554 ], [ -37.331811, -10.424177 ], [ -37.324042, -10.420537 ], [ -37.331508, -10.417459 ], [ -37.329291, -10.412729 ], [ -37.332749, -10.407004 ], [ -37.334691, -10.400072 ], [ -37.348033, -10.399712 ], [ -37.340867, -10.383799 ], [ -37.345106, -10.380211 ], [ -37.343351, -10.3781 ], [ -37.334291, -10.378723 ], [ -37.326065, -10.374575 ], [ -37.325797, -10.365612 ], [ -37.316229, -10.35856 ], [ -37.31764, -10.351253 ], [ -37.308511, -10.347368 ], [ -37.301029, -10.33296 ], [ -37.302401, -10.327832 ], [ -37.297075, -10.325297 ], [ -37.29467, -10.319626 ], [ -37.287262, -10.318911 ], [ -37.286204, -10.313626 ], [ -37.279584, -10.311367 ], [ -37.270077, -10.314246 ], [ -37.272559, -10.308608 ], [ -37.273679, -10.306065 ], [ -37.264839, -10.303175 ], [ -37.254311, -10.304749 ], [ -37.243599, -10.297599 ], [ -37.237113, -10.300494 ], [ -37.242345, -10.293122 ], [ -37.241312, -10.286896 ], [ -37.255829, -10.27969 ], [ -37.257885, -10.267731 ], [ -37.292674, -10.255316 ], [ -37.261135, -10.237231 ], [ -37.260868, -10.237947 ], [ -37.249497, -10.256711 ], [ -37.24228, -10.262354 ], [ -37.235674, -10.27393 ], [ -37.236502, -10.279566 ], [ -37.23118, -10.283321 ], [ -37.225014, -10.296674 ], [ -37.214221, -10.299972 ], [ -37.210626, -10.300014 ], [ -37.209567, -10.295933 ], [ -37.206813, -10.299475 ], [ -37.200122, -10.296483 ], [ -37.193375, -10.302989 ], [ -37.185583, -10.301484 ], [ -37.181501, -10.307424 ], [ -37.171909, -10.311338 ], [ -37.16875, -10.320796 ], [ -37.172314, -10.324247 ], [ -37.166276, -10.327749 ], [ -37.168496, -10.333315 ], [ -37.174421, -10.334276 ], [ -37.171176, -10.337772 ], [ -37.173436, -10.338769 ], [ -37.1676, -10.342147 ], [ -37.163494, -10.339854 ], [ -37.153489, -10.347432 ], [ -37.157454, -10.350151 ], [ -37.153109, -10.358259 ], [ -37.158997, -10.361555 ], [ -37.158445, -10.365511 ], [ -37.153385, -10.363916 ], [ -37.152573, -10.367329 ], [ -37.145884, -10.361961 ], [ -37.146872, -10.366129 ], [ -37.143652, -10.36691 ], [ -37.144057, -10.361735 ], [ -37.139554, -10.362875 ], [ -37.140075, -10.360228 ], [ -37.134995, -10.358808 ], [ -37.128417, -10.37168 ], [ -37.125751, -10.371696 ], [ -37.127875, -10.373917 ], [ -37.124563, -10.375188 ], [ -37.118764, -10.368253 ], [ -37.111531, -10.373007 ], [ -37.109369, -10.369434 ], [ -37.102159, -10.369209 ], [ -37.09734, -10.362049 ], [ -37.099115, -10.359685 ], [ -37.089741, -10.35785 ], [ -37.085091, -10.346989 ], [ -37.078488, -10.345792 ], [ -37.076635, -10.338938 ], [ -37.062275, -10.328655 ], [ -37.052368, -10.340426 ], [ -37.038658, -10.327085 ], [ -37.034121, -10.328526 ], [ -37.028705, -10.325817 ], [ -37.025772, -10.330198 ], [ -37.018348, -10.331899 ], [ -37.017827, -10.332017 ], [ -37.006158, -10.326248 ], [ -36.999754, -10.328253 ], [ -37.000111, -10.352179 ], [ -36.996884, -10.353717 ], [ -36.98429, -10.371578 ], [ -36.982003, -10.369735 ], [ -36.977613, -10.373122 ], [ -36.986497, -10.384664 ], [ -36.980728, -10.394974 ], [ -36.98343, -10.402895 ], [ -36.974084, -10.417832 ], [ -36.9672, -10.424607 ], [ -36.963524, -10.438076 ], [ -36.961522, -10.442433 ], [ -36.953049, -10.443103 ], [ -36.942652, -10.444527 ], [ -36.937156, -10.4513 ], [ -36.935024, -10.450019 ], [ -36.932361, -10.426799 ], [ -36.92871, -10.424498 ], [ -36.924636, -10.426878 ], [ -36.917136, -10.41983 ], [ -36.911137, -10.420357 ], [ -36.90493, -10.416874 ], [ -36.904027, -10.412306 ], [ -36.902815, -10.402892 ], [ -36.883012, -10.396801 ], [ -36.876831, -10.405524 ], [ -36.876552, -10.412114 ], [ -36.868166, -10.41873 ], [ -36.857045, -10.419452 ], [ -36.857289, -10.427749 ], [ -36.867311, -10.430827 ], [ -36.875004, -10.438348 ], [ -36.869954, -10.454422 ], [ -36.867555, -10.480013 ], [ -36.86763, -10.484828 ], [ -36.861578, -10.489772 ], [ -36.859599, -10.496807 ], [ -36.847157, -10.498118 ], [ -36.837817, -10.507177 ], [ -36.830579, -10.53195 ], [ -36.80804, -10.549302 ], [ -36.808202, -10.569324 ], [ -36.808549, -10.574237 ], [ -36.783311, -10.575486 ], [ -36.765154, -10.580502 ], [ -36.754912, -10.593748 ], [ -36.749764, -10.59449 ], [ -36.707027, -10.613419 ], [ -36.701355, -10.615931 ], [ -36.685646, -10.622884 ], [ -36.680067, -10.625353 ], [ -36.673312, -10.628341 ], [ -36.703499, -10.641688 ], [ -36.733579, -10.65521 ], [ -36.80795, -10.704172 ], [ -36.843821, -10.734852 ], [ -36.853723, -10.743161 ], [ -36.861113, -10.741963 ], [ -36.869121, -10.743637 ], [ -36.872471, -10.740802 ], [ -36.876426, -10.738554 ], [ -36.88363, -10.747427 ], [ -36.899076, -10.772139 ], [ -36.925733, -10.788245 ], [ -36.927155, -10.786656 ], [ -36.92861, -10.79008 ], [ -36.93698, -10.78684 ], [ -36.93911, -10.795608 ], [ -36.947251, -10.798156 ], [ -36.956687, -10.808743 ], [ -36.960229, -10.808687 ], [ -36.95992, -10.816758 ], [ -36.964934, -10.819251 ], [ -36.968622, -10.832831 ], [ -36.978561, -10.831961 ], [ -36.982333, -10.835406 ], [ -36.984268, -10.831653 ], [ -36.988063, -10.836303 ], [ -36.981449, -10.843413 ], [ -36.982927, -10.848523 ], [ -36.989268, -10.851887 ], [ -36.994805, -10.847356 ], [ -36.997263, -10.85256 ], [ -36.994718, -10.857187 ], [ -36.998166, -10.860302 ], [ -37.005749, -10.858913 ], [ -37.008873, -10.864418 ], [ -37.015311, -10.863929 ], [ -37.016092, -10.874525 ], [ -37.023824, -10.876932 ], [ -37.027704, -10.884777 ], [ -37.03941, -10.883681 ], [ -37.035385, -10.867907 ], [ -37.044156, -10.864509 ] ], [ [ -36.900189, -10.693315 ], [ -36.902698, -10.691868 ], [ -36.900189, -10.693316 ], [ -36.900189, -10.693315 ] ] ] } },
{ "type": "Feature", "properties": { "HREG_ID": "28007", "HREG_NAME": "Propria", "id": "280010", "name": "Amparo de São Francisco", "description": "Amparo de São Francisco", "MUN_ID": "280010", "UF": "SE", "MACRO_ID": "2801", "MACRO_NAME": "Macro Única" }, "geometry": { "type": "Polygon", "coordinates": [ [ [ -36.911137, -10.420357 ], [ -36.917136, -10.41983 ], [ -36.924636, -10.426878 ], [ -36.92871, -10.424498 ], [ -36.932361, -10.426799 ], [ -36.935024, -10.450019 ], [ -36.937156, -10.4513 ], [ -36.942652, -10.444527 ], [ -36.953049, -10.443103 ], [ -36.961522, -10.442433 ], [ -36.963524, -10.438076 ], [ -36.9672, -10.424607 ], [ -36.974084, -10.417832 ], [ -36.98343, -10.402895 ], [ -36.980728, -10.394974 ], [ -36.986497, -10.384664 ], [ -36.977613, -10.373122 ], [ -36.982003, -10.369735 ], [ -36.98429, -10.371578 ], [ -36.996884, -10.353717 ], [ -37.000111, -10.352179 ], [ -36.999754, -10.328253 ], [ -37.006158, -10.326248 ], [ -37.017827, -10.332017 ], [ -37.018348, -10.331899 ], [ -37.025772, -10.330198 ], [ -37.028705, -10.325817 ], [ -37.034121, -10.328526 ], [ -37.038658, -10.327085 ], [ -37.052368, -10.340426 ], [ -37.062275, -10.328655 ], [ -37.076635, -10.338938 ], [ -37.078488, -10.345792 ], [ -37.085091, -10.346989 ], [ -37.089741, -10.35785 ], [ -37.099115, -10.359685 ], [ -37.09734, -10.362049 ], [ -37.102159, -10.369209 ], [ -37.109369, -10.369434 ], [ -37.111531, -10.373007 ], [ -37.118764, -10.368253 ], [ -37.124563, -10.375188 ], [ -37.127875, -10.373917 ], [ -37.125751, -10.371696 ], [ -37.128417, -10.37168 ], [ -37.134995, -10.358808 ], [ -37.140075, -10.360228 ], [ -37.139554, -10.362875 ], [ -37.144057, -10.361735 ], [ -37.143652, -10.36691 ], [ -37.146872, -10.366129 ], [ -37.145884, -10.361961 ], [ -37.152573, -10.367329 ], [ -37.153385, -10.363916 ], [ -37.158445, -10.365511 ], [ -37.158997, -10.361555 ], [ -37.153109, -10.358259 ], [ -37.157454, -10.350151 ], [ -37.153489, -10.347432 ], [ -37.163494, -10.339854 ], [ -37.16182, -10.334069 ], [ -37.165125, -10.331983 ], [ -37.148939, -10.322426 ], [ -37.149227, -10.315147 ], [ -37.155256, -10.306951 ], [ -37.147417, -10.302687 ], [ -37.14931, -10.292897 ], [ -37.150443, -10.288458 ], [ -37.147019, -10.287658 ], [ -37.139384, -10.28049 ], [ -37.137823, -10.274624 ], [ -37.13839, -10.26173 ], [ -37.142416, -10.256136 ], [ -37.140711, -10.246234 ], [ -37.148635, -10.24099 ], [ -37.150701, -10.235515 ], [ -37.149813, -10.222419 ], [ -37.142842, -10.204391 ], [ -37.136412, -10.199957 ], [ -37.13621, -10.199771 ], [ -37.13703, -10.193266 ], [ -37.153948, -10.186971 ], [ -37.151812, -10.164877 ], [ -37.1516, -10.164807 ], [ -37.146408, -10.163086 ], [ -37.089933, -10.144364 ], [ -37.06462, -10.135973 ], [ -37.067623, -10.091872 ], [ -37.064891, -10.07773 ], [ -37.063765, -10.071899 ], [ -37.061682, -10.06112 ], [ -37.060654, -10.060972 ], [ -37.026759, -10.054258 ], [ -37.006363, -10.037253 ], [ -36.965412, -10.025868 ], [ -36.957801, -10.023752 ], [ -36.956071, -10.023271 ], [ -36.958759, -10.050103 ], [ -36.953563, -10.071222 ], [ -36.951919, -10.074362 ], [ -36.950476, -10.077114 ], [ -36.946758, -10.086122 ], [ -36.930233, -10.105343 ], [ -36.921221, -10.127886 ], [ -36.918185, -10.131725 ], [ -36.918081, -10.131823 ], [ -36.910553, -10.137515 ], [ -36.887264, -10.142594 ], [ -36.880256, -10.144641 ], [ -36.867033, -10.157124 ], [ -36.848266, -10.162359 ], [ -36.846924, -10.175844 ], [ -36.846778, -10.179712 ], [ -36.846244, -10.186089 ], [ -36.845311, -10.188972 ], [ -36.835316, -10.203648 ], [ -36.819312, -10.21492 ], [ -36.818559, -10.215413 ], [ -36.808073, -10.220448 ], [ -36.776528, -10.225503 ], [ -36.755837, -10.231308 ], [ -36.750404, -10.237039 ], [ -36.755816, -10.245917 ], [ -36.744219, -10.251734 ], [ -36.736235, -10.251638 ], [ -36.720055, -10.264515 ], [ -36.701651, -10.270546 ], [ -36.684766, -10.27483 ], [ -36.681324, -10.273034 ], [ -36.679033, -10.269383 ], [ -36.657601, -10.264905 ], [ -36.64413, -10.252113 ], [ -36.632245, -10.253139 ], [ -36.630634, -10.253579 ], [ -36.625069, -10.255949 ], [ -36.621601, -10.258781 ], [ -36.611895, -10.27058 ], [ -36.599218, -10.281447 ], [ -36.595166, -10.283693 ], [ -36.590843, -10.286956 ], [ -36.58861, -10.3014 ], [ -36.573791, -10.314803 ], [ -36.565586, -10.329051 ], [ -36.565563, -10.329091 ], [ -36.568154, -10.362149 ], [ -36.564037, -10.3797 ], [ -36.561261, -10.385267 ], [ -36.56163, -10.403986 ], [ -36.565243, -10.411442 ], [ -36.562688, -10.419269 ], [ -36.544306, -10.429602 ], [ -36.538237, -10.421933 ], [ -36.510202, -10.420976 ], [ -36.51897, -10.424273 ], [ -36.521891, -10.432667 ], [ -36.509691, -10.432385 ], [ -36.489275, -10.423569 ], [ -36.487076, -10.42249 ], [ -36.487055, -10.422477 ], [ -36.463192, -10.406307 ], [ -36.456518, -10.406922 ], [ -36.443268, -10.417591 ], [ -36.437591, -10.417999 ], [ -36.430121, -10.424881 ], [ -36.417044, -10.453611 ], [ -36.40491, -10.481267 ], [ -36.404761, -10.481825 ], [ -36.39354, -10.499912 ], [ -36.393531, -10.503625 ], [ -36.399545, -10.511353 ], [ -36.399614, -10.519497 ], [ -36.405905, -10.517268 ], [ -36.43528, -10.520751 ], [ -36.497339, -10.538034 ], [ -36.599944, -10.57959 ], [ -36.620096, -10.589013 ], [ -36.673312, -10.628341 ], [ -36.680067, -10.625353 ], [ -36.685646, -10.622884 ], [ -36.701355, -10.615931 ], [ -36.707027, -10.613419 ], [ -36.749764, -10.59449 ], [ -36.754912, -10.593748 ], [ -36.765154, -10.580502 ], [ -36.783311, -10.575486 ], [ -36.808549, -10.574237 ], [ -36.808202, -10.569324 ], [ -36.80804, -10.549302 ], [ -36.830579, -10.53195 ], [ -36.837817, -10.507177 ], [ -36.847157, -10.498118 ], [ -36.859599, -10.496807 ], [ -36.861578, -10.489772 ], [ -36.86763, -10.484828 ], [ -36.867555, -10.480013 ], [ -36.869954, -10.454422 ], [ -36.875004, -10.438348 ], [ -36.867311, -10.430827 ], [ -36.857289, -10.427749 ], [ -36.857045, -10.419452 ], [ -36.868166, -10.41873 ], [ -36.876552, -10.412114 ], [ -36.876831, -10.405524 ], [ -36.883012, -10.396801 ], [ -36.902815, -10.402892 ], [ -36.904027, -10.412306 ], [ -36.90493, -10.416874 ], [ -36.911137, -10.420357 ] ] ] } }
]
}
