{
"type": "FeatureCollection",
"name": "geojs-12-health_regions",
"crs": { "type": "name", "properties": { "name": "urn:ogc:def:crs:OGC:1.3:CRS84" } },
"features": [
{ "type": "Feature", "properties": { "HREG_ID": "12001", "HREG_NAME": "Alto Acre", "id": "120005", "name": "Assis Brasil", "description": "Assis Brasil", "MUN_ID": "120005", "UF": "AC", "MACRO_ID": "1201", "MACRO_NAME": "Macro Única - AC" }, "geometry": { "type": "Polygon", "coordinates": [ [ [ -68.395672, -11.050633 ], [ -68.405016, -11.053473 ], [ -68.415632, -11.03968 ], [ -68.422712, -11.041541 ], [ -68.431687, -11.031441 ], [ -68.444807, -11.04593 ], [ -68.487371, -11.050577 ], [ -68.503953, -11.063115 ], [ -68.50679, -11.072372 ], [ -68.518871, -11.088042 ], [ -68.538741, -11.095752 ], [ -68.541884, -11.099256 ], [ -68.542567, -11.110027 ], [ -68.61173, -11.123702 ], [ -68.715757, -11.144833 ], [ -68.710895, -11.129377 ], [ -68.722159, -11.114237 ], [ -68.720869, -11.103556 ], [ -68.734524, -11.093327 ], [ -68.741336, -11.096898 ], [ -68.745496, -11.095232 ], [ -68.751084, -11.085659 ], [ -68.757345, -11.083817 ], [ -68.75578, -11.076322 ], [ -68.765053, -11.06622 ], [ -68.759384, -11.056085 ], [ -68.766173, -11.049085 ], [ -68.759193, -11.039058 ], [ -68.750974, -11.036941 ], [ -68.750476, -11.026665 ], [ -68.749607, -11.020154 ], [ -68.747897, -11.010576 ], [ -68.754608, -11.011543 ], [ -68.762107, -11.019222 ], [ -68.762778, -11.012773 ], [ -68.756782, -11.009598 ], [ -68.757667, -11.000789 ], [ -68.769943, -11.007962 ], [ -68.779304, -11.005156 ], [ -68.778251, -11.000105 ], [ -68.780974, -10.999495 ], [ -68.786833, -11.006259 ], [ -68.787918, -11.015476 ], [ -68.789222, -11.000792 ], [ -68.798247, -10.998586 ], [ -68.791557, -10.990942 ], [ -68.798804, -10.991366 ], [ -68.802, -10.995663 ], [ -68.811891, -10.99509 ], [ -68.803864, -11.00204 ], [ -68.812057, -11.001622 ], [ -68.815948, -11.005827 ], [ -68.823135, -11.003641 ], [ -68.828445, -11.008193 ], [ -68.831031, -11.001678 ], [ -68.826667, -10.997044 ], [ -68.834105, -10.994445 ], [ -68.840775, -11.002931 ], [ -68.844467, -10.998869 ], [ -68.840994, -10.997037 ], [ -68.842057, -10.994145 ], [ -68.847641, -10.993346 ], [ -68.859526, -11.005317 ], [ -68.860442, -11.017894 ], [ -68.869667, -11.015248 ], [ -68.87397, -11.009875 ], [ -68.88186, -11.009781 ], [ -68.885139, -11.016414 ], [ -68.880332, -11.017247 ], [ -68.879997, -11.012544 ], [ -68.875999, -11.02013 ], [ -68.881226, -11.022286 ], [ -68.895363, -11.006672 ], [ -68.908247, -11.021666 ], [ -68.911804, -11.02192 ], [ -68.921081, -11.014615 ], [ -68.924667, -11.017953 ], [ -68.934249, -11.005337 ], [ -68.947197, -11.012608 ], [ -68.947387, -11.004997 ], [ -68.956306, -11.001552 ], [ -68.952751, -10.989488 ], [ -68.960501, -10.993164 ], [ -68.967971, -10.988344 ], [ -68.973336, -10.989236 ], [ -68.981277, -10.99732 ], [ -68.987642, -10.998294 ], [ -68.984168, -11.008957 ], [ -68.994561, -11.010819 ], [ -68.994583, -11.003691 ], [ -69.000198, -11.007275 ], [ -69.012969, -11.004905 ], [ -69.015472, -11.002005 ], [ -69.010559, -10.995547 ], [ -69.011726, -10.991619 ], [ -69.024581, -10.991424 ], [ -69.025581, -10.983335 ], [ -69.033194, -10.985253 ], [ -69.038665, -10.976864 ], [ -69.046752, -10.981286 ], [ -69.050253, -10.974683 ], [ -69.061386, -10.98432 ], [ -69.072334, -10.965932 ], [ -69.077919, -10.974633 ], [ -69.085949, -10.970263 ], [ -69.101364, -10.980044 ], [ -69.111029, -10.971466 ], [ -69.120613, -10.980298 ], [ -69.122191, -10.966911 ], [ -69.13658, -10.973311 ], [ -69.137802, -10.964633 ], [ -69.142471, -10.970035 ], [ -69.148613, -10.971175 ], [ -69.14994, -10.968677 ], [ -69.144112, -10.963181 ], [ -69.154168, -10.964195 ], [ -69.152473, -10.955075 ], [ -69.16355, -10.965228 ], [ -69.180916, -10.95588 ], [ -69.185669, -10.948441 ], [ -69.198723, -10.948056 ], [ -69.214858, -10.95693 ], [ -69.21917, -10.949215 ], [ -69.231887, -10.939874 ], [ -69.240752, -10.951063 ], [ -69.256416, -10.94691 ], [ -69.256942, -10.944187 ], [ -69.250557, -10.943279 ], [ -69.250717, -10.939643 ], [ -69.270531, -10.941889 ], [ -69.274024, -10.945561 ], [ -69.271026, -10.953051 ], [ -69.273948, -10.954333 ], [ -69.282944, -10.943383 ], [ -69.288391, -10.950107 ], [ -69.297721, -10.946794 ], [ -69.30436, -10.947975 ], [ -69.319281, -10.943929 ], [ -69.323775, -10.936423 ], [ -69.327163, -10.949047 ], [ -69.334357, -10.94682 ], [ -69.336417, -10.940803 ], [ -69.342665, -10.952118 ], [ -69.346474, -10.947242 ], [ -69.345832, -10.93833 ], [ -69.356026, -10.937155 ], [ -69.356751, -10.94443 ], [ -69.372276, -10.939181 ], [ -69.374221, -10.95355 ], [ -69.376945, -10.952193 ], [ -69.378532, -10.941019 ], [ -69.385276, -10.942039 ], [ -69.387557, -10.933839 ], [ -69.394301, -10.934563 ], [ -69.39167, -10.943034 ], [ -69.394744, -10.943836 ], [ -69.401527, -10.929674 ], [ -69.406028, -10.929415 ], [ -69.412917, -10.938457 ], [ -69.415611, -10.927168 ], [ -69.421367, -10.926782 ], [ -69.427581, -10.936997 ], [ -69.449668, -10.936081 ], [ -69.454055, -10.949795 ], [ -69.460221, -10.943925 ], [ -69.462029, -10.950114 ], [ -69.472557, -10.944753 ], [ -69.477081, -10.945561 ], [ -69.476112, -10.952669 ], [ -69.479919, -10.95457 ], [ -69.483497, -10.951054 ], [ -69.495635, -10.949424 ], [ -69.500197, -10.936831 ], [ -69.507415, -10.941557 ], [ -69.516968, -10.935631 ], [ -69.538612, -10.935765 ], [ -69.542502, -10.938253 ], [ -69.541191, -10.950497 ], [ -69.546051, -10.952177 ], [ -69.551139, -10.951189 ], [ -69.554031, -10.945531 ], [ -69.565076, -10.943826 ], [ -69.575129, -10.94239 ], [ -69.588554, -10.940471 ], [ -69.584031, -10.94559 ], [ -69.586249, -10.947535 ], [ -69.601723, -10.941895 ], [ -69.611588, -10.946796 ], [ -69.61228, -10.955527 ], [ -69.620002, -10.950189 ], [ -69.635117, -10.957162 ], [ -69.658973, -10.952005 ], [ -69.669167, -10.961962 ], [ -69.678496, -10.959858 ], [ -69.687699, -10.964546 ], [ -69.69136, -10.963452 ], [ -69.697692, -10.971693 ], [ -69.70111, -10.965495 ], [ -69.716247, -10.974458 ], [ -69.722831, -10.964756 ], [ -69.736528, -10.974451 ], [ -69.741088, -10.972319 ], [ -69.739525, -10.963809 ], [ -69.746085, -10.9619 ], [ -69.747864, -10.953692 ], [ -69.759835, -10.939803 ], [ -69.764106, -10.939097 ], [ -69.760582, -10.944797 ], [ -69.773169, -10.939003 ], [ -69.769028, -10.929722 ], [ -69.781081, -10.934367 ], [ -69.788705, -10.930787 ], [ -69.795501, -10.932441 ], [ -69.800499, -10.926146 ], [ -69.810471, -10.925266 ], [ -69.813912, -10.930148 ], [ -69.830971, -10.933591 ], [ -69.833587, -10.932553 ], [ -69.832358, -10.928078 ], [ -69.839165, -10.928842 ], [ -69.851524, -10.924335 ], [ -69.857972, -10.933506 ], [ -69.862914, -10.926166 ], [ -69.874694, -10.929061 ], [ -69.879028, -10.923889 ], [ -69.899833, -10.920095 ], [ -69.914138, -10.92301 ], [ -69.91661, -10.930986 ], [ -69.921859, -10.932326 ], [ -69.925501, -10.923668 ], [ -69.934417, -10.921903 ], [ -69.953446, -10.927173 ], [ -69.954559, -10.935111 ], [ -69.962058, -10.9345 ], [ -69.958587, -10.939861 ], [ -69.963944, -10.939841 ], [ -69.973474, -10.947675 ], [ -69.982223, -10.942358 ], [ -69.985252, -10.954165 ], [ -69.993889, -10.9508 ], [ -69.998001, -10.963162 ], [ -70.003502, -10.959802 ], [ -70.006309, -10.96447 ], [ -70.008193, -10.961772 ], [ -70.013336, -10.967261 ], [ -70.026084, -10.971139 ], [ -70.027862, -10.977233 ], [ -70.036468, -10.970239 ], [ -70.03714, -10.97776 ], [ -70.047447, -10.978498 ], [ -70.04367, -10.982821 ], [ -70.049781, -10.979569 ], [ -70.052138, -10.985392 ], [ -70.065254, -10.986544 ], [ -70.064057, -10.990903 ], [ -70.067222, -10.992504 ], [ -70.076973, -10.9886 ], [ -70.079306, -10.990789 ], [ -70.080444, -10.984021 ], [ -70.086251, -10.989037 ], [ -70.091919, -10.985962 ], [ -70.097915, -10.997678 ], [ -70.105078, -10.997358 ], [ -70.098305, -10.992069 ], [ -70.108391, -10.99455 ], [ -70.107002, -11.006973 ], [ -70.111167, -11.002667 ], [ -70.11647, -11.005386 ], [ -70.114052, -11.008671 ], [ -70.122558, -11.010149 ], [ -70.131974, -11.021442 ], [ -70.138915, -11.021439 ], [ -70.141832, -11.029598 ], [ -70.15583, -11.033909 ], [ -70.158691, -11.040958 ], [ -70.164718, -11.038111 ], [ -70.167282, -11.042114 ], [ -70.169502, -11.0396 ], [ -70.172447, -11.041718 ], [ -70.176689, -11.038822 ], [ -70.179832, -11.043259 ], [ -70.190055, -11.044624 ], [ -70.189695, -11.048465 ], [ -70.199921, -11.0536 ], [ -70.211776, -11.049379 ], [ -70.214775, -11.05207 ], [ -70.228362, -11.04876 ], [ -70.230415, -11.052491 ], [ -70.241363, -11.046022 ], [ -70.258751, -11.052467 ], [ -70.264053, -11.050819 ], [ -70.271529, -11.059765 ], [ -70.280303, -11.056171 ], [ -70.285835, -11.057705 ], [ -70.293495, -11.065479 ], [ -70.306724, -11.069832 ], [ -70.326529, -11.065287 ], [ -70.335807, -11.06778 ], [ -70.349662, -11.064628 ], [ -70.353362, -11.058639 ], [ -70.37403, -11.06045 ], [ -70.385414, -11.04732 ], [ -70.398972, -11.044573 ], [ -70.406112, -11.047495 ], [ -70.410225, -11.041822 ], [ -70.424164, -11.038145 ], [ -70.431423, -11.039908 ], [ -70.436752, -11.039233 ], [ -70.440551, -11.033495 ], [ -70.437332, -11.027377 ], [ -70.449524, -11.000824 ], [ -70.469169, -10.988636 ], [ -70.4795, -10.971184 ], [ -70.486388, -10.964292 ], [ -70.494446, -10.963442 ], [ -70.50447, -10.951836 ], [ -70.514663, -10.948278 ], [ -70.519447, -10.940674 ], [ -70.530333, -10.934652 ], [ -70.621025, -10.999821 ], [ -70.622857, -10.711243 ], [ -70.618516, -10.714085 ], [ -70.613332, -10.706451 ], [ -70.604965, -10.703442 ], [ -70.602389, -10.696932 ], [ -70.578395, -10.7028 ], [ -70.570772, -10.691168 ], [ -70.562313, -10.693843 ], [ -70.555446, -10.688072 ], [ -70.537372, -10.692113 ], [ -70.533234, -10.699554 ], [ -70.52369, -10.702952 ], [ -70.535565, -10.705767 ], [ -70.534572, -10.712834 ], [ -70.52487, -10.720842 ], [ -70.514879, -10.720053 ], [ -70.510374, -10.726898 ], [ -70.503392, -10.722562 ], [ -70.502989, -10.714365 ], [ -70.497328, -10.719958 ], [ -70.485, -10.723847 ], [ -70.481426, -10.723146 ], [ -70.482002, -10.717337 ], [ -70.471282, -10.715594 ], [ -70.465967, -10.717773 ], [ -70.464862, -10.702277 ], [ -70.461891, -10.700854 ], [ -70.455908, -10.702677 ], [ -70.458377, -10.712661 ], [ -70.445845, -10.711702 ], [ -70.443962, -10.722843 ], [ -70.435025, -10.714565 ], [ -70.422723, -10.724079 ], [ -70.424805, -10.716468 ], [ -70.419622, -10.708111 ], [ -70.419894, -10.714635 ], [ -70.413212, -10.716072 ], [ -70.406766, -10.715413 ], [ -70.404374, -10.721888 ], [ -70.395681, -10.726894 ], [ -70.383964, -10.718986 ], [ -70.381172, -10.730431 ], [ -70.367975, -10.73007 ], [ -70.363538, -10.712193 ], [ -70.349672, -10.710876 ], [ -70.348428, -10.716867 ], [ -70.343342, -10.71659 ], [ -70.343534, -10.705216 ], [ -70.334101, -10.707173 ], [ -70.329965, -10.716348 ], [ -70.325289, -10.712657 ], [ -70.315126, -10.714017 ], [ -70.311983, -10.701042 ], [ -70.301129, -10.70019 ], [ -70.29857, -10.695372 ], [ -70.291686, -10.699393 ], [ -70.282149, -10.691448 ], [ -70.280386, -10.70562 ], [ -70.275575, -10.707184 ], [ -70.273051, -10.695284 ], [ -70.265313, -10.712828 ], [ -70.260209, -10.706281 ], [ -70.254963, -10.713063 ], [ -70.251906, -10.697881 ], [ -70.227006, -10.689803 ], [ -70.234604, -10.685331 ], [ -70.22295, -10.684926 ], [ -70.223958, -10.676424 ], [ -70.218971, -10.682752 ], [ -70.212779, -10.680781 ], [ -70.218527, -10.68578 ], [ -70.213819, -10.696873 ], [ -70.206912, -10.695129 ], [ -70.206864, -10.703418 ], [ -70.200381, -10.689762 ], [ -70.189651, -10.692459 ], [ -70.184511, -10.688937 ], [ -70.179631, -10.689954 ], [ -70.176133, -10.690015 ], [ -70.179448, -10.684449 ], [ -70.173746, -10.682942 ], [ -70.17869, -10.677772 ], [ -70.171349, -10.67289 ], [ -70.172059, -10.667173 ], [ -70.165959, -10.667921 ], [ -70.164476, -10.662856 ], [ -70.161875, -10.663751 ], [ -70.15704, -10.676002 ], [ -70.15057, -10.664759 ], [ -70.144969, -10.668562 ], [ -70.14445, -10.660194 ], [ -70.140061, -10.661659 ], [ -70.131586, -10.658067 ], [ -70.131481, -10.651951 ], [ -70.12295, -10.65512 ], [ -70.125424, -10.641913 ], [ -70.122561, -10.637658 ], [ -70.110868, -10.644057 ], [ -70.100037, -10.641198 ], [ -70.098513, -10.64732 ], [ -70.089814, -10.649362 ], [ -70.079422, -10.632578 ], [ -70.070395, -10.633413 ], [ -70.070002, -10.614018 ], [ -70.065928, -10.612341 ], [ -70.057073, -10.616235 ], [ -70.052647, -10.606592 ], [ -70.043312, -10.612498 ], [ -70.043853, -10.604125 ], [ -70.036636, -10.611152 ], [ -70.036684, -10.601172 ], [ -70.030631, -10.591453 ], [ -70.019902, -10.594144 ], [ -70.017204, -10.591816 ], [ -70.016781, -10.58514 ], [ -70.0107, -10.591437 ], [ -70.008308, -10.581626 ], [ -69.996193, -10.583112 ], [ -69.998042, -10.576185 ], [ -69.991922, -10.570248 ], [ -69.980982, -10.58316 ], [ -69.975204, -10.582615 ], [ -69.968507, -10.574265 ], [ -69.961034, -10.577668 ], [ -69.94115, -10.566379 ], [ -69.929057, -10.548386 ], [ -69.923771, -10.548965 ], [ -69.924933, -10.556528 ], [ -69.921118, -10.559356 ], [ -69.906185, -10.543301 ], [ -69.900665, -10.546778 ], [ -69.897196, -10.556608 ], [ -69.888641, -10.551883 ], [ -69.878164, -10.557788 ], [ -69.86241, -10.538434 ], [ -69.848995, -10.54024 ], [ -69.8315, -10.537872 ], [ -69.827368, -10.513414 ], [ -69.8315, -10.507447 ], [ -69.818978, -10.508688 ], [ -69.807498, -10.504128 ], [ -69.800353, -10.508896 ], [ -69.799117, -10.502621 ], [ -69.804295, -10.492225 ], [ -69.80467, -10.479748 ], [ -69.797599, -10.481456 ], [ -69.787082, -10.471421 ], [ -69.785186, -10.460881 ], [ -69.774762, -10.455272 ], [ -69.766885, -10.459558 ], [ -69.757694, -10.458855 ], [ -69.753936, -10.451297 ], [ -69.745969, -10.452282 ], [ -69.743841, -10.446572 ], [ -69.727186, -10.453292 ], [ -69.711312, -10.445762 ], [ -69.709587, -10.438199 ], [ -69.704045, -10.432979 ], [ -69.695423, -10.431388 ], [ -69.691368, -10.436468 ], [ -69.687299, -10.43519 ], [ -69.684123, -10.432701 ], [ -69.682142, -10.409989 ], [ -69.677, -10.424163 ], [ -69.669577, -10.418889 ], [ -69.6639, -10.424703 ], [ -69.656823, -10.420451 ], [ -69.647986, -10.428077 ], [ -69.648435, -10.416583 ], [ -69.637374, -10.408195 ], [ -69.645482, -10.403228 ], [ -69.641984, -10.400898 ], [ -69.629154, -10.403447 ], [ -69.629891, -10.394849 ], [ -69.623749, -10.391029 ], [ -69.613374, -10.394227 ], [ -69.615053, -10.384506 ], [ -69.606738, -10.37901 ], [ -69.599947, -10.380424 ], [ -69.592273, -10.369743 ], [ -69.587775, -10.371188 ], [ -69.582256, -10.379888 ], [ -69.579489, -10.378046 ], [ -69.567298, -10.388765 ], [ -69.562763, -10.388866 ], [ -69.554261, -10.398552 ], [ -69.548516, -10.414539 ], [ -69.541863, -10.418029 ], [ -69.539795, -10.42882 ], [ -69.54533, -10.448731 ], [ -69.536074, -10.457782 ], [ -69.537853, -10.468877 ], [ -69.53378, -10.47543 ], [ -69.534173, -10.482675 ], [ -69.507872, -10.504989 ], [ -69.341818, -10.48531 ], [ -69.323446, -10.472295 ], [ -69.313415, -10.473968 ], [ -69.307914, -10.470473 ], [ -69.289197, -10.470595 ], [ -69.269139, -10.458638 ], [ -69.248809, -10.454912 ], [ -69.246361, -10.436387 ], [ -69.226026, -10.423613 ], [ -69.22082, -10.415177 ], [ -69.213225, -10.418267 ], [ -69.21114, -10.414976 ], [ -69.195663, -10.412594 ], [ -69.193838, -10.406529 ], [ -69.188412, -10.407243 ], [ -69.182543, -10.398824 ], [ -69.170133, -10.402348 ], [ -69.151646, -10.399031 ], [ -69.149392, -10.385017 ], [ -69.131646, -10.385023 ], [ -68.868788, -10.385007 ], [ -68.71272, -10.383973 ], [ -68.707166, -10.364754 ], [ -68.697502, -10.361515 ], [ -68.694555, -10.355666 ], [ -68.688146, -10.359125 ], [ -68.682579, -10.354475 ], [ -68.681566, -10.344031 ], [ -68.685094, -10.33972 ], [ -68.681412, -10.33137 ], [ -68.660869, -10.328025 ], [ -68.657236, -10.319133 ], [ -68.646718, -10.313605 ], [ -68.642275, -10.306339 ], [ -68.633475, -10.30494 ], [ -68.617326, -10.306782 ], [ -68.605074, -10.299412 ], [ -68.596123, -10.299637 ], [ -68.591583, -10.293714 ], [ -68.581511, -10.295092 ], [ -68.579169, -10.284103 ], [ -68.569296, -10.28034 ], [ -68.569588, -10.275556 ], [ -68.565521, -10.272722 ], [ -68.553157, -10.27966 ], [ -68.542882, -10.27434 ], [ -68.53512, -10.275556 ], [ -68.528369, -10.26885 ], [ -68.529926, -10.2627 ], [ -68.52703, -10.256966 ], [ -68.507246, -10.259508 ], [ -68.496382, -10.254389 ], [ -68.49106, -10.246066 ], [ -68.489016, -10.227639 ], [ -68.470272, -10.216391 ], [ -68.471751, -10.19485 ], [ -68.465813, -10.186224 ], [ -68.45253, -10.183025 ], [ -68.443903, -10.19106 ], [ -68.455825, -10.21097 ], [ -68.451858, -10.24757 ], [ -68.436527, -10.267019 ], [ -68.427567, -10.264259 ], [ -68.411936, -10.2683 ], [ -68.416339, -10.277248 ], [ -68.411798, -10.291821 ], [ -68.415624, -10.307208 ], [ -68.375455, -10.311554 ], [ -68.35081, -10.332207 ], [ -68.354487, -10.357872 ], [ -68.390237, -10.373396 ], [ -68.387558, -10.379515 ], [ -68.324806, -10.393651 ], [ -68.327536, -10.409149 ], [ -68.313604, -10.418374 ], [ -68.293647, -10.405576 ], [ -68.281818, -10.403897 ], [ -68.276677, -10.392512 ], [ -68.272313, -10.388336 ], [ -68.256277, -10.390567 ], [ -68.251324, -10.387201 ], [ -68.241738, -10.38614 ], [ -68.240062, -10.388545 ], [ -68.232391, -10.384748 ], [ -68.229325, -10.38989 ], [ -68.219327, -10.381174 ], [ -68.209646, -10.380017 ], [ -68.206941, -10.374533 ], [ -68.200502, -10.374139 ], [ -68.186217, -10.382462 ], [ -68.18003, -10.376825 ], [ -68.164963, -10.373717 ], [ -68.162, -10.375976 ], [ -68.150614, -10.37042 ], [ -68.143648, -10.370638 ], [ -68.138677, -10.374545 ], [ -68.123315, -10.37507 ], [ -68.116944, -10.367448 ], [ -68.111892, -10.365735 ], [ -68.102916, -10.368826 ], [ -68.097397, -10.36371 ], [ -68.088473, -10.364913 ], [ -68.088414, -10.368739 ], [ -68.069719, -10.38342 ], [ -68.062864, -10.379339 ], [ -68.061423, -10.382027 ], [ -68.056897, -10.380361 ], [ -68.053974, -10.384508 ], [ -68.048349, -10.383169 ], [ -68.044754, -10.38892 ], [ -68.04073, -10.388917 ], [ -68.045833, -10.393673 ], [ -68.047478, -10.404524 ], [ -68.055707, -10.411563 ], [ -68.053835, -10.420825 ], [ -68.063912, -10.424984 ], [ -68.043043, -10.47255 ], [ -68.042989, -10.473141 ], [ -68.042012, -10.483838 ], [ -68.036815, -10.489297 ], [ -68.029941, -10.515181 ], [ -68.033153, -10.524813 ], [ -68.030935, -10.536093 ], [ -68.017987, -10.55067 ], [ -68.01738, -10.564978 ], [ -67.983489, -10.592958 ], [ -68.008031, -10.600335 ], [ -68.016152, -10.602232 ], [ -68.00961, -10.612084 ], [ -68.008837, -10.633626 ], [ -68.002853, -10.641003 ], [ -68.001945, -10.647962 ], [ -68.00525, -10.651053 ], [ -68.011946, -10.64769 ], [ -68.014945, -10.651911 ], [ -68.016228, -10.64921 ], [ -68.021224, -10.650471 ], [ -68.02658, -10.657044 ], [ -68.03289, -10.654856 ], [ -68.030829, -10.66487 ], [ -68.040527, -10.669697 ], [ -68.054643, -10.670014 ], [ -68.06314, -10.676841 ], [ -68.064097, -10.682457 ], [ -68.070114, -10.685208 ], [ -68.075363, -10.683659 ], [ -68.078972, -10.693333 ], [ -68.087722, -10.697395 ], [ -68.091529, -10.704123 ], [ -68.096329, -10.704428 ], [ -68.094833, -10.708824 ], [ -68.099975, -10.709156 ], [ -68.105351, -10.716882 ], [ -68.104584, -10.721999 ], [ -68.108194, -10.724832 ], [ -68.104048, -10.72697 ], [ -68.106789, -10.729276 ], [ -68.104816, -10.740758 ], [ -68.101591, -10.740617 ], [ -68.096696, -10.748553 ], [ -68.098274, -10.752381 ], [ -68.101647, -10.751868 ], [ -68.102489, -10.76086 ], [ -68.107046, -10.764163 ], [ -68.103333, -10.775413 ], [ -68.106149, -10.779368 ], [ -68.117826, -10.783499 ], [ -68.125203, -10.796385 ], [ -68.140443, -10.808398 ], [ -68.143413, -10.815291 ], [ -68.153623, -10.820183 ], [ -68.167355, -10.837624 ], [ -68.172686, -10.838386 ], [ -68.182159, -10.856215 ], [ -68.196353, -10.859067 ], [ -68.199748, -10.876566 ], [ -68.205829, -10.878923 ], [ -68.203435, -10.886994 ], [ -68.206022, -10.897881 ], [ -68.208805, -10.904298 ], [ -68.215588, -10.904881 ], [ -68.224304, -10.911523 ], [ -68.230681, -10.928912 ], [ -68.230626, -10.943298 ], [ -68.237427, -10.956129 ], [ -68.248942, -10.961681 ], [ -68.257215, -10.97277 ], [ -68.271173, -10.979139 ], [ -68.278194, -10.989261 ], [ -68.284532, -10.99083 ], [ -68.288898, -10.988182 ], [ -68.307667, -10.992136 ], [ -68.320024, -10.999371 ], [ -68.325677, -11.0095 ], [ -68.332262, -11.01331 ], [ -68.341824, -11.005062 ], [ -68.353829, -11.004211 ], [ -68.384846, -11.017963 ], [ -68.390894, -11.029124 ], [ -68.388502, -11.040536 ], [ -68.395672, -11.050633 ] ] ] } },
{ "type": "Feature", "properties": { "HREG_ID": "12002", "HREG_NAME": "Baixo Acre e Purus", "id": "120001", "name": "Acrelândia", "description": "Acrelândia", "MUN_ID": "120001", "UF": "AC", "MACRO_ID": "1201", "MACRO_NAME": "Macro Única - AC" }, "geometry": { "type": "MultiPolygon", "coordinates": [ [ [ [ -68.044754, -10.38892 ], [ -68.048349, -10.383169 ], [ -68.053974, -10.384508 ], [ -68.056897, -10.380361 ], [ -68.061423, -10.382027 ], [ -68.062864, -10.379339 ], [ -68.069719, -10.38342 ], [ -68.088414, -10.368739 ], [ -68.088473, -10.364913 ], [ -68.097397, -10.36371 ], [ -68.102916, -10.368826 ], [ -68.111892, -10.365735 ], [ -68.116944, -10.367448 ], [ -68.123315, -10.37507 ], [ -68.138677, -10.374545 ], [ -68.143648, -10.370638 ], [ -68.150614, -10.37042 ], [ -68.162, -10.375976 ], [ -68.164963, -10.373717 ], [ -68.18003, -10.376825 ], [ -68.186217, -10.382462 ], [ -68.200502, -10.374139 ], [ -68.206941, -10.374533 ], [ -68.209646, -10.380017 ], [ -68.219327, -10.381174 ], [ -68.229325, -10.38989 ], [ -68.232391, -10.384748 ], [ -68.240062, -10.388545 ], [ -68.241738, -10.38614 ], [ -68.251324, -10.387201 ], [ -68.256277, -10.390567 ], [ -68.272313, -10.388336 ], [ -68.276677, -10.392512 ], [ -68.281818, -10.403897 ], [ -68.293647, -10.405576 ], [ -68.313604, -10.418374 ], [ -68.327536, -10.409149 ], [ -68.324806, -10.393651 ], [ -68.387558, -10.379515 ], [ -68.390237, -10.373396 ], [ -68.354487, -10.357872 ], [ -68.35081, -10.332207 ], [ -68.375455, -10.311554 ], [ -68.415624, -10.307208 ], [ -68.411798, -10.291821 ], [ -68.416339, -10.277248 ], [ -68.411936, -10.2683 ], [ -68.427567, -10.264259 ], [ -68.436527, -10.267019 ], [ -68.451858, -10.24757 ], [ -68.455825, -10.21097 ], [ -68.443903, -10.19106 ], [ -68.45253, -10.183025 ], [ -68.465813, -10.186224 ], [ -68.471751, -10.19485 ], [ -68.470272, -10.216391 ], [ -68.489016, -10.227639 ], [ -68.49106, -10.246066 ], [ -68.496382, -10.254389 ], [ -68.507246, -10.259508 ], [ -68.52703, -10.256966 ], [ -68.529926, -10.2627 ], [ -68.528369, -10.26885 ], [ -68.53512, -10.275556 ], [ -68.542882, -10.27434 ], [ -68.553157, -10.27966 ], [ -68.565521, -10.272722 ], [ -68.569588, -10.275556 ], [ -68.569296, -10.28034 ], [ -68.579169, -10.284103 ], [ -68.581511, -10.295092 ], [ -68.591583, -10.293714 ], [ -68.596123, -10.299637 ], [ -68.605074, -10.299412 ], [ -68.617326, -10.306782 ], [ -68.633475, -10.30494 ], [ -68.642275, -10.306339 ], [ -68.646718, -10.313605 ], [ -68.657236, -10.319133 ], [ -68.660869, -10.328025 ], [ -68.681412, -10.33137 ], [ -68.685094, -10.33972 ], [ -68.681566, -10.344031 ], [ -68.682579, -10.354475 ], [ -68.688146, -10.359125 ], [ -68.694555, -10.355666 ], [ -68.697502, -10.361515 ], [ -68.707166, -10.364754 ], [ -68.71272, -10.383973 ], [ -68.868788, -10.385007 ], [ -69.131646, -10.385023 ], [ -69.149392, -10.385017 ], [ -69.151646, -10.399031 ], [ -69.170133, -10.402348 ], [ -69.182543, -10.398824 ], [ -69.188412, -10.407243 ], [ -69.193838, -10.406529 ], [ -69.195663, -10.412594 ], [ -69.21114, -10.414976 ], [ -69.213225, -10.418267 ], [ -69.22082, -10.415177 ], [ -69.226026, -10.423613 ], [ -69.246361, -10.436387 ], [ -69.248809, -10.454912 ], [ -69.269139, -10.458638 ], [ -69.289197, -10.470595 ], [ -69.307914, -10.470473 ], [ -69.313415, -10.473968 ], [ -69.323446, -10.472295 ], [ -69.341818, -10.48531 ], [ -69.507872, -10.504989 ], [ -69.534173, -10.482675 ], [ -69.53378, -10.47543 ], [ -69.537853, -10.468877 ], [ -69.536074, -10.457782 ], [ -69.54533, -10.448731 ], [ -69.539795, -10.42882 ], [ -69.541863, -10.418029 ], [ -69.548516, -10.414539 ], [ -69.554261, -10.398552 ], [ -69.562763, -10.388866 ], [ -69.567298, -10.388765 ], [ -69.579489, -10.378046 ], [ -69.582256, -10.379888 ], [ -69.587775, -10.371188 ], [ -69.592273, -10.369743 ], [ -69.599947, -10.380424 ], [ -69.606738, -10.37901 ], [ -69.615053, -10.384506 ], [ -69.613374, -10.394227 ], [ -69.623749, -10.391029 ], [ -69.629891, -10.394849 ], [ -69.629154, -10.403447 ], [ -69.641984, -10.400898 ], [ -69.645482, -10.403228 ], [ -69.637374, -10.408195 ], [ -69.648435, -10.416583 ], [ -69.647986, -10.428077 ], [ -69.656823, -10.420451 ], [ -69.6639, -10.424703 ], [ -69.669577, -10.418889 ], [ -69.677, -10.424163 ], [ -69.682142, -10.409989 ], [ -69.684123, -10.432701 ], [ -69.687299, -10.43519 ], [ -69.691368, -10.436468 ], [ -69.695423, -10.431388 ], [ -69.704045, -10.432979 ], [ -69.709587, -10.438199 ], [ -69.711312, -10.445762 ], [ -69.727186, -10.453292 ], [ -69.743841, -10.446572 ], [ -69.745969, -10.452282 ], [ -69.753936, -10.451297 ], [ -69.757694, -10.458855 ], [ -69.766885, -10.459558 ], [ -69.774762, -10.455272 ], [ -69.785186, -10.460881 ], [ -69.787082, -10.471421 ], [ -69.797599, -10.481456 ], [ -69.80467, -10.479748 ], [ -69.804295, -10.492225 ], [ -69.799117, -10.502621 ], [ -69.800353, -10.508896 ], [ -69.807498, -10.504128 ], [ -69.818978, -10.508688 ], [ -69.8315, -10.507447 ], [ -69.827368, -10.513414 ], [ -69.8315, -10.537872 ], [ -69.848995, -10.54024 ], [ -69.86241, -10.538434 ], [ -69.878164, -10.557788 ], [ -69.888641, -10.551883 ], [ -69.897196, -10.556608 ], [ -69.900665, -10.546778 ], [ -69.906185, -10.543301 ], [ -69.921118, -10.559356 ], [ -69.924933, -10.556528 ], [ -69.923771, -10.548965 ], [ -69.929057, -10.548386 ], [ -69.94115, -10.566379 ], [ -69.961034, -10.577668 ], [ -69.968507, -10.574265 ], [ -69.975204, -10.582615 ], [ -69.980982, -10.58316 ], [ -69.991922, -10.570248 ], [ -69.998042, -10.576185 ], [ -69.996193, -10.583112 ], [ -70.008308, -10.581626 ], [ -70.0107, -10.591437 ], [ -70.016781, -10.58514 ], [ -70.017204, -10.591816 ], [ -70.019902, -10.594144 ], [ -70.030631, -10.591453 ], [ -70.036684, -10.601172 ], [ -70.036636, -10.611152 ], [ -70.043853, -10.604125 ], [ -70.043312, -10.612498 ], [ -70.052647, -10.606592 ], [ -70.057073, -10.616235 ], [ -70.065928, -10.612341 ], [ -70.070002, -10.614018 ], [ -70.070395, -10.633413 ], [ -70.079422, -10.632578 ], [ -70.089814, -10.649362 ], [ -70.098513, -10.64732 ], [ -70.100037, -10.641198 ], [ -70.110868, -10.644057 ], [ -70.122561, -10.637658 ], [ -70.125424, -10.641913 ], [ -70.12295, -10.65512 ], [ -70.131481, -10.651951 ], [ -70.131586, -10.658067 ], [ -70.140061, -10.661659 ], [ -70.14445, -10.660194 ], [ -70.144969, -10.668562 ], [ -70.15057, -10.664759 ], [ -70.15704, -10.676002 ], [ -70.161875, -10.663751 ], [ -70.164476, -10.662856 ], [ -70.165959, -10.667921 ], [ -70.172059, -10.667173 ], [ -70.171349, -10.67289 ], [ -70.17869, -10.677772 ], [ -70.173746, -10.682942 ], [ -70.179448, -10.684449 ], [ -70.176133, -10.690015 ], [ -70.179631, -10.689954 ], [ -70.184511, -10.688937 ], [ -70.189651, -10.692459 ], [ -70.200381, -10.689762 ], [ -70.206864, -10.703418 ], [ -70.206912, -10.695129 ], [ -70.213819, -10.696873 ], [ -70.218527, -10.68578 ], [ -70.212779, -10.680781 ], [ -70.218971, -10.682752 ], [ -70.223958, -10.676424 ], [ -70.22295, -10.684926 ], [ -70.234604, -10.685331 ], [ -70.227006, -10.689803 ], [ -70.251906, -10.697881 ], [ -70.254963, -10.713063 ], [ -70.260209, -10.706281 ], [ -70.265313, -10.712828 ], [ -70.273051, -10.695284 ], [ -70.275575, -10.707184 ], [ -70.280386, -10.70562 ], [ -70.282149, -10.691448 ], [ -70.291686, -10.699393 ], [ -70.29857, -10.695372 ], [ -70.301129, -10.70019 ], [ -70.311983, -10.701042 ], [ -70.315126, -10.714017 ], [ -70.325289, -10.712657 ], [ -70.329965, -10.716348 ], [ -70.334101, -10.707173 ], [ -70.343534, -10.705216 ], [ -70.343342, -10.71659 ], [ -70.348428, -10.716867 ], [ -70.349672, -10.710876 ], [ -70.363538, -10.712193 ], [ -70.367975, -10.73007 ], [ -70.381172, -10.730431 ], [ -70.383964, -10.718986 ], [ -70.395681, -10.726894 ], [ -70.404374, -10.721888 ], [ -70.406766, -10.715413 ], [ -70.413212, -10.716072 ], [ -70.419894, -10.714635 ], [ -70.419622, -10.708111 ], [ -70.424805, -10.716468 ], [ -70.422723, -10.724079 ], [ -70.435025, -10.714565 ], [ -70.443962, -10.722843 ], [ -70.445845, -10.711702 ], [ -70.458377, -10.712661 ], [ -70.455908, -10.702677 ], [ -70.461891, -10.700854 ], [ -70.464862, -10.702277 ], [ -70.465967, -10.717773 ], [ -70.471282, -10.715594 ], [ -70.482002, -10.717337 ], [ -70.481426, -10.723146 ], [ -70.485, -10.723847 ], [ -70.497328, -10.719958 ], [ -70.502989, -10.714365 ], [ -70.503392, -10.722562 ], [ -70.510374, -10.726898 ], [ -70.514879, -10.720053 ], [ -70.52487, -10.720842 ], [ -70.534572, -10.712834 ], [ -70.535565, -10.705767 ], [ -70.52369, -10.702952 ], [ -70.533234, -10.699554 ], [ -70.537372, -10.692113 ], [ -70.555446, -10.688072 ], [ -70.562313, -10.693843 ], [ -70.570772, -10.691168 ], [ -70.578395, -10.7028 ], [ -70.602389, -10.696932 ], [ -70.604965, -10.703442 ], [ -70.613332, -10.706451 ], [ -70.618516, -10.714085 ], [ -70.622857, -10.711243 ], [ -70.625432, -10.498604 ], [ -70.625145, -10.424941 ], [ -70.624113, -10.074942 ], [ -70.620815, -9.961308 ], [ -70.621648, -9.821552 ], [ -70.615354, -9.815617 ], [ -70.608771, -9.801287 ], [ -70.598467, -9.799086 ], [ -70.590693, -9.802785 ], [ -70.584851, -9.783138 ], [ -70.578505, -9.776663 ], [ -70.559693, -9.78751 ], [ -70.545558, -9.777376 ], [ -70.534808, -9.763252 ], [ -70.53789, -9.746823 ], [ -70.53178, -9.744043 ], [ -70.532925, -9.732267 ], [ -70.525843, -9.722687 ], [ -70.527954, -9.718452 ], [ -70.524524, -9.713538 ], [ -70.529983, -9.711964 ], [ -70.54113, -9.681277 ], [ -70.548134, -9.676492 ], [ -70.551081, -9.668767 ], [ -70.560178, -9.664414 ], [ -70.563849, -9.667288 ], [ -70.570188, -9.660804 ], [ -70.574534, -9.648483 ], [ -70.584291, -9.63831 ], [ -70.597032, -9.604419 ], [ -70.590007, -9.599835 ], [ -70.585008, -9.589111 ], [ -70.585363, -9.585218 ], [ -70.59143, -9.585189 ], [ -70.587221, -9.583171 ], [ -70.585435, -9.570734 ], [ -70.600425, -9.562867 ], [ -70.598496, -9.551859 ], [ -70.587545, -9.546995 ], [ -70.583977, -9.551078 ], [ -70.590187, -9.564608 ], [ -70.584044, -9.565654 ], [ -70.574804, -9.561457 ], [ -70.56154, -9.573554 ], [ -70.555894, -9.571205 ], [ -70.554167, -9.566976 ], [ -70.557367, -9.55747 ], [ -70.567942, -9.554541 ], [ -70.569112, -9.549112 ], [ -70.56377, -9.538458 ], [ -70.570222, -9.530293 ], [ -70.563893, -9.527949 ], [ -70.557097, -9.535266 ], [ -70.541902, -9.535843 ], [ -70.53796, -9.532471 ], [ -70.538108, -9.527725 ], [ -70.545782, -9.525487 ], [ -70.544719, -9.510951 ], [ -70.531127, -9.513626 ], [ -70.53086, -9.501169 ], [ -70.520535, -9.503204 ], [ -70.511407, -9.489842 ], [ -70.504717, -9.503585 ], [ -70.502354, -9.493547 ], [ -70.518092, -9.475783 ], [ -70.522763, -9.459814 ], [ -70.516332, -9.454924 ], [ -70.51074, -9.464397 ], [ -70.502861, -9.461443 ], [ -70.510273, -9.445982 ], [ -70.502132, -9.443926 ], [ -70.494616, -9.439378 ], [ -70.49281, -9.426225 ], [ -70.499821, -9.426395 ], [ -70.502334, -9.421741 ], [ -70.506556, -9.421981 ], [ -70.517942, -9.426704 ], [ -70.518748, -9.432763 ], [ -70.524519, -9.435655 ], [ -70.524429, -9.426352 ], [ -70.536589, -9.435846 ], [ -70.536811, -9.430926 ], [ -70.543557, -9.425879 ], [ -70.546109, -9.425868 ], [ -70.548494, -9.432822 ], [ -70.556892, -9.433234 ], [ -70.560315, -9.427347 ], [ -70.563539, -9.432063 ], [ -70.564023, -9.42994 ], [ -70.56937, -9.431711 ], [ -70.568577, -9.438158 ], [ -70.573652, -9.434139 ], [ -70.586682, -9.445254 ], [ -70.587485, -9.441335 ], [ -70.593806, -9.440655 ], [ -70.595281, -9.457532 ], [ -70.606294, -9.458623 ], [ -70.60825, -9.455269 ], [ -70.611047, -9.456155 ], [ -70.610601, -9.466107 ], [ -70.614882, -9.468207 ], [ -70.614745, -9.473917 ], [ -70.621789, -9.46948 ], [ -70.624043, -9.477218 ], [ -70.630459, -9.479145 ], [ -70.631588, -9.484423 ], [ -70.635334, -9.485213 ], [ -70.629724, -9.49197 ], [ -70.634395, -9.493349 ], [ -70.635127, -9.499055 ], [ -70.644225, -9.495243 ], [ -70.640446, -9.499354 ], [ -70.652109, -9.498869 ], [ -70.650763, -9.5118 ], [ -70.653241, -9.512979 ], [ -70.654649, -9.509773 ], [ -70.656913, -9.513034 ], [ -70.653706, -9.516175 ], [ -70.658351, -9.51593 ], [ -70.662811, -9.523721 ], [ -70.665105, -9.517906 ], [ -70.672343, -9.526873 ], [ -70.679318, -9.528029 ], [ -70.67901, -9.532535 ], [ -70.687133, -9.53114 ], [ -70.695041, -9.538337 ], [ -70.701437, -9.543788 ], [ -70.704354, -9.54158 ], [ -70.71419, -9.544953 ], [ -70.717325, -9.552742 ], [ -70.725539, -9.554699 ], [ -70.722237, -9.561284 ], [ -70.729018, -9.5676 ], [ -70.73753, -9.55768 ], [ -70.742054, -9.556946 ], [ -70.74499, -9.561514 ], [ -70.750357, -9.558951 ], [ -70.755243, -9.566624 ], [ -70.749482, -9.567367 ], [ -70.754747, -9.57509 ], [ -70.75308, -9.577958 ], [ -70.757881, -9.57728 ], [ -70.755678, -9.581046 ], [ -70.759892, -9.58323 ], [ -70.755421, -9.590281 ], [ -70.756596, -9.602024 ], [ -70.7595, -9.603798 ], [ -70.767125, -9.599314 ], [ -70.76655, -9.60436 ], [ -70.774103, -9.607852 ], [ -70.787083, -9.612929 ], [ -70.78781, -9.618022 ], [ -70.784156, -9.621586 ], [ -70.791486, -9.62529 ], [ -70.792735, -9.636317 ], [ -70.79684, -9.635799 ], [ -70.798646, -9.641355 ], [ -70.801524, -9.639412 ], [ -70.804313, -9.642262 ], [ -70.813064, -9.638305 ], [ -70.823952, -9.643658 ], [ -70.828285, -9.641556 ], [ -70.830244, -9.644857 ], [ -70.834803, -9.641368 ], [ -70.838755, -9.654666 ], [ -70.846371, -9.656859 ], [ -70.851633, -9.653982 ], [ -70.868995, -9.664437 ], [ -70.870618, -9.667969 ], [ -70.867789, -9.669483 ], [ -70.880043, -9.680376 ], [ -70.88123, -9.687735 ], [ -70.88848, -9.688869 ], [ -70.898326, -9.713031 ], [ -70.902339, -9.712573 ], [ -70.910502, -9.726498 ], [ -70.914022, -9.726312 ], [ -70.92494, -9.740677 ], [ -70.949362, -9.741545 ], [ -70.949503, -9.744125 ], [ -70.951644, -9.741407 ], [ -70.960301, -9.750543 ], [ -70.96297, -9.747513 ], [ -70.965473, -9.754282 ], [ -70.973893, -9.757902 ], [ -70.985274, -9.788618 ], [ -70.990532, -9.787587 ], [ -70.993168, -9.803029 ], [ -70.990663, -9.809178 ], [ -70.995317, -9.816722 ], [ -71.018982, -9.815478 ], [ -71.020901, -9.817675 ], [ -71.032479, -9.814136 ], [ -71.037426, -9.817892 ], [ -71.048617, -9.816142 ], [ -71.059627, -9.823954 ], [ -71.077387, -9.828041 ], [ -71.099906, -9.749064 ], [ -71.075397, -9.694677 ], [ -71.045228, -9.642269 ], [ -70.977869, -9.598312 ], [ -70.9507, -9.535728 ], [ -70.903817, -9.494011 ], [ -70.862524, -9.457233 ], [ -70.849082, -9.455665 ], [ -70.790797, -9.448857 ], [ -70.734921, -9.415608 ], [ -70.702095, -9.38081 ], [ -70.676532, -9.373045 ], [ -70.607089, -9.266665 ], [ -70.560243, -9.191563 ], [ -70.54036, -9.159652 ], [ -70.439415, -9.088168 ], [ -70.394679, -9.024134 ], [ -70.365095, -8.982427 ], [ -70.318978, -8.96363 ], [ -70.193501, -8.967451 ], [ -70.090095, -8.973611 ], [ -69.865104, -8.957498 ], [ -69.84694, -8.948025 ], [ -69.833948, -8.934088 ], [ -69.795076, -8.840217 ], [ -69.75782, -8.781907 ], [ -69.731164, -8.76667 ], [ -69.680221, -8.70692 ], [ -69.661291, -8.680621 ], [ -69.639852, -8.672666 ], [ -69.632725, -8.664711 ], [ -69.632616, -8.664587 ], [ -69.619919, -8.650161 ], [ -69.60847, -8.644702 ], [ -69.58276, -8.643563 ], [ -69.574617, -8.636305 ], [ -69.568179, -8.611729 ], [ -69.558266, -8.59822 ], [ -69.55903, -8.592578 ], [ -69.551946, -8.580312 ], [ -69.551465, -8.558398 ], [ -69.541817, -8.546245 ], [ -69.533715, -8.528081 ], [ -69.528174, -8.52382 ], [ -69.514806, -8.494063 ], [ -69.509478, -8.457836 ], [ -69.498453, -8.443748 ], [ -69.494872, -8.431125 ], [ -69.480172, -8.422434 ], [ -69.477358, -8.410527 ], [ -69.45647, -8.398163 ], [ -69.448973, -8.388016 ], [ -69.443807, -8.366016 ], [ -69.285711, -8.501263 ], [ -69.212422, -8.563997 ], [ -69.061625, -8.693147 ], [ -68.994723, -8.750476 ], [ -68.968458, -8.772987 ], [ -68.922344, -8.812517 ], [ -68.706161, -8.997945 ], [ -68.646628, -9.049037 ], [ -68.637175, -9.053314 ], [ -68.637034, -9.053378 ], [ -68.219789, -9.242153 ], [ -67.976635, -9.352191 ], [ -67.974457, -9.353176 ], [ -67.650875, -9.499627 ], [ -67.516841, -9.560292 ], [ -67.325496, -9.59196 ], [ -67.32436, -9.592393 ], [ -67.222512, -9.636979 ], [ -67.222289, -9.637076 ], [ -67.133051, -9.67614 ], [ -67.059557, -9.708309 ], [ -66.847285, -9.801214 ], [ -66.809702, -9.817661 ], [ -66.805734, -9.814048 ], [ -66.644389, -9.88297 ], [ -66.61936, -9.893661 ], [ -66.626191, -9.899281 ], [ -66.624, -9.906964 ], [ -66.635254, -9.912935 ], [ -66.625915, -9.921128 ], [ -66.632224, -9.922143 ], [ -66.635307, -9.926184 ], [ -66.62661, -9.931589 ], [ -66.626999, -9.935368 ], [ -66.632888, -9.936909 ], [ -66.635389, -9.941344 ], [ -66.637611, -9.951763 ], [ -66.650001, -9.945137 ], [ -66.651444, -9.936305 ], [ -66.655416, -9.941699 ], [ -66.65708, -9.935942 ], [ -66.663277, -9.939428 ], [ -66.666526, -9.945961 ], [ -66.663727, -9.948601 ], [ -66.669609, -9.95986 ], [ -66.67614, -9.956993 ], [ -66.675773, -9.967834 ], [ -66.695274, -9.967374 ], [ -66.694053, -9.970991 ], [ -66.714942, -9.978468 ], [ -66.717474, -9.974268 ], [ -66.722252, -9.979379 ], [ -66.720139, -9.98312 ], [ -66.731193, -9.98045 ], [ -66.733526, -9.982619 ], [ -66.734054, -9.988255 ], [ -66.741088, -9.996466 ], [ -66.750418, -9.994518 ], [ -66.755614, -10.000097 ], [ -66.763945, -9.99968 ], [ -66.763945, -10.006182 ], [ -66.772414, -10.011208 ], [ -66.771636, -10.020546 ], [ -66.779388, -10.017081 ], [ -66.789998, -10.021836 ], [ -66.792105, -10.026874 ], [ -66.806304, -10.037345 ], [ -66.802002, -10.042986 ], [ -66.807167, -10.048169 ], [ -66.816697, -10.051108 ], [ -66.822837, -10.058924 ], [ -66.835998, -10.06338 ], [ -66.834587, -10.067422 ], [ -66.839806, -10.071059 ], [ -66.838081, -10.083095 ], [ -66.851447, -10.086525 ], [ -66.851921, -10.080867 ], [ -66.866249, -10.0843 ], [ -66.872749, -10.080539 ], [ -66.875114, -10.082851 ], [ -66.870529, -10.095033 ], [ -66.872833, -10.100611 ], [ -66.880027, -10.096861 ], [ -66.883171, -10.107822 ], [ -66.887137, -10.099098 ], [ -66.88861, -10.114289 ], [ -66.895366, -10.110114 ], [ -66.898331, -10.111623 ], [ -66.896849, -10.118087 ], [ -66.902168, -10.126469 ], [ -66.91014, -10.125698 ], [ -66.909552, -10.131878 ], [ -66.914391, -10.129037 ], [ -66.917861, -10.131053 ], [ -66.917557, -10.134821 ], [ -66.910805, -10.138769 ], [ -66.911111, -10.147381 ], [ -66.923721, -10.143113 ], [ -66.933334, -10.147503 ], [ -66.933197, -10.155581 ], [ -66.938911, -10.154081 ], [ -66.94461, -10.157481 ], [ -66.953727, -10.189211 ], [ -66.958358, -10.190705 ], [ -66.956055, -10.187759 ], [ -66.960442, -10.182816 ], [ -66.96814, -10.191871 ], [ -66.97203, -10.191926 ], [ -66.975334, -10.190019 ], [ -66.971832, -10.186983 ], [ -66.974838, -10.185631 ], [ -66.980835, -10.189955 ], [ -66.974608, -10.19614 ], [ -66.981139, -10.195664 ], [ -66.991639, -10.203639 ], [ -66.992224, -10.199363 ], [ -66.995697, -10.199316 ], [ -66.993331, -10.210183 ], [ -66.999359, -10.217206 ], [ -66.989777, -10.217378 ], [ -66.988251, -10.220927 ], [ -66.99414, -10.223711 ], [ -66.997833, -10.232343 ], [ -67.000924, -10.229912 ], [ -67.00492, -10.231184 ], [ -67.004525, -10.244208 ], [ -67.011108, -10.254049 ], [ -67.015724, -10.257834 ], [ -67.022247, -10.25508 ], [ -67.024246, -10.25797 ], [ -67.030197, -10.257375 ], [ -67.035553, -10.264255 ], [ -67.03994, -10.262287 ], [ -67.04345, -10.26646 ], [ -67.048027, -10.265277 ], [ -67.052223, -10.271033 ], [ -67.047753, -10.275585 ], [ -67.054641, -10.279153 ], [ -67.075614, -10.284797 ], [ -67.079223, -10.289423 ], [ -67.087944, -10.290464 ], [ -67.087891, -10.285775 ], [ -67.098114, -10.282325 ], [ -67.099663, -10.286324 ], [ -67.10453, -10.285552 ], [ -67.114219, -10.2925 ], [ -67.130615, -10.292889 ], [ -67.136253, -10.297636 ], [ -67.138946, -10.308607 ], [ -67.127998, -10.315939 ], [ -67.135635, -10.318908 ], [ -67.138808, -10.315881 ], [ -67.142892, -10.326209 ], [ -67.146834, -10.324102 ], [ -67.151375, -10.327181 ], [ -67.163277, -10.329677 ], [ -67.168891, -10.337029 ], [ -67.187026, -10.340286 ], [ -67.194884, -10.324905 ], [ -67.200549, -10.322864 ], [ -67.218804, -10.324072 ], [ -67.223725, -10.315822 ], [ -67.235443, -10.317048 ], [ -67.247833, -10.326423 ], [ -67.265611, -10.333183 ], [ -67.269553, -10.325708 ], [ -67.278471, -10.321626 ], [ -67.285668, -10.320089 ], [ -67.294471, -10.32484 ], [ -67.296195, -10.321636 ], [ -67.302474, -10.324092 ], [ -67.315446, -10.319324 ], [ -67.321335, -10.322258 ], [ -67.326972, -10.334525 ], [ -67.315497, -10.346961 ], [ -67.318168, -10.35995 ], [ -67.310836, -10.3763 ], [ -67.328026, -10.383269 ], [ -67.338164, -10.376433 ], [ -67.343366, -10.376499 ], [ -67.351333, -10.37971 ], [ -67.353614, -10.386648 ], [ -67.350419, -10.391992 ], [ -67.355858, -10.393114 ], [ -67.367278, -10.37667 ], [ -67.37764, -10.38313 ], [ -67.393417, -10.375379 ], [ -67.395583, -10.377627 ], [ -67.397972, -10.372267 ], [ -67.407165, -10.373864 ], [ -67.422721, -10.39393 ], [ -67.41333, -10.401464 ], [ -67.413252, -10.4272 ], [ -67.419282, -10.430403 ], [ -67.429802, -10.429882 ], [ -67.436279, -10.43929 ], [ -67.434776, -10.447069 ], [ -67.443611, -10.45492 ], [ -67.468223, -10.461222 ], [ -67.474807, -10.467366 ], [ -67.490806, -10.473156 ], [ -67.502305, -10.470927 ], [ -67.513862, -10.478353 ], [ -67.517525, -10.490572 ], [ -67.546607, -10.489523 ], [ -67.556945, -10.496514 ], [ -67.579247, -10.502796 ], [ -67.58747, -10.509944 ], [ -67.606866, -10.544971 ], [ -67.61203, -10.563591 ], [ -67.633583, -10.579067 ], [ -67.640274, -10.598069 ], [ -67.66011, -10.616271 ], [ -67.676308, -10.604839 ], [ -67.704847, -10.697996 ], [ -67.707108, -10.71045 ], [ -67.713753, -10.707655 ], [ -67.720886, -10.711784 ], [ -67.725753, -10.706817 ], [ -67.728692, -10.713275 ], [ -67.732804, -10.713416 ], [ -67.743752, -10.707678 ], [ -67.74411, -10.696529 ], [ -67.75291, -10.695938 ], [ -67.761529, -10.684608 ], [ -67.768447, -10.687966 ], [ -67.775527, -10.6841 ], [ -67.776001, -10.680239 ], [ -67.786804, -10.677653 ], [ -67.787308, -10.674656 ], [ -67.791589, -10.677703 ], [ -67.798172, -10.669955 ], [ -67.803477, -10.668515 ], [ -67.807754, -10.667534 ], [ -67.810218, -10.660938 ], [ -67.814887, -10.665302 ], [ -67.818032, -10.663745 ], [ -67.823165, -10.652123 ], [ -67.825195, -10.653817 ], [ -67.836526, -10.649455 ], [ -67.842002, -10.652558 ], [ -67.851807, -10.647644 ], [ -67.854561, -10.649972 ], [ -67.858083, -10.645823 ], [ -67.863861, -10.64067 ], [ -67.876525, -10.644293 ], [ -67.875809, -10.639618 ], [ -67.878777, -10.639425 ], [ -67.89161, -10.640501 ], [ -67.889724, -10.643902 ], [ -67.894858, -10.647348 ], [ -67.898612, -10.643106 ], [ -67.908058, -10.641409 ], [ -67.916861, -10.652266 ], [ -67.922859, -10.650585 ], [ -67.928916, -10.655983 ], [ -67.941253, -10.655994 ], [ -67.946608, -10.650385 ], [ -67.946502, -10.652519 ], [ -67.960891, -10.650025 ], [ -67.976134, -10.662603 ], [ -68.001945, -10.647962 ], [ -68.002853, -10.641003 ], [ -68.008837, -10.633626 ], [ -68.00961, -10.612084 ], [ -68.016152, -10.602232 ], [ -68.008031, -10.600335 ], [ -67.983489, -10.592958 ], [ -68.01738, -10.564978 ], [ -68.017987, -10.55067 ], [ -68.030935, -10.536093 ], [ -68.033153, -10.524813 ], [ -68.029941, -10.515181 ], [ -68.036815, -10.489297 ], [ -68.042012, -10.483838 ], [ -68.042989, -10.473141 ], [ -68.043043, -10.47255 ], [ -68.063912, -10.424984 ], [ -68.053835, -10.420825 ], [ -68.055707, -10.411563 ], [ -68.047478, -10.404524 ], [ -68.045833, -10.393673 ], [ -68.04073, -10.388917 ], [ -68.044754, -10.38892 ] ], [ [ -67.149604, -9.804031 ], [ -67.090566, -9.956514 ], [ -67.090565, -9.956514 ], [ -67.149604, -9.804031 ] ] ], [ [ [ -71.554283, -8.692152 ], [ -71.553981, -8.703108 ], [ -71.545269, -8.708784 ], [ -71.541841, -8.737596 ], [ -71.555279, -8.741766 ], [ -71.56656, -8.753954 ], [ -71.57383, -8.757321 ], [ -71.580943, -8.772112 ], [ -71.580705, -8.778526 ], [ -71.590884, -8.787538 ], [ -71.59726, -8.804345 ], [ -71.61415, -8.818551 ], [ -71.61849, -8.825263 ], [ -71.619951, -8.838967 ], [ -71.615789, -8.858056 ], [ -71.552796, -8.85077 ], [ -71.538098, -8.859727 ], [ -71.525514, -8.872896 ], [ -71.500892, -8.869763 ], [ -71.488988, -8.881066 ], [ -71.481942, -8.883006 ], [ -71.485244, -8.893992 ], [ -71.49528, -8.89056 ], [ -71.500236, -8.896934 ], [ -71.500754, -8.904008 ], [ -71.505581, -8.900086 ], [ -71.508532, -8.905974 ], [ -71.514659, -8.902803 ], [ -71.518933, -8.908508 ], [ -71.527469, -8.909239 ], [ -71.527769, -8.914473 ], [ -71.536341, -8.924769 ], [ -71.53372, -8.92856 ], [ -71.537577, -8.937426 ], [ -71.540345, -8.938021 ], [ -71.543303, -8.931888 ], [ -71.544169, -8.937907 ], [ -71.547642, -8.93411 ], [ -71.548979, -8.944485 ], [ -71.554879, -8.942718 ], [ -71.556874, -8.946068 ], [ -71.563822, -8.946985 ], [ -71.573867, -8.96154 ], [ -71.5675, -8.96799 ], [ -71.569437, -8.97988 ], [ -71.574926, -8.978146 ], [ -71.578322, -8.984148 ], [ -71.585164, -8.986586 ], [ -71.581449, -8.99366 ], [ -71.586102, -8.998513 ], [ -71.585869, -9.007056 ], [ -71.594271, -9.013606 ], [ -71.592303, -9.022307 ], [ -71.598287, -9.023844 ], [ -71.595624, -9.030005 ], [ -71.601899, -9.043473 ], [ -71.596792, -9.053308 ], [ -71.597997, -9.057218 ], [ -71.594483, -9.059554 ], [ -71.596651, -9.062346 ], [ -71.591184, -9.063263 ], [ -71.596962, -9.072903 ], [ -71.603109, -9.072567 ], [ -71.610405, -9.080441 ], [ -71.605069, -9.087207 ], [ -71.612016, -9.087624 ], [ -71.603894, -9.091543 ], [ -71.605033, -9.094343 ], [ -71.608573, -9.091627 ], [ -71.610098, -9.094921 ], [ -71.60333, -9.099035 ], [ -71.605849, -9.113641 ], [ -71.615267, -9.117785 ], [ -71.605071, -9.128154 ], [ -71.611199, -9.128959 ], [ -71.626703, -9.144406 ], [ -71.62297, -9.153003 ], [ -71.618533, -9.153999 ], [ -71.6206, -9.158869 ], [ -71.618057, -9.165293 ], [ -71.624623, -9.181624 ], [ -71.614956, -9.187924 ], [ -71.630472, -9.196527 ], [ -71.629712, -9.205248 ], [ -71.633325, -9.20209 ], [ -71.637466, -9.198991 ], [ -71.638603, -9.205476 ], [ -71.644259, -9.205961 ], [ -71.638993, -9.210416 ], [ -71.641255, -9.217653 ], [ -71.645175, -9.218238 ], [ -71.649102, -9.239647 ], [ -71.655556, -9.236558 ], [ -71.658371, -9.23914 ], [ -71.657423, -9.246079 ], [ -71.669618, -9.251018 ], [ -71.673202, -9.257894 ], [ -71.680964, -9.256607 ], [ -71.677993, -9.260783 ], [ -71.683989, -9.259451 ], [ -71.692237, -9.267929 ], [ -71.69962, -9.266966 ], [ -71.697847, -9.270109 ], [ -71.702676, -9.273904 ], [ -71.694392, -9.280108 ], [ -71.698807, -9.29929 ], [ -71.704931, -9.303133 ], [ -71.703754, -9.307002 ], [ -71.711538, -9.308493 ], [ -71.715341, -9.313026 ], [ -71.713895, -9.3164 ], [ -71.718104, -9.320024 ], [ -71.715255, -9.320953 ], [ -71.718949, -9.32651 ], [ -71.715321, -9.329491 ], [ -71.717796, -9.343918 ], [ -71.724287, -9.344475 ], [ -71.730857, -9.355209 ], [ -71.726413, -9.358091 ], [ -71.729443, -9.366797 ], [ -71.732886, -9.368265 ], [ -71.723619, -9.38547 ], [ -71.722406, -9.400515 ], [ -71.726387, -9.412244 ], [ -71.72372, -9.426403 ], [ -71.72971, -9.428599 ], [ -71.731095, -9.441209 ], [ -71.737642, -9.443399 ], [ -71.736579, -9.449545 ], [ -71.746942, -9.446948 ], [ -71.750808, -9.452641 ], [ -71.750553, -9.459885 ], [ -71.75901, -9.470853 ], [ -71.775572, -9.47955 ], [ -71.778909, -9.483385 ], [ -71.788005, -9.482968 ], [ -71.792176, -9.486394 ], [ -71.792805, -9.496689 ], [ -71.802111, -9.504959 ], [ -71.794307, -9.522178 ], [ -71.800429, -9.528314 ], [ -71.809382, -9.530611 ], [ -71.805738, -9.538891 ], [ -71.810951, -9.553851 ], [ -71.80876, -9.558421 ], [ -71.807713, -9.566405 ], [ -71.820757, -9.578985 ], [ -71.826645, -9.591886 ], [ -71.834851, -9.593602 ], [ -71.838636, -9.600658 ], [ -71.835718, -9.622292 ], [ -71.869708, -9.636734 ], [ -71.884814, -9.652981 ], [ -71.88431, -9.667289 ], [ -71.920052, -9.685559 ], [ -71.929243, -9.722258 ], [ -71.952661, -9.713911 ], [ -71.991622, -9.716658 ], [ -72.00843, -9.753906 ], [ -72.036475, -9.765793 ], [ -72.038607, -9.766697 ], [ -72.034918, -9.743146 ], [ -72.0898, -9.757504 ], [ -72.110589, -9.762937 ], [ -72.153156, -9.796933 ], [ -72.175804, -9.782281 ], [ -72.201858, -9.774425 ], [ -72.214995, -9.774403 ], [ -72.2275, -9.762314 ], [ -72.237221, -9.761985 ], [ -72.24369, -9.766106 ], [ -72.252107, -9.754216 ], [ -72.269164, -9.749747 ], [ -72.271225, -9.742625 ], [ -72.26239, -9.726478 ], [ -72.264419, -9.713522 ], [ -72.251365, -9.690553 ], [ -72.25225, -9.675947 ], [ -72.247224, -9.662985 ], [ -72.246025, -9.654494 ], [ -72.25283, -9.65137 ], [ -72.259308, -9.640653 ], [ -72.252357, -9.61693 ], [ -72.253638, -9.612296 ], [ -72.258468, -9.610968 ], [ -72.270529, -9.615013 ], [ -72.288001, -9.600917 ], [ -72.283195, -9.539887 ], [ -72.298643, -9.534323 ], [ -72.312973, -9.543989 ], [ -72.320387, -9.542001 ], [ -72.330001, -9.533567 ], [ -72.344826, -9.545284 ], [ -72.354274, -9.540411 ], [ -72.361891, -9.530996 ], [ -72.365585, -9.520941 ], [ -72.373108, -9.520041 ], [ -72.368402, -9.513692 ], [ -72.371159, -9.514478 ], [ -72.371231, -9.508875 ], [ -72.299331, -9.504187 ], [ -72.27592, -9.487301 ], [ -72.256954, -9.4627 ], [ -72.251542, -9.450218 ], [ -72.208498, -9.405631 ], [ -72.155938, -9.383324 ], [ -72.082046, -9.263615 ], [ -72.070045, -9.243366 ], [ -72.053564, -9.217519 ], [ -72.044627, -9.203498 ], [ -72.06332, -9.179423 ], [ -72.043012, -9.048276 ], [ -72.028466, -8.973082 ], [ -72.036235, -8.944819 ], [ -72.053796, -8.933981 ], [ -72.044007, -8.900407 ], [ -72.079142, -8.867125 ], [ -72.080873, -8.853706 ], [ -72.072539, -8.840715 ], [ -72.053457, -8.838791 ], [ -72.050097, -8.83244 ], [ -72.044408, -8.830422 ], [ -72.033923, -8.823075 ], [ -72.018752, -8.804966 ], [ -72.009443, -8.800085 ], [ -72.004472, -8.801264 ], [ -71.992665, -8.793865 ], [ -71.989693, -8.79619 ], [ -71.98316, -8.785104 ], [ -71.967958, -8.778298 ], [ -71.95691, -8.784936 ], [ -71.927456, -8.790314 ], [ -71.924945, -8.794124 ], [ -71.917701, -8.788284 ], [ -71.914209, -8.798887 ], [ -71.908567, -8.799306 ], [ -71.907777, -8.806612 ], [ -71.897127, -8.804355 ], [ -71.892949, -8.811594 ], [ -71.887044, -8.808269 ], [ -71.879435, -8.8102 ], [ -71.872008, -8.817043 ], [ -71.8607, -8.821154 ], [ -71.852109, -8.815134 ], [ -71.848219, -8.825508 ], [ -71.84056, -8.822013 ], [ -71.83111, -8.827836 ], [ -71.82764, -8.823324 ], [ -71.816868, -8.825063 ], [ -71.81094, -8.8304 ], [ -71.812807, -8.82175 ], [ -71.794444, -8.816601 ], [ -71.796404, -8.805885 ], [ -71.787366, -8.804903 ], [ -71.785466, -8.813119 ], [ -71.78241, -8.814182 ], [ -71.764737, -8.798986 ], [ -71.763684, -8.78397 ], [ -71.749606, -8.77621 ], [ -71.752295, -8.769722 ], [ -71.750461, -8.764408 ], [ -71.740713, -8.763169 ], [ -71.739568, -8.754706 ], [ -71.729131, -8.755764 ], [ -71.726685, -8.749229 ], [ -71.719004, -8.747599 ], [ -71.718013, -8.740679 ], [ -71.712423, -8.741749 ], [ -71.717554, -8.735674 ], [ -71.717622, -8.725656 ], [ -71.712953, -8.72204 ], [ -71.708529, -8.730216 ], [ -71.700089, -8.727654 ], [ -71.692667, -8.729205 ], [ -71.692266, -8.719191 ], [ -71.674283, -8.717447 ], [ -71.681786, -8.707611 ], [ -71.681502, -8.700591 ], [ -71.669871, -8.699035 ], [ -71.659196, -8.706318 ], [ -71.650983, -8.69575 ], [ -71.647118, -8.694654 ], [ -71.641875, -8.698201 ], [ -71.635878, -8.688272 ], [ -71.627694, -8.687848 ], [ -71.622959, -8.690889 ], [ -71.618857, -8.689561 ], [ -71.626347, -8.677479 ], [ -71.614075, -8.664737 ], [ -71.60916, -8.668281 ], [ -71.610255, -8.67698 ], [ -71.607311, -8.67748 ], [ -71.601107, -8.673673 ], [ -71.603577, -8.663639 ], [ -71.601249, -8.66019 ], [ -71.583894, -8.653661 ], [ -71.574272, -8.656956 ], [ -71.566449, -8.647787 ], [ -71.555298, -8.647394 ], [ -71.558793, -8.656405 ], [ -71.557139, -8.668941 ], [ -71.559325, -8.679572 ], [ -71.554283, -8.692152 ] ] ] ] } },
{ "type": "Feature", "properties": { "HREG_ID": "12003", "HREG_NAME": "Juruá e Tarauacá Envira", "id": "120020", "name": "Cruzeiro do Sul", "description": "Cruzeiro do Sul", "MUN_ID": "120020", "UF": "AC", "MACRO_ID": "1201", "MACRO_NAME": "Macro Única - AC" }, "geometry": { "type": "Polygon", "coordinates": [ [ [ -72.044007, -8.900407 ], [ -72.053796, -8.933981 ], [ -72.036235, -8.944819 ], [ -72.028466, -8.973082 ], [ -72.043012, -9.048276 ], [ -72.06332, -9.179423 ], [ -72.044627, -9.203498 ], [ -72.053564, -9.217519 ], [ -72.070045, -9.243366 ], [ -72.082046, -9.263615 ], [ -72.155938, -9.383324 ], [ -72.208498, -9.405631 ], [ -72.251542, -9.450218 ], [ -72.256954, -9.4627 ], [ -72.27592, -9.487301 ], [ -72.299331, -9.504187 ], [ -72.371231, -9.508875 ], [ -72.369897, -9.50458 ], [ -72.378764, -9.502897 ], [ -72.383336, -9.496193 ], [ -72.387012, -9.494079 ], [ -72.392182, -9.496621 ], [ -72.395333, -9.489473 ], [ -72.398835, -9.488816 ], [ -72.40235, -9.494135 ], [ -72.406854, -9.494396 ], [ -72.410584, -9.490291 ], [ -72.415512, -9.491093 ], [ -72.419302, -9.486071 ], [ -72.425618, -9.486576 ], [ -72.436984, -9.476235 ], [ -72.441453, -9.481433 ], [ -72.447274, -9.482235 ], [ -72.449864, -9.479186 ], [ -72.455037, -9.48322 ], [ -72.457247, -9.480067 ], [ -72.463233, -9.479049 ], [ -72.463604, -9.482865 ], [ -72.468562, -9.480424 ], [ -72.469547, -9.47538 ], [ -72.472399, -9.481047 ], [ -72.476855, -9.478948 ], [ -72.480984, -9.480862 ], [ -72.482489, -9.486518 ], [ -72.486074, -9.487585 ], [ -72.503445, -9.482458 ], [ -72.50835, -9.485567 ], [ -72.514959, -9.480209 ], [ -72.516535, -9.483016 ], [ -72.516465, -9.479662 ], [ -72.523825, -9.483199 ], [ -72.530358, -9.482196 ], [ -72.53198, -9.485785 ], [ -72.542345, -9.484688 ], [ -72.546085, -9.491497 ], [ -72.549961, -9.489335 ], [ -72.549446, -9.485057 ], [ -72.556614, -9.482863 ], [ -72.553874, -9.479948 ], [ -72.557221, -9.480636 ], [ -72.559986, -9.474511 ], [ -72.563994, -9.476027 ], [ -72.565813, -9.469815 ], [ -72.567563, -9.473271 ], [ -72.571893, -9.466202 ], [ -72.5749, -9.468688 ], [ -72.580288, -9.466708 ], [ -72.581526, -9.47017 ], [ -72.58426, -9.466736 ], [ -72.588139, -9.473756 ], [ -72.588019, -9.4647 ], [ -72.594332, -9.466133 ], [ -72.594461, -9.46053 ], [ -72.603469, -9.465783 ], [ -72.604219, -9.456845 ], [ -72.610533, -9.461222 ], [ -72.619579, -9.455717 ], [ -72.623791, -9.457981 ], [ -72.637414, -9.453977 ], [ -72.638775, -9.450136 ], [ -72.6479, -9.4543 ], [ -72.65075, -9.446555 ], [ -72.655131, -9.447404 ], [ -72.65687, -9.443882 ], [ -72.663337, -9.446512 ], [ -72.671814, -9.443286 ], [ -72.670085, -9.445358 ], [ -72.674084, -9.448319 ], [ -72.680777, -9.446929 ], [ -72.683628, -9.452255 ], [ -72.685105, -9.447223 ], [ -72.689797, -9.449058 ], [ -72.697321, -9.443003 ], [ -72.695852, -9.438959 ], [ -72.706346, -9.440285 ], [ -72.711228, -9.434026 ], [ -72.715069, -9.43468 ], [ -72.7145, -9.438764 ], [ -72.718549, -9.435601 ], [ -72.724489, -9.440402 ], [ -72.723357, -9.433968 ], [ -72.728503, -9.43589 ], [ -72.727045, -9.430398 ], [ -72.732221, -9.434476 ], [ -72.740577, -9.429889 ], [ -72.746781, -9.420427 ], [ -72.744763, -9.413042 ], [ -72.750442, -9.410268 ], [ -72.818609, -9.410706 ], [ -72.942877, -9.410937 ], [ -73.20772, -9.41171 ], [ -73.212333, -9.41135 ], [ -73.212564, -9.407613 ], [ -73.194963, -9.395401 ], [ -73.193281, -9.370962 ], [ -73.188088, -9.360594 ], [ -73.179165, -9.355951 ], [ -73.158976, -9.352477 ], [ -73.150731, -9.336715 ], [ -73.139651, -9.329455 ], [ -73.129547, -9.313561 ], [ -73.102117, -9.306227 ], [ -73.102181, -9.30054 ], [ -73.112903, -9.287393 ], [ -73.113422, -9.279919 ], [ -73.098318, -9.268574 ], [ -73.078139, -9.236869 ], [ -73.058488, -9.226447 ], [ -73.047566, -9.236799 ], [ -73.041989, -9.237055 ], [ -73.023519, -9.228023 ], [ -73.021476, -9.220501 ], [ -73.007519, -9.215159 ], [ -73.004282, -9.203486 ], [ -72.996232, -9.198521 ], [ -72.995125, -9.194201 ], [ -73.016098, -9.184225 ], [ -73.017975, -9.177318 ], [ -73.00425, -9.165101 ], [ -72.973712, -9.15253 ], [ -72.952917, -9.128688 ], [ -72.948486, -9.110392 ], [ -72.943846, -9.096728 ], [ -72.947981, -9.082929 ], [ -72.940965, -9.064393 ], [ -72.946142, -9.049375 ], [ -72.946218, -9.036132 ], [ -72.956646, -9.01595 ], [ -72.955177, -9.009204 ], [ -72.946171, -9.004288 ], [ -72.941753, -8.986921 ], [ -72.967019, -8.978828 ], [ -72.975593, -8.951919 ], [ -72.991563, -8.919419 ], [ -73.010224, -8.913135 ], [ -73.021573, -8.913197 ], [ -73.022134, -8.892931 ], [ -73.027116, -8.909328 ], [ -73.03352, -8.916036 ], [ -73.045405, -8.902759 ], [ -73.054945, -8.877187 ], [ -73.056631, -8.863583 ], [ -73.063125, -8.854277 ], [ -73.063741, -8.840132 ], [ -73.07287, -8.839383 ], [ -73.08979, -8.817948 ], [ -73.091697, -8.788903 ], [ -73.107527, -8.770113 ], [ -73.110684, -8.758334 ], [ -73.115238, -8.728932 ], [ -73.124819, -8.711101 ], [ -73.135598, -8.702466 ], [ -73.149923, -8.6839 ], [ -73.16188, -8.688436 ], [ -73.181396, -8.679092 ], [ -73.198326, -8.687133 ], [ -73.209066, -8.685696 ], [ -73.217093, -8.678032 ], [ -73.222584, -8.678059 ], [ -73.231085, -8.666005 ], [ -73.240438, -8.666304 ], [ -73.251626, -8.653779 ], [ -73.251476, -8.633143 ], [ -73.256052, -8.627884 ], [ -73.264115, -8.633459 ], [ -73.26292, -8.619614 ], [ -73.272045, -8.614625 ], [ -73.287444, -8.619481 ], [ -73.291602, -8.5961 ], [ -73.284611, -8.578202 ], [ -73.282421, -8.560578 ], [ -73.293291, -8.508845 ], [ -73.305502, -8.471966 ], [ -73.329193, -8.476908 ], [ -73.330673, -8.474229 ], [ -73.33586, -8.467537 ], [ -73.347663, -8.470957 ], [ -73.365555, -8.463764 ], [ -73.375137, -8.467203 ], [ -73.377274, -8.462755 ], [ -73.382308, -8.468618 ], [ -73.389556, -8.468783 ], [ -73.402198, -8.447772 ], [ -73.407217, -8.419555 ], [ -73.412865, -8.41099 ], [ -73.422058, -8.407387 ], [ -73.429253, -8.410106 ], [ -73.443001, -8.407659 ], [ -73.458526, -8.398547 ], [ -73.482498, -8.392143 ], [ -73.486556, -8.386199 ], [ -73.486389, -8.378478 ], [ -73.504723, -8.379108 ], [ -73.516715, -8.370028 ], [ -73.537444, -8.345869 ], [ -73.530166, -8.312535 ], [ -73.540611, -8.2954 ], [ -73.536896, -8.27027 ], [ -73.550949, -8.250828 ], [ -73.558585, -8.245648 ], [ -73.560744, -8.235687 ], [ -73.572135, -8.230186 ], [ -73.578058, -8.214504 ], [ -73.579864, -8.209322 ], [ -73.594253, -8.205784 ], [ -73.586967, -8.186764 ], [ -73.585831, -8.17314 ], [ -73.591751, -8.142694 ], [ -73.583419, -8.127661 ], [ -73.594446, -8.097791 ], [ -73.607552, -8.086878 ], [ -73.616426, -8.069673 ], [ -73.631576, -8.061543 ], [ -73.629581, -8.05086 ], [ -73.623939, -8.039743 ], [ -73.624252, -8.028835 ], [ -73.640365, -8.008119 ], [ -73.649971, -8.002916 ], [ -73.663886, -8.008579 ], [ -73.678498, -8.004805 ], [ -73.689163, -7.971753 ], [ -73.698104, -7.960584 ], [ -73.717889, -7.96013 ], [ -73.729256, -7.96944 ], [ -73.73175, -7.968395 ], [ -73.73481, -7.961738 ], [ -73.746993, -7.952944 ], [ -73.74697, -7.935623 ], [ -73.751411, -7.923761 ], [ -73.772499, -7.902373 ], [ -73.770584, -7.89723 ], [ -73.753142, -7.892322 ], [ -73.766617, -7.870594 ], [ -73.761643, -7.858028 ], [ -73.756858, -7.858531 ], [ -73.742523, -7.873089 ], [ -73.7135, -7.87585 ], [ -73.700051, -7.869181 ], [ -73.689605, -7.85392 ], [ -73.684166, -7.844643 ], [ -73.687385, -7.821003 ], [ -73.682387, -7.790045 ], [ -73.684302, -7.77644 ], [ -73.691579, -7.767781 ], [ -73.713722, -7.755857 ], [ -73.740532, -7.734094 ], [ -73.786644, -7.72283 ], [ -73.809585, -7.723045 ], [ -73.822166, -7.717883 ], [ -73.844612, -7.676118 ], [ -73.857665, -7.678116 ], [ -73.868942, -7.671918 ], [ -73.885605, -7.65568 ], [ -73.888801, -7.63165 ], [ -73.909027, -7.624776 ], [ -73.921059, -7.616988 ], [ -73.942863, -7.598954 ], [ -73.949958, -7.588011 ], [ -73.968834, -7.567732 ], [ -73.983833, -7.566579 ], [ -73.990944, -7.536347 ], [ -73.985611, -7.530822 ], [ -73.969307, -7.532016 ], [ -73.948005, -7.526614 ], [ -73.933304, -7.494545 ], [ -73.929695, -7.477966 ], [ -73.919807, -7.465678 ], [ -73.927918, -7.452041 ], [ -73.931854, -7.423189 ], [ -73.944747, -7.406161 ], [ -73.967637, -7.360191 ], [ -73.966666, -7.351994 ], [ -73.959114, -7.345526 ], [ -73.951278, -7.347467 ], [ -73.944114, -7.36134 ], [ -73.933914, -7.351545 ], [ -73.910003, -7.378075 ], [ -73.87014, -7.378823 ], [ -73.860388, -7.369206 ], [ -73.852754, -7.347286 ], [ -73.830085, -7.336916 ], [ -73.81761, -7.335381 ], [ -73.793449, -7.342308 ], [ -73.766441, -7.331817 ], [ -73.759636, -7.335245 ], [ -73.764387, -7.347856 ], [ -73.755882, -7.346886 ], [ -73.71778, -7.328281 ], [ -73.700301, -7.304295 ], [ -73.699913, -7.293159 ], [ -73.716193, -7.267602 ], [ -73.714303, -7.234244 ], [ -73.724396, -7.221321 ], [ -73.745193, -7.210378 ], [ -73.753799, -7.201416 ], [ -73.759118, -7.171274 ], [ -73.775749, -7.156628 ], [ -73.778169, -7.145874 ], [ -73.793586, -7.133085 ], [ -73.792587, -7.124269 ], [ -73.800982, -7.111457 ], [ -73.737624, -7.134317 ], [ -73.726428, -7.138357 ], [ -73.181938, -7.335105 ], [ -73.119561, -7.357676 ], [ -72.900611, -7.436948 ], [ -72.600081, -7.545873 ], [ -72.592429, -7.548648 ], [ -72.588009, -7.550251 ], [ -72.584193, -7.551635 ], [ -72.364303, -7.57739 ], [ -72.168961, -7.60023 ], [ -72.07709, -7.610959 ], [ -71.957436, -7.624918 ], [ -71.79183, -7.644213 ], [ -71.722, -7.652341 ], [ -71.645125, -7.661283 ], [ -71.394642, -7.690371 ], [ -71.381108, -7.691941 ], [ -71.087929, -7.725894 ], [ -70.791964, -7.76007 ], [ -70.773814, -7.762162 ], [ -70.77197, -7.762375 ], [ -70.724061, -7.767896 ], [ -70.706831, -7.769881 ], [ -70.678377, -7.773158 ], [ -70.65853, -7.775444 ], [ -70.518226, -7.791586 ], [ -70.515259, -7.791927 ], [ -70.3327, -7.812894 ], [ -70.235398, -7.824052 ], [ -70.051807, -7.846999 ], [ -70.050892, -7.847779 ], [ -69.988882, -7.900629 ], [ -69.801216, -8.060693 ], [ -69.801148, -8.060751 ], [ -69.586388, -8.244141 ], [ -69.443807, -8.366016 ], [ -69.448973, -8.388016 ], [ -69.45647, -8.398163 ], [ -69.477358, -8.410527 ], [ -69.480172, -8.422434 ], [ -69.494872, -8.431125 ], [ -69.498453, -8.443748 ], [ -69.509478, -8.457836 ], [ -69.514806, -8.494063 ], [ -69.528174, -8.52382 ], [ -69.533715, -8.528081 ], [ -69.541817, -8.546245 ], [ -69.551465, -8.558398 ], [ -69.551946, -8.580312 ], [ -69.55903, -8.592578 ], [ -69.558266, -8.59822 ], [ -69.568179, -8.611729 ], [ -69.574617, -8.636305 ], [ -69.58276, -8.643563 ], [ -69.60847, -8.644702 ], [ -69.619919, -8.650161 ], [ -69.632616, -8.664587 ], [ -69.632725, -8.664711 ], [ -69.639852, -8.672666 ], [ -69.661291, -8.680621 ], [ -69.680221, -8.70692 ], [ -69.731164, -8.76667 ], [ -69.75782, -8.781907 ], [ -69.795076, -8.840217 ], [ -69.833948, -8.934088 ], [ -69.84694, -8.948025 ], [ -69.865104, -8.957498 ], [ -70.090095, -8.973611 ], [ -70.193501, -8.967451 ], [ -70.318978, -8.96363 ], [ -70.365095, -8.982427 ], [ -70.394679, -9.024134 ], [ -70.439415, -9.088168 ], [ -70.54036, -9.159652 ], [ -70.560243, -9.191563 ], [ -70.607089, -9.266665 ], [ -70.676532, -9.373045 ], [ -70.702095, -9.38081 ], [ -70.734921, -9.415608 ], [ -70.790797, -9.448857 ], [ -70.849082, -9.455665 ], [ -70.862524, -9.457233 ], [ -70.903817, -9.494011 ], [ -70.9507, -9.535728 ], [ -70.977869, -9.598312 ], [ -71.045228, -9.642269 ], [ -71.075397, -9.694677 ], [ -71.099906, -9.749064 ], [ -71.077387, -9.828041 ], [ -71.103655, -9.85173 ], [ -71.144746, -9.862918 ], [ -71.163498, -9.875715 ], [ -71.166663, -9.884405 ], [ -71.172195, -9.888472 ], [ -71.181861, -9.917892 ], [ -71.190025, -9.923908 ], [ -71.194389, -9.938595 ], [ -71.206192, -9.947569 ], [ -71.211334, -9.966783 ], [ -71.227943, -9.969734 ], [ -71.247138, -9.962438 ], [ -71.253585, -9.963881 ], [ -71.259612, -9.978486 ], [ -71.271584, -9.978663 ], [ -71.308449, -9.99239 ], [ -71.318223, -9.991631 ], [ -71.339363, -9.972391 ], [ -71.348945, -9.973505 ], [ -71.353393, -9.976959 ], [ -71.355141, -9.988393 ], [ -71.357916, -9.989882 ], [ -71.364502, -9.985425 ], [ -71.375579, -10.000828 ], [ -71.65721, -10.000569 ], [ -72.198943, -10.00015 ], [ -72.198099, -9.988067 ], [ -72.179877, -9.979716 ], [ -72.170323, -9.966331 ], [ -72.175979, -9.952993 ], [ -72.175046, -9.943287 ], [ -72.189936, -9.937192 ], [ -72.191815, -9.928778 ], [ -72.18544, -9.916204 ], [ -72.172442, -9.907507 ], [ -72.165061, -9.892357 ], [ -72.154422, -9.884356 ], [ -72.15466, -9.880087 ], [ -72.171298, -9.861534 ], [ -72.170711, -9.839313 ], [ -72.172962, -9.835394 ], [ -72.179616, -9.83381 ], [ -72.180707, -9.829248 ], [ -72.177885, -9.821881 ], [ -72.162032, -9.806253 ], [ -72.148869, -9.799367 ], [ -72.153156, -9.796933 ], [ -72.110589, -9.762937 ], [ -72.0898, -9.757504 ], [ -72.034918, -9.743146 ], [ -72.038607, -9.766697 ], [ -72.036475, -9.765793 ], [ -72.00843, -9.753906 ], [ -71.991622, -9.716658 ], [ -71.952661, -9.713911 ], [ -71.929243, -9.722258 ], [ -71.920052, -9.685559 ], [ -71.88431, -9.667289 ], [ -71.884814, -9.652981 ], [ -71.869708, -9.636734 ], [ -71.835718, -9.622292 ], [ -71.838636, -9.600658 ], [ -71.834851, -9.593602 ], [ -71.826645, -9.591886 ], [ -71.820757, -9.578985 ], [ -71.807713, -9.566405 ], [ -71.80876, -9.558421 ], [ -71.810951, -9.553851 ], [ -71.805738, -9.538891 ], [ -71.809382, -9.530611 ], [ -71.800429, -9.528314 ], [ -71.794307, -9.522178 ], [ -71.802111, -9.504959 ], [ -71.792805, -9.496689 ], [ -71.792176, -9.486394 ], [ -71.788005, -9.482968 ], [ -71.778909, -9.483385 ], [ -71.775572, -9.47955 ], [ -71.75901, -9.470853 ], [ -71.750553, -9.459885 ], [ -71.750808, -9.452641 ], [ -71.746942, -9.446948 ], [ -71.736579, -9.449545 ], [ -71.737642, -9.443399 ], [ -71.731095, -9.441209 ], [ -71.72971, -9.428599 ], [ -71.72372, -9.426403 ], [ -71.726387, -9.412244 ], [ -71.722406, -9.400515 ], [ -71.723619, -9.38547 ], [ -71.732886, -9.368265 ], [ -71.729443, -9.366797 ], [ -71.726413, -9.358091 ], [ -71.730857, -9.355209 ], [ -71.724287, -9.344475 ], [ -71.717796, -9.343918 ], [ -71.715321, -9.329491 ], [ -71.718949, -9.32651 ], [ -71.715255, -9.320953 ], [ -71.718104, -9.320024 ], [ -71.713895, -9.3164 ], [ -71.715341, -9.313026 ], [ -71.711538, -9.308493 ], [ -71.703754, -9.307002 ], [ -71.704931, -9.303133 ], [ -71.698807, -9.29929 ], [ -71.694392, -9.280108 ], [ -71.702676, -9.273904 ], [ -71.697847, -9.270109 ], [ -71.69962, -9.266966 ], [ -71.692237, -9.267929 ], [ -71.683989, -9.259451 ], [ -71.677993, -9.260783 ], [ -71.680964, -9.256607 ], [ -71.673202, -9.257894 ], [ -71.669618, -9.251018 ], [ -71.657423, -9.246079 ], [ -71.658371, -9.23914 ], [ -71.655556, -9.236558 ], [ -71.649102, -9.239647 ], [ -71.645175, -9.218238 ], [ -71.641255, -9.217653 ], [ -71.638993, -9.210416 ], [ -71.644259, -9.205961 ], [ -71.638603, -9.205476 ], [ -71.637466, -9.198991 ], [ -71.633325, -9.20209 ], [ -71.629712, -9.205248 ], [ -71.630472, -9.196527 ], [ -71.614956, -9.187924 ], [ -71.624623, -9.181624 ], [ -71.618057, -9.165293 ], [ -71.6206, -9.158869 ], [ -71.618533, -9.153999 ], [ -71.62297, -9.153003 ], [ -71.626703, -9.144406 ], [ -71.611199, -9.128959 ], [ -71.605071, -9.128154 ], [ -71.615267, -9.117785 ], [ -71.605849, -9.113641 ], [ -71.60333, -9.099035 ], [ -71.610098, -9.094921 ], [ -71.608573, -9.091627 ], [ -71.605033, -9.094343 ], [ -71.603894, -9.091543 ], [ -71.612016, -9.087624 ], [ -71.605069, -9.087207 ], [ -71.610405, -9.080441 ], [ -71.603109, -9.072567 ], [ -71.596962, -9.072903 ], [ -71.591184, -9.063263 ], [ -71.596651, -9.062346 ], [ -71.594483, -9.059554 ], [ -71.597997, -9.057218 ], [ -71.596792, -9.053308 ], [ -71.601899, -9.043473 ], [ -71.595624, -9.030005 ], [ -71.598287, -9.023844 ], [ -71.592303, -9.022307 ], [ -71.594271, -9.013606 ], [ -71.585869, -9.007056 ], [ -71.586102, -8.998513 ], [ -71.581449, -8.99366 ], [ -71.585164, -8.986586 ], [ -71.578322, -8.984148 ], [ -71.574926, -8.978146 ], [ -71.569437, -8.97988 ], [ -71.5675, -8.96799 ], [ -71.573867, -8.96154 ], [ -71.563822, -8.946985 ], [ -71.556874, -8.946068 ], [ -71.554879, -8.942718 ], [ -71.548979, -8.944485 ], [ -71.547642, -8.93411 ], [ -71.544169, -8.937907 ], [ -71.543303, -8.931888 ], [ -71.540345, -8.938021 ], [ -71.537577, -8.937426 ], [ -71.53372, -8.92856 ], [ -71.536341, -8.924769 ], [ -71.527769, -8.914473 ], [ -71.527469, -8.909239 ], [ -71.518933, -8.908508 ], [ -71.514659, -8.902803 ], [ -71.508532, -8.905974 ], [ -71.505581, -8.900086 ], [ -71.500754, -8.904008 ], [ -71.500236, -8.896934 ], [ -71.49528, -8.89056 ], [ -71.485244, -8.893992 ], [ -71.481942, -8.883006 ], [ -71.488988, -8.881066 ], [ -71.500892, -8.869763 ], [ -71.525514, -8.872896 ], [ -71.538098, -8.859727 ], [ -71.552796, -8.85077 ], [ -71.615789, -8.858056 ], [ -71.619951, -8.838967 ], [ -71.61849, -8.825263 ], [ -71.61415, -8.818551 ], [ -71.59726, -8.804345 ], [ -71.590884, -8.787538 ], [ -71.580705, -8.778526 ], [ -71.580943, -8.772112 ], [ -71.57383, -8.757321 ], [ -71.56656, -8.753954 ], [ -71.555279, -8.741766 ], [ -71.541841, -8.737596 ], [ -71.545269, -8.708784 ], [ -71.553981, -8.703108 ], [ -71.554283, -8.692152 ], [ -71.559325, -8.679572 ], [ -71.557139, -8.668941 ], [ -71.558793, -8.656405 ], [ -71.555298, -8.647394 ], [ -71.566449, -8.647787 ], [ -71.574272, -8.656956 ], [ -71.583894, -8.653661 ], [ -71.601249, -8.66019 ], [ -71.603577, -8.663639 ], [ -71.601107, -8.673673 ], [ -71.607311, -8.67748 ], [ -71.610255, -8.67698 ], [ -71.60916, -8.668281 ], [ -71.614075, -8.664737 ], [ -71.626347, -8.677479 ], [ -71.618857, -8.689561 ], [ -71.622959, -8.690889 ], [ -71.627694, -8.687848 ], [ -71.635878, -8.688272 ], [ -71.641875, -8.698201 ], [ -71.647118, -8.694654 ], [ -71.650983, -8.69575 ], [ -71.659196, -8.706318 ], [ -71.669871, -8.699035 ], [ -71.681502, -8.700591 ], [ -71.681786, -8.707611 ], [ -71.674283, -8.717447 ], [ -71.692266, -8.719191 ], [ -71.692667, -8.729205 ], [ -71.700089, -8.727654 ], [ -71.708529, -8.730216 ], [ -71.712953, -8.72204 ], [ -71.717622, -8.725656 ], [ -71.717554, -8.735674 ], [ -71.712423, -8.741749 ], [ -71.718013, -8.740679 ], [ -71.719004, -8.747599 ], [ -71.726685, -8.749229 ], [ -71.729131, -8.755764 ], [ -71.739568, -8.754706 ], [ -71.740713, -8.763169 ], [ -71.750461, -8.764408 ], [ -71.752295, -8.769722 ], [ -71.749606, -8.77621 ], [ -71.763684, -8.78397 ], [ -71.764737, -8.798986 ], [ -71.78241, -8.814182 ], [ -71.785466, -8.813119 ], [ -71.787366, -8.804903 ], [ -71.796404, -8.805885 ], [ -71.794444, -8.816601 ], [ -71.812807, -8.82175 ], [ -71.81094, -8.8304 ], [ -71.816868, -8.825063 ], [ -71.82764, -8.823324 ], [ -71.83111, -8.827836 ], [ -71.84056, -8.822013 ], [ -71.848219, -8.825508 ], [ -71.852109, -8.815134 ], [ -71.8607, -8.821154 ], [ -71.872008, -8.817043 ], [ -71.879435, -8.8102 ], [ -71.887044, -8.808269 ], [ -71.892949, -8.811594 ], [ -71.897127, -8.804355 ], [ -71.907777, -8.806612 ], [ -71.908567, -8.799306 ], [ -71.914209, -8.798887 ], [ -71.917701, -8.788284 ], [ -71.924945, -8.794124 ], [ -71.927456, -8.790314 ], [ -71.95691, -8.784936 ], [ -71.967958, -8.778298 ], [ -71.98316, -8.785104 ], [ -71.989693, -8.79619 ], [ -71.992665, -8.793865 ], [ -72.004472, -8.801264 ], [ -72.009443, -8.800085 ], [ -72.018752, -8.804966 ], [ -72.033923, -8.823075 ], [ -72.044408, -8.830422 ], [ -72.050097, -8.83244 ], [ -72.053457, -8.838791 ], [ -72.072539, -8.840715 ], [ -72.080873, -8.853706 ], [ -72.079142, -8.867125 ], [ -72.044007, -8.900407 ] ] ] } }
]
}
