{
"type": "FeatureCollection",
"name": "geojs-27-health_regions",
"crs": { "type": "name", "properties": { "name": "urn:ogc:def:crs:OGC:1.3:CRS84" } },
"features": [
{ "type": "Feature", "properties": { "HREG_ID": "27001", "HREG_NAME": "1ª Região de Saúde", "id": "270050", "name": "Barra de Santo Antônio", "description": "Barra de Santo Antônio", "MUN_ID": "270050", "UF": "AL", "MACRO_ID": "2704", "MACRO_NAME": "1ª Macrorregião de Saúde" }, "geometry": { "type": "Polygon", "coordinates": [ [ [ -35.889326, -9.839542 ], [ -35.902459, -9.869649 ], [ -35.902639, -9.859864 ], [ -35.91019, -9.846044 ], [ -35.914426, -9.841537 ], [ -35.92238, -9.837466 ], [ -35.937933, -9.844352 ], [ -35.949798, -9.84478 ], [ -35.960394, -9.836255 ], [ -35.96086, -9.835426 ], [ -35.967068, -9.830372 ], [ -35.974336, -9.826374 ], [ -35.983586, -9.825501 ], [ -35.990692, -9.817981 ], [ -35.997437, -9.819118 ], [ -36.005327, -9.810706 ], [ -36.015021, -9.807442 ], [ -36.026292, -9.810791 ], [ -36.026321, -9.809867 ], [ -36.00423, -9.766671 ], [ -35.988175, -9.738298 ], [ -35.987134, -9.702972 ], [ -35.992329, -9.693155 ], [ -36.018024, -9.687056 ], [ -36.029497, -9.670872 ], [ -36.033943, -9.668329 ], [ -36.074748, -9.673309 ], [ -36.083043, -9.663986 ], [ -36.085736, -9.661348 ], [ -36.089715, -9.655211 ], [ -36.098734, -9.651477 ], [ -36.10116, -9.644962 ], [ -36.103302, -9.641053 ], [ -36.104885, -9.6389 ], [ -36.11102, -9.645614 ], [ -36.115911, -9.649364 ], [ -36.127865, -9.64847 ], [ -36.13183, -9.650698 ], [ -36.134053, -9.645061 ], [ -36.14055, -9.645019 ], [ -36.141162, -9.638438 ], [ -36.155441, -9.624494 ], [ -36.176608, -9.620897 ], [ -36.181411, -9.612386 ], [ -36.173603, -9.611845 ], [ -36.158382, -9.618353 ], [ -36.149713, -9.611644 ], [ -36.138247, -9.612633 ], [ -36.130268, -9.604196 ], [ -36.126213, -9.598125 ], [ -36.11955, -9.595231 ], [ -36.09241, -9.600829 ], [ -36.081021, -9.598233 ], [ -36.017356, -9.575451 ], [ -36.005554, -9.585819 ], [ -36.000431, -9.575159 ], [ -35.976759, -9.555692 ], [ -35.97927, -9.550014 ], [ -35.959409, -9.527586 ], [ -35.940101, -9.497578 ], [ -35.932561, -9.479761 ], [ -35.934188, -9.446936 ], [ -35.936637, -9.400991 ], [ -35.928443, -9.374181 ], [ -35.875596, -9.413228 ], [ -35.862572, -9.388119 ], [ -35.86197, -9.386909 ], [ -35.849544, -9.361964 ], [ -35.829759, -9.322259 ], [ -35.830823, -9.312725 ], [ -35.838183, -9.308902 ], [ -35.836318, -9.270281 ], [ -35.83602, -9.26412 ], [ -35.834206, -9.235235 ], [ -35.842572, -9.220526 ], [ -35.860487, -9.188158 ], [ -35.888242, -9.137887 ], [ -35.870534, -9.135604 ], [ -35.844533, -9.151005 ], [ -35.840636, -9.150231 ], [ -35.829735, -9.149292 ], [ -35.816724, -9.158611 ], [ -35.79252, -9.157519 ], [ -35.768548, -9.145851 ], [ -35.754773, -9.139147 ], [ -35.745895, -9.136592 ], [ -35.724796, -9.124535 ], [ -35.72461, -9.124925 ], [ -35.712916, -9.180553 ], [ -35.71196, -9.185095 ], [ -35.702654, -9.229279 ], [ -35.693163, -9.259965 ], [ -35.69181, -9.285161 ], [ -35.691581, -9.29806 ], [ -35.686149, -9.370293 ], [ -35.588743, -9.359731 ], [ -35.567272, -9.355029 ], [ -35.562601, -9.356523 ], [ -35.535992, -9.346429 ], [ -35.523028, -9.354377 ], [ -35.517543, -9.354054 ], [ -35.513857, -9.34641 ], [ -35.519711, -9.323026 ], [ -35.513277, -9.31385 ], [ -35.51334, -9.307306 ], [ -35.474771, -9.338147 ], [ -35.463436, -9.347308 ], [ -35.487093, -9.374237 ], [ -35.495411, -9.390922 ], [ -35.495702, -9.400589 ], [ -35.497326, -9.419288 ], [ -35.502462, -9.418027 ], [ -35.513098, -9.439876 ], [ -35.524939, -9.44255 ], [ -35.530382, -9.456943 ], [ -35.535607, -9.457682 ], [ -35.553438, -9.4741 ], [ -35.558199, -9.487027 ], [ -35.58652, -9.510255 ], [ -35.590913, -9.528592 ], [ -35.595214, -9.529977 ], [ -35.604912, -9.531072 ], [ -35.613777, -9.539655 ], [ -35.616186, -9.547869 ], [ -35.630109, -9.551579 ], [ -35.646407, -9.567407 ], [ -35.649635, -9.567105 ], [ -35.659383, -9.583262 ], [ -35.68641, -9.613511 ], [ -35.697232, -9.639467 ], [ -35.699024, -9.649144 ], [ -35.694496, -9.66436 ], [ -35.708575, -9.665022 ], [ -35.723732, -9.68422 ], [ -35.728992, -9.682274 ], [ -35.72299, -9.681717 ], [ -35.722465, -9.675749 ], [ -35.72948, -9.670925 ], [ -35.741051, -9.671541 ], [ -35.755236, -9.677718 ], [ -35.788016, -9.71081 ], [ -35.794175, -9.712714 ], [ -35.812497, -9.731786 ], [ -35.819552, -9.744192 ], [ -35.81413, -9.737358 ], [ -35.816006, -9.741336 ], [ -35.854716, -9.78776 ], [ -35.873395, -9.816513 ], [ -35.879021, -9.825883 ], [ -35.889326, -9.839542 ] ] ] } },
{ "type": "Feature", "properties": { "HREG_ID": "27002", "HREG_NAME": "2ª Região de Saúde", "id": "270350", "name": "Jacuípe", "description": "Jacuípe", "MUN_ID": "270350", "UF": "AL", "MACRO_ID": "2704", "MACRO_NAME": "1ª Macrorregião de Saúde" }, "geometry": { "type": "Polygon", "coordinates": [ [ [ -35.51334, -9.307306 ], [ -35.513277, -9.31385 ], [ -35.519711, -9.323026 ], [ -35.513857, -9.34641 ], [ -35.517543, -9.354054 ], [ -35.523028, -9.354377 ], [ -35.535992, -9.346429 ], [ -35.562601, -9.356523 ], [ -35.567272, -9.355029 ], [ -35.588743, -9.359731 ], [ -35.686149, -9.370293 ], [ -35.691581, -9.29806 ], [ -35.69181, -9.285161 ], [ -35.693163, -9.259965 ], [ -35.702654, -9.229279 ], [ -35.71196, -9.185095 ], [ -35.712916, -9.180553 ], [ -35.72461, -9.124925 ], [ -35.70976, -9.112942 ], [ -35.697443, -9.108991 ], [ -35.689225, -9.10146 ], [ -35.680611, -9.099894 ], [ -35.664169, -9.107395 ], [ -35.65288, -9.106507 ], [ -35.649475, -9.121988 ], [ -35.644466, -9.118534 ], [ -35.635509, -9.119246 ], [ -35.616557, -9.13643 ], [ -35.598124, -9.167007 ], [ -35.595039, -9.181176 ], [ -35.597201, -9.187065 ], [ -35.59063, -9.191186 ], [ -35.592236, -9.204546 ], [ -35.597194, -9.211272 ], [ -35.595807, -9.226273 ], [ -35.594391, -9.23232 ], [ -35.577688, -9.254189 ], [ -35.549321, -9.226028 ], [ -35.513532, -9.19051 ], [ -35.554653, -9.190871 ], [ -35.604371, -9.124509 ], [ -35.625094, -9.096818 ], [ -35.628854, -9.091792 ], [ -35.672145, -9.097407 ], [ -35.686089, -9.099215 ], [ -35.68855, -9.100815 ], [ -35.690835, -9.095002 ], [ -35.704727, -9.082264 ], [ -35.708949, -9.048974 ], [ -35.686069, -9.035343 ], [ -35.682337, -9.028893 ], [ -35.647639, -9.038457 ], [ -35.619058, -9.046329 ], [ -35.561725, -9.062105 ], [ -35.560542, -9.041908 ], [ -35.565527, -9.036315 ], [ -35.56256, -9.026154 ], [ -35.565744, -9.010599 ], [ -35.561245, -9.010442 ], [ -35.521096, -9.009042 ], [ -35.50261, -8.995459 ], [ -35.46923, -8.972225 ], [ -35.452409, -8.960362 ], [ -35.449357, -8.959751 ], [ -35.448694, -8.953665 ], [ -35.457203, -8.945955 ], [ -35.464303, -8.946945 ], [ -35.474569, -8.937876 ], [ -35.47286, -8.942805 ], [ -35.475501, -8.943698 ], [ -35.491332, -8.940608 ], [ -35.496203, -8.931873 ], [ -35.495787, -8.923158 ], [ -35.500031, -8.918537 ], [ -35.49656, -8.909731 ], [ -35.497176, -8.892356 ], [ -35.515177, -8.881084 ], [ -35.536019, -8.888293 ], [ -35.543718, -8.859708 ], [ -35.547925, -8.844053 ], [ -35.539489, -8.820663 ], [ -35.53485, -8.819036 ], [ -35.531123, -8.827852 ], [ -35.517446, -8.816338 ], [ -35.511198, -8.817116 ], [ -35.503933, -8.82188 ], [ -35.500051, -8.819748 ], [ -35.500025, -8.824544 ], [ -35.495429, -8.827883 ], [ -35.493149, -8.82491 ], [ -35.481799, -8.825733 ], [ -35.480255, -8.819515 ], [ -35.475885, -8.817852 ], [ -35.4698, -8.812708 ], [ -35.462019, -8.818411 ], [ -35.466433, -8.827845 ], [ -35.461515, -8.829742 ], [ -35.459496, -8.837352 ], [ -35.450488, -8.840919 ], [ -35.435547, -8.840512 ], [ -35.43159, -8.835588 ], [ -35.416369, -8.838415 ], [ -35.414005, -8.835993 ], [ -35.408687, -8.837569 ], [ -35.407184, -8.841969 ], [ -35.399662, -8.849893 ], [ -35.382648, -8.852294 ], [ -35.350429, -8.860293 ], [ -35.306004, -8.871449 ], [ -35.298967, -8.873216 ], [ -35.287325, -8.876136 ], [ -35.277255, -8.874743 ], [ -35.252458, -8.886815 ], [ -35.243853, -8.88486 ], [ -35.244091, -8.884527 ], [ -35.243283, -8.884731 ], [ -35.234691, -8.882779 ], [ -35.219785, -8.888854 ], [ -35.211126, -8.888432 ], [ -35.208768, -8.891346 ], [ -35.200263, -8.887799 ], [ -35.170497, -8.890578 ], [ -35.162487, -8.896991 ], [ -35.154839, -8.902715 ], [ -35.152261, -8.913285 ], [ -35.155912, -8.922275 ], [ -35.168332, -8.9365 ], [ -35.174942, -8.96347 ], [ -35.185777, -8.980216 ], [ -35.188298, -8.982395 ], [ -35.209948, -9.001252 ], [ -35.223304, -9.019403 ], [ -35.226159, -9.029459 ], [ -35.238522, -9.048596 ], [ -35.237076, -9.060403 ], [ -35.240241, -9.064306 ], [ -35.238748, -9.068088 ], [ -35.243612, -9.076162 ], [ -35.254483, -9.085433 ], [ -35.257361, -9.09054 ], [ -35.258605, -9.100237 ], [ -35.265524, -9.109863 ], [ -35.267387, -9.112019 ], [ -35.270106, -9.1221 ], [ -35.282588, -9.127817 ], [ -35.286178, -9.145788 ], [ -35.285421, -9.147159 ], [ -35.28805, -9.154133 ], [ -35.294744, -9.155296 ], [ -35.294407, -9.16964 ], [ -35.299138, -9.18203 ], [ -35.306325, -9.192966 ], [ -35.319769, -9.199096 ], [ -35.329551, -9.221606 ], [ -35.342009, -9.230627 ], [ -35.342192, -9.230774 ], [ -35.342869, -9.237778 ], [ -35.353764, -9.255016 ], [ -35.373885, -9.277608 ], [ -35.38647, -9.285827 ], [ -35.396238, -9.302581 ], [ -35.413988, -9.312482 ], [ -35.421159, -9.315181 ], [ -35.414022, -9.317848 ], [ -35.41539, -9.320705 ], [ -35.42816, -9.321832 ], [ -35.437228, -9.327009 ], [ -35.440411, -9.338628 ], [ -35.456936, -9.342144 ], [ -35.463436, -9.347308 ], [ -35.474771, -9.338147 ], [ -35.51334, -9.307306 ] ] ] } },
{ "type": "Feature", "properties": { "HREG_ID": "27003", "HREG_NAME": "3ª Região de Saúde", "id": "270110", "name": "Branquinha", "description": "Branquinha", "MUN_ID": "270110", "UF": "AL", "MACRO_ID": "2704", "MACRO_NAME": "1ª Macrorregião de Saúde" }, "geometry": { "type": "Polygon", "coordinates": [ [ [ -35.829759, -9.322259 ], [ -35.849544, -9.361964 ], [ -35.86197, -9.386909 ], [ -35.862572, -9.388119 ], [ -35.875596, -9.413228 ], [ -35.928443, -9.374181 ], [ -35.948295, -9.380172 ], [ -35.957027, -9.382842 ], [ -36.014046, -9.400549 ], [ -36.029678, -9.374245 ], [ -36.011445, -9.364859 ], [ -36.00019, -9.33802 ], [ -36.00339, -9.325342 ], [ -36.045416, -9.332946 ], [ -36.046688, -9.327213 ], [ -36.053388, -9.296992 ], [ -36.058198, -9.311744 ], [ -36.058373, -9.293339 ], [ -36.064928, -9.284075 ], [ -36.089851, -9.263007 ], [ -36.105067, -9.257977 ], [ -36.125256, -9.251299 ], [ -36.149821, -9.235663 ], [ -36.180227, -9.21287 ], [ -36.243686, -9.195885 ], [ -36.281247, -9.18582 ], [ -36.287426, -9.172881 ], [ -36.273837, -9.165783 ], [ -36.270762, -9.170617 ], [ -36.259804, -9.170382 ], [ -36.261191, -9.176857 ], [ -36.255655, -9.181559 ], [ -36.25217, -9.180825 ], [ -36.252786, -9.172886 ], [ -36.247537, -9.17744 ], [ -36.223912, -9.170869 ], [ -36.224754, -9.166902 ], [ -36.238727, -9.159571 ], [ -36.241903, -9.147044 ], [ -36.245918, -9.143179 ], [ -36.257385, -9.137939 ], [ -36.26321, -9.125584 ], [ -36.260352, -9.118102 ], [ -36.26574, -9.111608 ], [ -36.266663, -9.11067 ], [ -36.26651, -9.10196 ], [ -36.245189, -9.098624 ], [ -36.236125, -9.103069 ], [ -36.222136, -9.086013 ], [ -36.22158, -9.072883 ], [ -36.210006, -9.072718 ], [ -36.204387, -9.068647 ], [ -36.198896, -9.048426 ], [ -36.195392, -9.044366 ], [ -36.188614, -9.045875 ], [ -36.179132, -9.040596 ], [ -36.174797, -9.043731 ], [ -36.163801, -9.040069 ], [ -36.15445, -9.03954 ], [ -36.151395, -9.042274 ], [ -36.142474, -9.039903 ], [ -36.138559, -9.03559 ], [ -36.126947, -9.033249 ], [ -36.12033, -9.027026 ], [ -36.11116, -9.017253 ], [ -36.114757, -9.012981 ], [ -36.113443, -9.008794 ], [ -36.109135, -9.008002 ], [ -36.103998, -8.998509 ], [ -36.111857, -8.987368 ], [ -36.126479, -8.980857 ], [ -36.129256, -8.970907 ], [ -36.126947, -8.955691 ], [ -36.126496, -8.955309 ], [ -36.086078, -8.943648 ], [ -36.083655, -8.94181 ], [ -36.063604, -8.914918 ], [ -36.032923, -8.908 ], [ -36.032778, -8.907991 ], [ -36.005054, -8.912581 ], [ -35.986722, -8.902868 ], [ -35.98383, -8.904798 ], [ -35.973782, -8.901277 ], [ -35.964971, -8.902725 ], [ -35.960925, -8.893949 ], [ -35.95029, -8.891875 ], [ -35.942206, -8.88518 ], [ -35.923947, -8.884208 ], [ -35.916062, -8.867164 ], [ -35.911091, -8.86087 ], [ -35.900659, -8.861993 ], [ -35.895871, -8.853849 ], [ -35.886618, -8.86265 ], [ -35.861602, -8.85795 ], [ -35.850909, -8.867606 ], [ -35.84881, -8.871393 ], [ -35.844672, -8.872061 ], [ -35.836722, -8.868322 ], [ -35.826622, -8.869675 ], [ -35.822648, -8.857 ], [ -35.819581, -8.856455 ], [ -35.807567, -8.859968 ], [ -35.794743, -8.847266 ], [ -35.790288, -8.852994 ], [ -35.787268, -8.850711 ], [ -35.780996, -8.860546 ], [ -35.775652, -8.858039 ], [ -35.776544, -8.868637 ], [ -35.783349, -8.881582 ], [ -35.77881, -8.888222 ], [ -35.782653, -8.897123 ], [ -35.77786, -8.898469 ], [ -35.772914, -8.90572 ], [ -35.760589, -8.907661 ], [ -35.748071, -8.916732 ], [ -35.728694, -8.910119 ], [ -35.72298, -8.909053 ], [ -35.719994, -8.907409 ], [ -35.713373, -8.904378 ], [ -35.699949, -8.906171 ], [ -35.687173, -8.898087 ], [ -35.669664, -8.894826 ], [ -35.664398, -8.890563 ], [ -35.657189, -8.880239 ], [ -35.651657, -8.881837 ], [ -35.628804, -8.878916 ], [ -35.613457, -8.863975 ], [ -35.605166, -8.864734 ], [ -35.595868, -8.860572 ], [ -35.593784, -8.854435 ], [ -35.582195, -8.846048 ], [ -35.569848, -8.842372 ], [ -35.569847, -8.842371 ], [ -35.567154, -8.835025 ], [ -35.563354, -8.831227 ], [ -35.55664, -8.831065 ], [ -35.539489, -8.820663 ], [ -35.547925, -8.844053 ], [ -35.543718, -8.859708 ], [ -35.536019, -8.888293 ], [ -35.515177, -8.881084 ], [ -35.497176, -8.892356 ], [ -35.49656, -8.909731 ], [ -35.500031, -8.918537 ], [ -35.495787, -8.923158 ], [ -35.496203, -8.931873 ], [ -35.491332, -8.940608 ], [ -35.475501, -8.943698 ], [ -35.47286, -8.942805 ], [ -35.474569, -8.937876 ], [ -35.464303, -8.946945 ], [ -35.457203, -8.945955 ], [ -35.448694, -8.953665 ], [ -35.449357, -8.959751 ], [ -35.452409, -8.960362 ], [ -35.46923, -8.972225 ], [ -35.50261, -8.995459 ], [ -35.521096, -9.009042 ], [ -35.561245, -9.010442 ], [ -35.565744, -9.010599 ], [ -35.56256, -9.026154 ], [ -35.565527, -9.036315 ], [ -35.560542, -9.041908 ], [ -35.561725, -9.062105 ], [ -35.619058, -9.046329 ], [ -35.647639, -9.038457 ], [ -35.682337, -9.028893 ], [ -35.686069, -9.035343 ], [ -35.708949, -9.048974 ], [ -35.704727, -9.082264 ], [ -35.690835, -9.095002 ], [ -35.68855, -9.100815 ], [ -35.686089, -9.099215 ], [ -35.672145, -9.097407 ], [ -35.628854, -9.091792 ], [ -35.625094, -9.096818 ], [ -35.604371, -9.124509 ], [ -35.554653, -9.190871 ], [ -35.513532, -9.19051 ], [ -35.549321, -9.226028 ], [ -35.577688, -9.254189 ], [ -35.594391, -9.23232 ], [ -35.595807, -9.226273 ], [ -35.597194, -9.211272 ], [ -35.592236, -9.204546 ], [ -35.59063, -9.191186 ], [ -35.597201, -9.187065 ], [ -35.595039, -9.181176 ], [ -35.598124, -9.167007 ], [ -35.616557, -9.13643 ], [ -35.635509, -9.119246 ], [ -35.644466, -9.118534 ], [ -35.649475, -9.121988 ], [ -35.65288, -9.106507 ], [ -35.664169, -9.107395 ], [ -35.680611, -9.099894 ], [ -35.689225, -9.10146 ], [ -35.697443, -9.108991 ], [ -35.70976, -9.112942 ], [ -35.72461, -9.124925 ], [ -35.724796, -9.124535 ], [ -35.745895, -9.136592 ], [ -35.754773, -9.139147 ], [ -35.768548, -9.145851 ], [ -35.79252, -9.157519 ], [ -35.816724, -9.158611 ], [ -35.829735, -9.149292 ], [ -35.840636, -9.150231 ], [ -35.844533, -9.151005 ], [ -35.870534, -9.135604 ], [ -35.888242, -9.137887 ], [ -35.860487, -9.188158 ], [ -35.842572, -9.220526 ], [ -35.834206, -9.235235 ], [ -35.83602, -9.26412 ], [ -35.836318, -9.270281 ], [ -35.838183, -9.308902 ], [ -35.830823, -9.312725 ], [ -35.829759, -9.322259 ] ] ] } },
{ "type": "Feature", "properties": { "HREG_ID": "27004", "HREG_NAME": "4ª Região de Saúde", "id": "270040", "name": "Atalaia", "description": "Atalaia", "MUN_ID": "270040", "UF": "AL", "MACRO_ID": "2704", "MACRO_NAME": "1ª Macrorregião de Saúde" }, "geometry": { "type": "Polygon", "coordinates": [ [ [ -35.959409, -9.527586 ], [ -35.97927, -9.550014 ], [ -35.976759, -9.555692 ], [ -36.000431, -9.575159 ], [ -36.005554, -9.585819 ], [ -36.017356, -9.575451 ], [ -36.081021, -9.598233 ], [ -36.09241, -9.600829 ], [ -36.11955, -9.595231 ], [ -36.126213, -9.598125 ], [ -36.130268, -9.604196 ], [ -36.138247, -9.612633 ], [ -36.149713, -9.611644 ], [ -36.158382, -9.618353 ], [ -36.173603, -9.611845 ], [ -36.181411, -9.612386 ], [ -36.181535, -9.612223 ], [ -36.191237, -9.59943 ], [ -36.213724, -9.569769 ], [ -36.218329, -9.563691 ], [ -36.227716, -9.515212 ], [ -36.216654, -9.473608 ], [ -36.234097, -9.50201 ], [ -36.24046, -9.509873 ], [ -36.260236, -9.520157 ], [ -36.292419, -9.519126 ], [ -36.306824, -9.52215 ], [ -36.309038, -9.518652 ], [ -36.318802, -9.517589 ], [ -36.32886, -9.510528 ], [ -36.337805, -9.512016 ], [ -36.339546, -9.511248 ], [ -36.350963, -9.505914 ], [ -36.386156, -9.509201 ], [ -36.396666, -9.508492 ], [ -36.426174, -9.506501 ], [ -36.450639, -9.504848 ], [ -36.468079, -9.485095 ], [ -36.459355, -9.472515 ], [ -36.457244, -9.463504 ], [ -36.451456, -9.456633 ], [ -36.46285, -9.45343 ], [ -36.460431, -9.452448 ], [ -36.482288, -9.412222 ], [ -36.485274, -9.406726 ], [ -36.486482, -9.405588 ], [ -36.505468, -9.387679 ], [ -36.523671, -9.369786 ], [ -36.52918, -9.364368 ], [ -36.550498, -9.343401 ], [ -36.549853, -9.353675 ], [ -36.574413, -9.357265 ], [ -36.582183, -9.35336 ], [ -36.592882, -9.360427 ], [ -36.624518, -9.331409 ], [ -36.623094, -9.326172 ], [ -36.619292, -9.32838 ], [ -36.614658, -9.323246 ], [ -36.614413, -9.330604 ], [ -36.612508, -9.333507 ], [ -36.607383, -9.333042 ], [ -36.60471, -9.341086 ], [ -36.592735, -9.334404 ], [ -36.585929, -9.337663 ], [ -36.575741, -9.331457 ], [ -36.567133, -9.331713 ], [ -36.56357, -9.32236 ], [ -36.567869, -9.317852 ], [ -36.572422, -9.31958 ], [ -36.571503, -9.292161 ], [ -36.548964, -9.285054 ], [ -36.502982, -9.270555 ], [ -36.500035, -9.262365 ], [ -36.498316, -9.264491 ], [ -36.491001, -9.261987 ], [ -36.492354, -9.253757 ], [ -36.489473, -9.252219 ], [ -36.487552, -9.2412 ], [ -36.480997, -9.239048 ], [ -36.475787, -9.243351 ], [ -36.462182, -9.23883 ], [ -36.457361, -9.232657 ], [ -36.453325, -9.231968 ], [ -36.453923, -9.22524 ], [ -36.4409, -9.218658 ], [ -36.436669, -9.211679 ], [ -36.422965, -9.215231 ], [ -36.424033, -9.225602 ], [ -36.419467, -9.229147 ], [ -36.414965, -9.229252 ], [ -36.408329, -9.221504 ], [ -36.407135, -9.220586 ], [ -36.402577, -9.223003 ], [ -36.389705, -9.224454 ], [ -36.381923, -9.219613 ], [ -36.375538, -9.216278 ], [ -36.365369, -9.222206 ], [ -36.358011, -9.217867 ], [ -36.353269, -9.2197 ], [ -36.348555, -9.214316 ], [ -36.353582, -9.200772 ], [ -36.338555, -9.20659 ], [ -36.327311, -9.200346 ], [ -36.321187, -9.184959 ], [ -36.311991, -9.179497 ], [ -36.309458, -9.171941 ], [ -36.307484, -9.178048 ], [ -36.300186, -9.175359 ], [ -36.296867, -9.176361 ], [ -36.294642, -9.172021 ], [ -36.287426, -9.172881 ], [ -36.281247, -9.18582 ], [ -36.243686, -9.195885 ], [ -36.180227, -9.21287 ], [ -36.149821, -9.235663 ], [ -36.125256, -9.251299 ], [ -36.105067, -9.257977 ], [ -36.089851, -9.263007 ], [ -36.064928, -9.284075 ], [ -36.058373, -9.293339 ], [ -36.058198, -9.311744 ], [ -36.053388, -9.296992 ], [ -36.046688, -9.327213 ], [ -36.045416, -9.332946 ], [ -36.00339, -9.325342 ], [ -36.00019, -9.33802 ], [ -36.011445, -9.364859 ], [ -36.029678, -9.374245 ], [ -36.014046, -9.400549 ], [ -35.957027, -9.382842 ], [ -35.948295, -9.380172 ], [ -35.928443, -9.374181 ], [ -35.936637, -9.400991 ], [ -35.934188, -9.446936 ], [ -35.932561, -9.479761 ], [ -35.940101, -9.497578 ], [ -35.959409, -9.527586 ] ] ] } },
{ "type": "Feature", "properties": { "HREG_ID": "27005", "HREG_NAME": "5ª Região de Saúde", "id": "270020", "name": "Anadia", "description": "Anadia", "MUN_ID": "270020", "UF": "AL", "MACRO_ID": "2704", "MACRO_NAME": "1ª Macrorregião de Saúde" }, "geometry": { "type": "Polygon", "coordinates": [ [ [ -36.29085, -9.99984 ], [ -36.29771, -10.012413 ], [ -36.305246, -10.018956 ], [ -36.303946, -10.030707 ], [ -36.305008, -10.030758 ], [ -36.365575, -10.033693 ], [ -36.41654, -10.036154 ], [ -36.453301, -10.037926 ], [ -36.454615, -10.031842 ], [ -36.457853, -10.028996 ], [ -36.470659, -10.030449 ], [ -36.473907, -10.027106 ], [ -36.48318, -10.026614 ], [ -36.488155, -10.019189 ], [ -36.484368, -10.009939 ], [ -36.473585, -9.996522 ], [ -36.471778, -9.973767 ], [ -36.47922, -9.960979 ], [ -36.473079, -9.954263 ], [ -36.470578, -9.939636 ], [ -36.478368, -9.932603 ], [ -36.485797, -9.927211 ], [ -36.491943, -9.907996 ], [ -36.494084, -9.905161 ], [ -36.499529, -9.891666 ], [ -36.497081, -9.882432 ], [ -36.496215, -9.866531 ], [ -36.503028, -9.857307 ], [ -36.505911, -9.854942 ], [ -36.515418, -9.858976 ], [ -36.528539, -9.846653 ], [ -36.554567, -9.838857 ], [ -36.554569, -9.83859 ], [ -36.539903, -9.82066 ], [ -36.526416, -9.804174 ], [ -36.516529, -9.804144 ], [ -36.491494, -9.804061 ], [ -36.469209, -9.803987 ], [ -36.441109, -9.791082 ], [ -36.412727, -9.778487 ], [ -36.39366, -9.77365 ], [ -36.385843, -9.769854 ], [ -36.385141, -9.769514 ], [ -36.368604, -9.765294 ], [ -36.359692, -9.768584 ], [ -36.353825, -9.756794 ], [ -36.354636, -9.753452 ], [ -36.361045, -9.751717 ], [ -36.35277, -9.746472 ], [ -36.34705, -9.748109 ], [ -36.34238, -9.738127 ], [ -36.342803, -9.712789 ], [ -36.370379, -9.697519 ], [ -36.371934, -9.67964 ], [ -36.379106, -9.65726 ], [ -36.384502, -9.654427 ], [ -36.387995, -9.651257 ], [ -36.393829, -9.647943 ], [ -36.380493, -9.634943 ], [ -36.388271, -9.628348 ], [ -36.39137, -9.605432 ], [ -36.391769, -9.602481 ], [ -36.350476, -9.591943 ], [ -36.346519, -9.593536 ], [ -36.344217, -9.599947 ], [ -36.350828, -9.606793 ], [ -36.320132, -9.607784 ], [ -36.317616, -9.60715 ], [ -36.293498, -9.601129 ], [ -36.287573, -9.608699 ], [ -36.253575, -9.623465 ], [ -36.262229, -9.595335 ], [ -36.191237, -9.59943 ], [ -36.181535, -9.612223 ], [ -36.181411, -9.612386 ], [ -36.176608, -9.620897 ], [ -36.155441, -9.624494 ], [ -36.141162, -9.638438 ], [ -36.14055, -9.645019 ], [ -36.134053, -9.645061 ], [ -36.13183, -9.650698 ], [ -36.127865, -9.64847 ], [ -36.115911, -9.649364 ], [ -36.11102, -9.645614 ], [ -36.104885, -9.6389 ], [ -36.103302, -9.641053 ], [ -36.10116, -9.644962 ], [ -36.098734, -9.651477 ], [ -36.089715, -9.655211 ], [ -36.085736, -9.661348 ], [ -36.083043, -9.663986 ], [ -36.074748, -9.673309 ], [ -36.033943, -9.668329 ], [ -36.029497, -9.670872 ], [ -36.018024, -9.687056 ], [ -35.992329, -9.693155 ], [ -35.987134, -9.702972 ], [ -35.988175, -9.738298 ], [ -36.00423, -9.766671 ], [ -36.026321, -9.809867 ], [ -36.026292, -9.810791 ], [ -36.015021, -9.807442 ], [ -36.005327, -9.810706 ], [ -35.997437, -9.819118 ], [ -35.990692, -9.817981 ], [ -35.983586, -9.825501 ], [ -35.974336, -9.826374 ], [ -35.967068, -9.830372 ], [ -35.96086, -9.835426 ], [ -35.960394, -9.836255 ], [ -35.949798, -9.84478 ], [ -35.937933, -9.844352 ], [ -35.92238, -9.837466 ], [ -35.914426, -9.841537 ], [ -35.91019, -9.846044 ], [ -35.902639, -9.859864 ], [ -35.902459, -9.869649 ], [ -35.934934, -9.89876 ], [ -35.961981, -9.940831 ], [ -35.967733, -9.929308 ], [ -35.977411, -9.924671 ], [ -35.977993, -9.914717 ], [ -35.982583, -9.909871 ], [ -35.99941, -9.914994 ], [ -36.005436, -9.908348 ], [ -36.006664, -9.910701 ], [ -36.013547, -9.907156 ], [ -36.020911, -9.919904 ], [ -36.041009, -9.857786 ], [ -36.046635, -9.860392 ], [ -36.051167, -9.872166 ], [ -36.0651, -9.875419 ], [ -36.066745, -9.88174 ], [ -36.078669, -9.868053 ], [ -36.087609, -9.8685 ], [ -36.096553, -9.85454 ], [ -36.117128, -9.843739 ], [ -36.12263, -9.838259 ], [ -36.125647, -9.83755 ], [ -36.127463, -9.827744 ], [ -36.134151, -9.838841 ], [ -36.143631, -9.859397 ], [ -36.160549, -9.855315 ], [ -36.165693, -9.849202 ], [ -36.166321, -9.840464 ], [ -36.183339, -9.800551 ], [ -36.186907, -9.794555 ], [ -36.188298, -9.798605 ], [ -36.20785, -9.805239 ], [ -36.205906, -9.808086 ], [ -36.205088, -9.809283 ], [ -36.196218, -9.828907 ], [ -36.196134, -9.835432 ], [ -36.201305, -9.83916 ], [ -36.211103, -9.842263 ], [ -36.219102, -9.836127 ], [ -36.226748, -9.849473 ], [ -36.239244, -9.871283 ], [ -36.187133, -9.878735 ], [ -36.181328, -9.879565 ], [ -36.178992, -9.888901 ], [ -36.191549, -9.890977 ], [ -36.280712, -9.934127 ], [ -36.280769, -9.934625 ], [ -36.28487, -9.966753 ], [ -36.29085, -9.99984 ] ] ] } },
{ "type": "Feature", "properties": { "HREG_ID": "27006", "HREG_NAME": "6ª Região de Saúde", "id": "270230", "name": "Coruripe", "description": "Coruripe", "MUN_ID": "270230", "UF": "AL", "MACRO_ID": "2704", "MACRO_NAME": "1ª Macrorregião de Saúde" }, "geometry": { "type": "Polygon", "coordinates": [ [ [ -36.307087, -10.363788 ], [ -36.335469, -10.403331 ], [ -36.385021, -10.498895 ], [ -36.39354, -10.499912 ], [ -36.404761, -10.481825 ], [ -36.40491, -10.481267 ], [ -36.417044, -10.453611 ], [ -36.430121, -10.424881 ], [ -36.437591, -10.417999 ], [ -36.443268, -10.417591 ], [ -36.456518, -10.406922 ], [ -36.463192, -10.406307 ], [ -36.487055, -10.422477 ], [ -36.487076, -10.42249 ], [ -36.489275, -10.423569 ], [ -36.509691, -10.432385 ], [ -36.521891, -10.432667 ], [ -36.51897, -10.424273 ], [ -36.510202, -10.420976 ], [ -36.538237, -10.421933 ], [ -36.544306, -10.429602 ], [ -36.562688, -10.419269 ], [ -36.565243, -10.411442 ], [ -36.56163, -10.403986 ], [ -36.561261, -10.385267 ], [ -36.564037, -10.3797 ], [ -36.568154, -10.362149 ], [ -36.565563, -10.329091 ], [ -36.565586, -10.329051 ], [ -36.573791, -10.314803 ], [ -36.58861, -10.3014 ], [ -36.590843, -10.286956 ], [ -36.595166, -10.283693 ], [ -36.599218, -10.281447 ], [ -36.611895, -10.27058 ], [ -36.621601, -10.258781 ], [ -36.625069, -10.255949 ], [ -36.630634, -10.253579 ], [ -36.632245, -10.253139 ], [ -36.64413, -10.252113 ], [ -36.657601, -10.264905 ], [ -36.679033, -10.269383 ], [ -36.681324, -10.273034 ], [ -36.684766, -10.27483 ], [ -36.701651, -10.270546 ], [ -36.720055, -10.264515 ], [ -36.736235, -10.251638 ], [ -36.744219, -10.251734 ], [ -36.755816, -10.245917 ], [ -36.750404, -10.237039 ], [ -36.755837, -10.231308 ], [ -36.776528, -10.225503 ], [ -36.808073, -10.220448 ], [ -36.818559, -10.215413 ], [ -36.819312, -10.21492 ], [ -36.835316, -10.203648 ], [ -36.845311, -10.188972 ], [ -36.846244, -10.186089 ], [ -36.846778, -10.179712 ], [ -36.846924, -10.175844 ], [ -36.848266, -10.162359 ], [ -36.867033, -10.157124 ], [ -36.880256, -10.144641 ], [ -36.887264, -10.142594 ], [ -36.910553, -10.137515 ], [ -36.918081, -10.131823 ], [ -36.918185, -10.131725 ], [ -36.921221, -10.127886 ], [ -36.930233, -10.105343 ], [ -36.946758, -10.086122 ], [ -36.950476, -10.077114 ], [ -36.951919, -10.074362 ], [ -36.947551, -10.07403 ], [ -36.942191, -10.076755 ], [ -36.868546, -10.04667 ], [ -36.87441, -10.053077 ], [ -36.872022, -10.057869 ], [ -36.865827, -10.057809 ], [ -36.86265, -10.058837 ], [ -36.821323, -10.07417 ], [ -36.81302, -10.091403 ], [ -36.806105, -10.09386 ], [ -36.800045, -10.101487 ], [ -36.789219, -10.104932 ], [ -36.769703, -10.123671 ], [ -36.766937, -10.116881 ], [ -36.760849, -10.104956 ], [ -36.745339, -10.088263 ], [ -36.737332, -10.086055 ], [ -36.734891, -10.08223 ], [ -36.734802, -10.081713 ], [ -36.726549, -10.065214 ], [ -36.714043, -10.053413 ], [ -36.713514, -10.043183 ], [ -36.713388, -10.042788 ], [ -36.713325, -10.042616 ], [ -36.70477, -10.019161 ], [ -36.70651, -9.999934 ], [ -36.685349, -9.962252 ], [ -36.685137, -9.964826 ], [ -36.64909, -9.983975 ], [ -36.646268, -9.985753 ], [ -36.646746, -9.987538 ], [ -36.642686, -9.993305 ], [ -36.648407, -9.996481 ], [ -36.653691, -10.005228 ], [ -36.647854, -10.00658 ], [ -36.647583, -10.011536 ], [ -36.649948, -10.01671 ], [ -36.654387, -10.013092 ], [ -36.655293, -10.018569 ], [ -36.651272, -10.026507 ], [ -36.657447, -10.033787 ], [ -36.653769, -10.034033 ], [ -36.641425, -10.034581 ], [ -36.578199, -10.037386 ], [ -36.516879, -10.040092 ], [ -36.514902, -10.043917 ], [ -36.50718, -10.068758 ], [ -36.491024, -10.070666 ], [ -36.479274, -10.058137 ], [ -36.454615, -10.031842 ], [ -36.453301, -10.037926 ], [ -36.41654, -10.036154 ], [ -36.365575, -10.033693 ], [ -36.305008, -10.030758 ], [ -36.303946, -10.030707 ], [ -36.305246, -10.018956 ], [ -36.29771, -10.012413 ], [ -36.29085, -9.99984 ], [ -36.28487, -9.966753 ], [ -36.280769, -9.934625 ], [ -36.280712, -9.934127 ], [ -36.191549, -9.890977 ], [ -36.178992, -9.888901 ], [ -36.181328, -9.879565 ], [ -36.187133, -9.878735 ], [ -36.239244, -9.871283 ], [ -36.226748, -9.849473 ], [ -36.219102, -9.836127 ], [ -36.211103, -9.842263 ], [ -36.201305, -9.83916 ], [ -36.196134, -9.835432 ], [ -36.196218, -9.828907 ], [ -36.205088, -9.809283 ], [ -36.205906, -9.808086 ], [ -36.20785, -9.805239 ], [ -36.188298, -9.798605 ], [ -36.186907, -9.794555 ], [ -36.183339, -9.800551 ], [ -36.166321, -9.840464 ], [ -36.165693, -9.849202 ], [ -36.160549, -9.855315 ], [ -36.143631, -9.859397 ], [ -36.134151, -9.838841 ], [ -36.127463, -9.827744 ], [ -36.125647, -9.83755 ], [ -36.12263, -9.838259 ], [ -36.117128, -9.843739 ], [ -36.096553, -9.85454 ], [ -36.087609, -9.8685 ], [ -36.078669, -9.868053 ], [ -36.066745, -9.88174 ], [ -36.0651, -9.875419 ], [ -36.051167, -9.872166 ], [ -36.046635, -9.860392 ], [ -36.041009, -9.857786 ], [ -36.020911, -9.919904 ], [ -36.013547, -9.907156 ], [ -36.006664, -9.910701 ], [ -36.005436, -9.908348 ], [ -35.99941, -9.914994 ], [ -35.982583, -9.909871 ], [ -35.977993, -9.914717 ], [ -35.977411, -9.924671 ], [ -35.967733, -9.929308 ], [ -35.961981, -9.940831 ], [ -35.974274, -9.96541 ], [ -36.003718, -10.003291 ], [ -36.031131, -10.05043 ], [ -36.042766, -10.064278 ], [ -36.045993, -10.075236 ], [ -36.058797, -10.085139 ], [ -36.069046, -10.084072 ], [ -36.083574, -10.090306 ], [ -36.101933, -10.113311 ], [ -36.108335, -10.12546 ], [ -36.109623, -10.127905 ], [ -36.110609, -10.129776 ], [ -36.120993, -10.137281 ], [ -36.135021, -10.158809 ], [ -36.138686, -10.154315 ], [ -36.145489, -10.154443 ], [ -36.170487, -10.170824 ], [ -36.186242, -10.196993 ], [ -36.222725, -10.222716 ], [ -36.234161, -10.238516 ], [ -36.249286, -10.251804 ], [ -36.271823, -10.274643 ], [ -36.29183, -10.300035 ], [ -36.298766, -10.314069 ], [ -36.302352, -10.325702 ], [ -36.301906, -10.34221 ], [ -36.293386, -10.354488 ], [ -36.300045, -10.362037 ], [ -36.307087, -10.363788 ] ] ] } },
{ "type": "Feature", "properties": { "HREG_ID": "27007", "HREG_NAME": "7ª Região de Saúde", "id": "270030", "name": "Arapiraca", "description": "Arapiraca", "MUN_ID": "270030", "UF": "AL", "MACRO_ID": "2703", "MACRO_NAME": "2ª Macrorregião de Saúde" }, "geometry": { "type": "Polygon", "coordinates": [ [ [ -36.713514, -10.043183 ], [ -36.714043, -10.053413 ], [ -36.726549, -10.065214 ], [ -36.734802, -10.081713 ], [ -36.734891, -10.08223 ], [ -36.737332, -10.086055 ], [ -36.745339, -10.088263 ], [ -36.760849, -10.104956 ], [ -36.766937, -10.116881 ], [ -36.769703, -10.123671 ], [ -36.789219, -10.104932 ], [ -36.800045, -10.101487 ], [ -36.806105, -10.09386 ], [ -36.81302, -10.091403 ], [ -36.821323, -10.07417 ], [ -36.86265, -10.058837 ], [ -36.865827, -10.057809 ], [ -36.872022, -10.057869 ], [ -36.87441, -10.053077 ], [ -36.868546, -10.04667 ], [ -36.942191, -10.076755 ], [ -36.947551, -10.07403 ], [ -36.951919, -10.074362 ], [ -36.953563, -10.071222 ], [ -36.958759, -10.050103 ], [ -36.956071, -10.023271 ], [ -36.956071, -10.023191 ], [ -36.957172, -10.015099 ], [ -36.957502, -10.014174 ], [ -36.957533, -10.014088 ], [ -36.958099, -10.012504 ], [ -36.958744, -10.010698 ], [ -36.967263, -9.992456 ], [ -36.99454, -9.974946 ], [ -37.005177, -9.975801 ], [ -37.029576, -9.985865 ], [ -37.043869, -9.988266 ], [ -37.061463, -9.978033 ], [ -37.062203, -9.977445 ], [ -37.064904, -9.975297 ], [ -37.074736, -9.966262 ], [ -37.080333, -9.960858 ], [ -37.132302, -9.913374 ], [ -37.152623, -9.900427 ], [ -37.194953, -9.897629 ], [ -37.226249, -9.89905 ], [ -37.235199, -9.895612 ], [ -37.24685, -9.884219 ], [ -37.256594, -9.859843 ], [ -37.263857, -9.850009 ], [ -37.285077, -9.830538 ], [ -37.296855, -9.827174 ], [ -37.298027, -9.816954 ], [ -37.309462, -9.803285 ], [ -37.301246, -9.793606 ], [ -37.300941, -9.788176 ], [ -37.297137, -9.782973 ], [ -37.285132, -9.778278 ], [ -37.286462, -9.771744 ], [ -37.275188, -9.773785 ], [ -37.272968, -9.766892 ], [ -37.25138, -9.751579 ], [ -37.248441, -9.738588 ], [ -37.239328, -9.736412 ], [ -37.288055, -9.686127 ], [ -37.302713, -9.635604 ], [ -37.290022, -9.633868 ], [ -37.279104, -9.636166 ], [ -37.253305, -9.631812 ], [ -37.249466, -9.631907 ], [ -37.241643, -9.620792 ], [ -37.23541, -9.611937 ], [ -37.255017, -9.580901 ], [ -37.200169, -9.596831 ], [ -37.16311, -9.607584 ], [ -37.159441, -9.60188 ], [ -37.120468, -9.538516 ], [ -37.119399, -9.536673 ], [ -37.109357, -9.516032 ], [ -37.110601, -9.505788 ], [ -37.114414, -9.496582 ], [ -37.104026, -9.491568 ], [ -37.103692, -9.478796 ], [ -37.105276, -9.462029 ], [ -37.102858, -9.455908 ], [ -37.038248, -9.416422 ], [ -37.033859, -9.403571 ], [ -37.029877, -9.391916 ], [ -37.019464, -9.413437 ], [ -37.016755, -9.429087 ], [ -37.017851, -9.434634 ], [ -37.003659, -9.449215 ], [ -37.00008, -9.46015 ], [ -36.995055, -9.461616 ], [ -36.986199, -9.472473 ], [ -36.980295, -9.486425 ], [ -36.949495, -9.502052 ], [ -36.904859, -9.523472 ], [ -36.876323, -9.534697 ], [ -36.863493, -9.531317 ], [ -36.83672, -9.531493 ], [ -36.838351, -9.538959 ], [ -36.831111, -9.551511 ], [ -36.813605, -9.563211 ], [ -36.785216, -9.549796 ], [ -36.773969, -9.557067 ], [ -36.762892, -9.55865 ], [ -36.756104, -9.565301 ], [ -36.753743, -9.576509 ], [ -36.743674, -9.574753 ], [ -36.727329, -9.572669 ], [ -36.719326, -9.579609 ], [ -36.706829, -9.584169 ], [ -36.694992, -9.57952 ], [ -36.697737, -9.598895 ], [ -36.688328, -9.596458 ], [ -36.683054, -9.600157 ], [ -36.686771, -9.614073 ], [ -36.687381, -9.626709 ], [ -36.692728, -9.633393 ], [ -36.678363, -9.636741 ], [ -36.658358, -9.641401 ], [ -36.637187, -9.636111 ], [ -36.631309, -9.643745 ], [ -36.622614, -9.655034 ], [ -36.609133, -9.653798 ], [ -36.606003, -9.652948 ], [ -36.610962, -9.642907 ], [ -36.608818, -9.635721 ], [ -36.614994, -9.626907 ], [ -36.625742, -9.632257 ], [ -36.629995, -9.629951 ], [ -36.62316, -9.620681 ], [ -36.615575, -9.622671 ], [ -36.611186, -9.620242 ], [ -36.614027, -9.609477 ], [ -36.619159, -9.608273 ], [ -36.623726, -9.602121 ], [ -36.620493, -9.586888 ], [ -36.623577, -9.580955 ], [ -36.620609, -9.577779 ], [ -36.613214, -9.579599 ], [ -36.602386, -9.575467 ], [ -36.601021, -9.56759 ], [ -36.589418, -9.572455 ], [ -36.582589, -9.571426 ], [ -36.574784, -9.566169 ], [ -36.573549, -9.564979 ], [ -36.5714, -9.561023 ], [ -36.566159, -9.56052 ], [ -36.565915, -9.555268 ], [ -36.558606, -9.549774 ], [ -36.554473, -9.540701 ], [ -36.544164, -9.534056 ], [ -36.531722, -9.531666 ], [ -36.503998, -9.560439 ], [ -36.497059, -9.583531 ], [ -36.49225, -9.585126 ], [ -36.478795, -9.593806 ], [ -36.473386, -9.602195 ], [ -36.457524, -9.616487 ], [ -36.448432, -9.607972 ], [ -36.444304, -9.605528 ], [ -36.432993, -9.616333 ], [ -36.417157, -9.610854 ], [ -36.400795, -9.618644 ], [ -36.398967, -9.624023 ], [ -36.404658, -9.626438 ], [ -36.40827, -9.636007 ], [ -36.393829, -9.647943 ], [ -36.387995, -9.651257 ], [ -36.384502, -9.654427 ], [ -36.379106, -9.65726 ], [ -36.371934, -9.67964 ], [ -36.370379, -9.697519 ], [ -36.342803, -9.712789 ], [ -36.34238, -9.738127 ], [ -36.34705, -9.748109 ], [ -36.35277, -9.746472 ], [ -36.361045, -9.751717 ], [ -36.354636, -9.753452 ], [ -36.353825, -9.756794 ], [ -36.359692, -9.768584 ], [ -36.368604, -9.765294 ], [ -36.385141, -9.769514 ], [ -36.385843, -9.769854 ], [ -36.39366, -9.77365 ], [ -36.412727, -9.778487 ], [ -36.441109, -9.791082 ], [ -36.469209, -9.803987 ], [ -36.491494, -9.804061 ], [ -36.516529, -9.804144 ], [ -36.526416, -9.804174 ], [ -36.539903, -9.82066 ], [ -36.554569, -9.83859 ], [ -36.554567, -9.838857 ], [ -36.528539, -9.846653 ], [ -36.515418, -9.858976 ], [ -36.505911, -9.854942 ], [ -36.503028, -9.857307 ], [ -36.496215, -9.866531 ], [ -36.497081, -9.882432 ], [ -36.499529, -9.891666 ], [ -36.494084, -9.905161 ], [ -36.491943, -9.907996 ], [ -36.485797, -9.927211 ], [ -36.478368, -9.932603 ], [ -36.470578, -9.939636 ], [ -36.473079, -9.954263 ], [ -36.47922, -9.960979 ], [ -36.471778, -9.973767 ], [ -36.473585, -9.996522 ], [ -36.484368, -10.009939 ], [ -36.488155, -10.019189 ], [ -36.48318, -10.026614 ], [ -36.473907, -10.027106 ], [ -36.470659, -10.030449 ], [ -36.457853, -10.028996 ], [ -36.454615, -10.031842 ], [ -36.479274, -10.058137 ], [ -36.491024, -10.070666 ], [ -36.50718, -10.068758 ], [ -36.514902, -10.043917 ], [ -36.516879, -10.040092 ], [ -36.578199, -10.037386 ], [ -36.641425, -10.034581 ], [ -36.653769, -10.034033 ], [ -36.657447, -10.033787 ], [ -36.651272, -10.026507 ], [ -36.655293, -10.018569 ], [ -36.654387, -10.013092 ], [ -36.649948, -10.01671 ], [ -36.647583, -10.011536 ], [ -36.647854, -10.00658 ], [ -36.653691, -10.005228 ], [ -36.648407, -9.996481 ], [ -36.642686, -9.993305 ], [ -36.646746, -9.987538 ], [ -36.646268, -9.985753 ], [ -36.64909, -9.983975 ], [ -36.685137, -9.964826 ], [ -36.685349, -9.962252 ], [ -36.70651, -9.999934 ], [ -36.70477, -10.019161 ], [ -36.713325, -10.042616 ], [ -36.713388, -10.042788 ], [ -36.713514, -10.043183 ] ] ] } },
{ "type": "Feature", "properties": { "HREG_ID": "27008", "HREG_NAME": "8ª Região de Saúde", "id": "270080", "name": "Belém", "description": "Belém", "MUN_ID": "270080", "UF": "AL", "MACRO_ID": "2703", "MACRO_NAME": "2ª Macrorregião de Saúde" }, "geometry": { "type": "Polygon", "coordinates": [ [ [ -36.544164, -9.534056 ], [ -36.554473, -9.540701 ], [ -36.558606, -9.549774 ], [ -36.565915, -9.555268 ], [ -36.566159, -9.56052 ], [ -36.5714, -9.561023 ], [ -36.573549, -9.564979 ], [ -36.574784, -9.566169 ], [ -36.582589, -9.571426 ], [ -36.589418, -9.572455 ], [ -36.601021, -9.56759 ], [ -36.602386, -9.575467 ], [ -36.613214, -9.579599 ], [ -36.620609, -9.577779 ], [ -36.623577, -9.580955 ], [ -36.620493, -9.586888 ], [ -36.623726, -9.602121 ], [ -36.619159, -9.608273 ], [ -36.614027, -9.609477 ], [ -36.611186, -9.620242 ], [ -36.615575, -9.622671 ], [ -36.62316, -9.620681 ], [ -36.629995, -9.629951 ], [ -36.625742, -9.632257 ], [ -36.614994, -9.626907 ], [ -36.608818, -9.635721 ], [ -36.610962, -9.642907 ], [ -36.606003, -9.652948 ], [ -36.609133, -9.653798 ], [ -36.622614, -9.655034 ], [ -36.631309, -9.643745 ], [ -36.637187, -9.636111 ], [ -36.658358, -9.641401 ], [ -36.678363, -9.636741 ], [ -36.692728, -9.633393 ], [ -36.687381, -9.626709 ], [ -36.686771, -9.614073 ], [ -36.683054, -9.600157 ], [ -36.688328, -9.596458 ], [ -36.697737, -9.598895 ], [ -36.694992, -9.57952 ], [ -36.706829, -9.584169 ], [ -36.719326, -9.579609 ], [ -36.727329, -9.572669 ], [ -36.743674, -9.574753 ], [ -36.753743, -9.576509 ], [ -36.756104, -9.565301 ], [ -36.762892, -9.55865 ], [ -36.773969, -9.557067 ], [ -36.785216, -9.549796 ], [ -36.813605, -9.563211 ], [ -36.831111, -9.551511 ], [ -36.838351, -9.538959 ], [ -36.83672, -9.531493 ], [ -36.863493, -9.531317 ], [ -36.876323, -9.534697 ], [ -36.904859, -9.523472 ], [ -36.949495, -9.502052 ], [ -36.980295, -9.486425 ], [ -36.986199, -9.472473 ], [ -36.995055, -9.461616 ], [ -37.00008, -9.46015 ], [ -37.003659, -9.449215 ], [ -37.017851, -9.434634 ], [ -37.016755, -9.429087 ], [ -37.019464, -9.413437 ], [ -37.029877, -9.391916 ], [ -37.0273, -9.383518 ], [ -37.02244, -9.369174 ], [ -36.991747, -9.374182 ], [ -36.976884, -9.361204 ], [ -36.976612, -9.360966 ], [ -36.975831, -9.361645 ], [ -36.952092, -9.382121 ], [ -36.943667, -9.381918 ], [ -36.93651, -9.377003 ], [ -36.930097, -9.369614 ], [ -36.936428, -9.360792 ], [ -36.937537, -9.352399 ], [ -36.921931, -9.33934 ], [ -36.920604, -9.332066 ], [ -36.926976, -9.324989 ], [ -36.921343, -9.313191 ], [ -36.915481, -9.298599 ], [ -36.900487, -9.282487 ], [ -36.889453, -9.283218 ], [ -36.883793, -9.280493 ], [ -36.874432, -9.276539 ], [ -36.879442, -9.275953 ], [ -36.870921, -9.267663 ], [ -36.84803, -9.276274 ], [ -36.843861, -9.281921 ], [ -36.839372, -9.287792 ], [ -36.835702, -9.288207 ], [ -36.796807, -9.292601 ], [ -36.773063, -9.279156 ], [ -36.758446, -9.270979 ], [ -36.727946, -9.272827 ], [ -36.693507, -9.27491 ], [ -36.684557, -9.282571 ], [ -36.679295, -9.287078 ], [ -36.656821, -9.310674 ], [ -36.649399, -9.314984 ], [ -36.644348, -9.31395 ], [ -36.640302, -9.319936 ], [ -36.635118, -9.320363 ], [ -36.63428, -9.326482 ], [ -36.628391, -9.327856 ], [ -36.627542, -9.331913 ], [ -36.624518, -9.331409 ], [ -36.592882, -9.360427 ], [ -36.582183, -9.35336 ], [ -36.574413, -9.357265 ], [ -36.549853, -9.353675 ], [ -36.550498, -9.343401 ], [ -36.52918, -9.364368 ], [ -36.523671, -9.369786 ], [ -36.505468, -9.387679 ], [ -36.486482, -9.405588 ], [ -36.485274, -9.406726 ], [ -36.482288, -9.412222 ], [ -36.460431, -9.452448 ], [ -36.46285, -9.45343 ], [ -36.451456, -9.456633 ], [ -36.457244, -9.463504 ], [ -36.459355, -9.472515 ], [ -36.468079, -9.485095 ], [ -36.450639, -9.504848 ], [ -36.426174, -9.506501 ], [ -36.396666, -9.508492 ], [ -36.386156, -9.509201 ], [ -36.350963, -9.505914 ], [ -36.339546, -9.511248 ], [ -36.337805, -9.512016 ], [ -36.32886, -9.510528 ], [ -36.318802, -9.517589 ], [ -36.309038, -9.518652 ], [ -36.306824, -9.52215 ], [ -36.292419, -9.519126 ], [ -36.260236, -9.520157 ], [ -36.24046, -9.509873 ], [ -36.234097, -9.50201 ], [ -36.216654, -9.473608 ], [ -36.227716, -9.515212 ], [ -36.218329, -9.563691 ], [ -36.213724, -9.569769 ], [ -36.191237, -9.59943 ], [ -36.262229, -9.595335 ], [ -36.253575, -9.623465 ], [ -36.287573, -9.608699 ], [ -36.293498, -9.601129 ], [ -36.317616, -9.60715 ], [ -36.320132, -9.607784 ], [ -36.350828, -9.606793 ], [ -36.344217, -9.599947 ], [ -36.346519, -9.593536 ], [ -36.350476, -9.591943 ], [ -36.391769, -9.602481 ], [ -36.39137, -9.605432 ], [ -36.388271, -9.628348 ], [ -36.380493, -9.634943 ], [ -36.393829, -9.647943 ], [ -36.40827, -9.636007 ], [ -36.404658, -9.626438 ], [ -36.398967, -9.624023 ], [ -36.400795, -9.618644 ], [ -36.417157, -9.610854 ], [ -36.432993, -9.616333 ], [ -36.444304, -9.605528 ], [ -36.448432, -9.607972 ], [ -36.457524, -9.616487 ], [ -36.473386, -9.602195 ], [ -36.478795, -9.593806 ], [ -36.49225, -9.585126 ], [ -36.497059, -9.583531 ], [ -36.503998, -9.560439 ], [ -36.531722, -9.531666 ], [ -36.544164, -9.534056 ] ] ] } },
{ "type": "Feature", "properties": { "HREG_ID": "27009", "HREG_NAME": "9ª Região de Saúde", "id": "270160", "name": "Canapi", "description": "Canapi", "MUN_ID": "270160", "UF": "AL", "MACRO_ID": "2703", "MACRO_NAME": "2ª Macrorregião de Saúde" }, "geometry": { "type": "Polygon", "coordinates": [ [ [ -37.248441, -9.738588 ], [ -37.25138, -9.751579 ], [ -37.272968, -9.766892 ], [ -37.275188, -9.773785 ], [ -37.286462, -9.771744 ], [ -37.285132, -9.778278 ], [ -37.297137, -9.782973 ], [ -37.300941, -9.788176 ], [ -37.301246, -9.793606 ], [ -37.309462, -9.803285 ], [ -37.298027, -9.816954 ], [ -37.296855, -9.827174 ], [ -37.311339, -9.824069 ], [ -37.320778, -9.820037 ], [ -37.339724, -9.800108 ], [ -37.347968, -9.792696 ], [ -37.362471, -9.78646 ], [ -37.372645, -9.783733 ], [ -37.397258, -9.777117 ], [ -37.408546, -9.768105 ], [ -37.417413, -9.762532 ], [ -37.449946, -9.75292 ], [ -37.466512, -9.7491 ], [ -37.473358, -9.746413 ], [ -37.523871, -9.744473 ], [ -37.527267, -9.743695 ], [ -37.553189, -9.740229 ], [ -37.571554, -9.7383 ], [ -37.581345, -9.733658 ], [ -37.601578, -9.718791 ], [ -37.603437, -9.717806 ], [ -37.64474, -9.691266 ], [ -37.656489, -9.683214 ], [ -37.659981, -9.676842 ], [ -37.656827, -9.671028 ], [ -37.656221, -9.669693 ], [ -37.659018, -9.653706 ], [ -37.637239, -9.603297 ], [ -37.649077, -9.577364 ], [ -37.663379, -9.556818 ], [ -37.667302, -9.544258 ], [ -37.667833, -9.538325 ], [ -37.671933, -9.53533 ], [ -37.675826, -9.520829 ], [ -37.671149, -9.503814 ], [ -37.67402, -9.49876 ], [ -37.664745, -9.488568 ], [ -37.666277, -9.478686 ], [ -37.670825, -9.461872 ], [ -37.663858, -9.445177 ], [ -37.665441, -9.439982 ], [ -37.655967, -9.407977 ], [ -37.654601, -9.408425 ], [ -37.65397, -9.404334 ], [ -37.647605, -9.401076 ], [ -37.646459, -9.391438 ], [ -37.636172, -9.376239 ], [ -37.618328, -9.357753 ], [ -37.611259, -9.338327 ], [ -37.592398, -9.313563 ], [ -37.585596, -9.295632 ], [ -37.587446, -9.288406 ], [ -37.594446, -9.290492 ], [ -37.60802, -9.280593 ], [ -37.611108, -9.272411 ], [ -37.60847, -9.264946 ], [ -37.612025, -9.249914 ], [ -37.620467, -9.246707 ], [ -37.619659, -9.23783 ], [ -37.610247, -9.232065 ], [ -37.612547, -9.226248 ], [ -37.624524, -9.219941 ], [ -37.623109, -9.209802 ], [ -37.61805, -9.205273 ], [ -37.621528, -9.193921 ], [ -37.625957, -9.19282 ], [ -37.689662, -9.176981 ], [ -37.692106, -9.176374 ], [ -37.690773, -9.175121 ], [ -37.672503, -9.15795 ], [ -37.662105, -9.145366 ], [ -37.649009, -9.128156 ], [ -37.635506, -9.110413 ], [ -37.635199, -9.11001 ], [ -37.618626, -9.09799 ], [ -37.609811, -9.091393 ], [ -37.573462, -9.042571 ], [ -37.554016, -9.016079 ], [ -37.553567, -9.015467 ], [ -37.542381, -9.00023 ], [ -37.529755, -8.962651 ], [ -37.523973, -8.964545 ], [ -37.499692, -8.967556 ], [ -37.489994, -8.965488 ], [ -37.48666, -8.975138 ], [ -37.488716, -8.985561 ], [ -37.489182, -8.987932 ], [ -37.489223, -8.988135 ], [ -37.492135, -8.997856 ], [ -37.493411, -9.000273 ], [ -37.485203, -9.008961 ], [ -37.469025, -9.027256 ], [ -37.445632, -9.026191 ], [ -37.433277, -9.029383 ], [ -37.418111, -9.043411 ], [ -37.400481, -9.051762 ], [ -37.391956, -9.055306 ], [ -37.340196, -9.079104 ], [ -37.336483, -9.080464 ], [ -37.327359, -9.092806 ], [ -37.315175, -9.093852 ], [ -37.310355, -9.099999 ], [ -37.310713, -9.107125 ], [ -37.296461, -9.12037 ], [ -37.287585, -9.135929 ], [ -37.281942, -9.148422 ], [ -37.262214, -9.158461 ], [ -37.262057, -9.159598 ], [ -37.2597, -9.164605 ], [ -37.242888, -9.185617 ], [ -37.246442, -9.189962 ], [ -37.238829, -9.202898 ], [ -37.233213, -9.206165 ], [ -37.232012, -9.221896 ], [ -37.22844, -9.225115 ], [ -37.233549, -9.231728 ], [ -37.233986, -9.239629 ], [ -37.207191, -9.217894 ], [ -37.197972, -9.215062 ], [ -37.158605, -9.238681 ], [ -37.167941, -9.251405 ], [ -37.168738, -9.265171 ], [ -37.16876, -9.265289 ], [ -37.169045, -9.272013 ], [ -37.163992, -9.275284 ], [ -37.142052, -9.267658 ], [ -37.129577, -9.259641 ], [ -37.116133, -9.24051 ], [ -37.105929, -9.239363 ], [ -37.080563, -9.253581 ], [ -37.056859, -9.281367 ], [ -37.06133, -9.303741 ], [ -37.057244, -9.317119 ], [ -37.054998, -9.307026 ], [ -37.045189, -9.31546 ], [ -37.023949, -9.315293 ], [ -37.003024, -9.352191 ], [ -36.976612, -9.360966 ], [ -36.976884, -9.361204 ], [ -36.991747, -9.374182 ], [ -37.02244, -9.369174 ], [ -37.0273, -9.383518 ], [ -37.029877, -9.391916 ], [ -37.033859, -9.403571 ], [ -37.038248, -9.416422 ], [ -37.102858, -9.455908 ], [ -37.105276, -9.462029 ], [ -37.103692, -9.478796 ], [ -37.104026, -9.491568 ], [ -37.114414, -9.496582 ], [ -37.110601, -9.505788 ], [ -37.109357, -9.516032 ], [ -37.119399, -9.536673 ], [ -37.120468, -9.538516 ], [ -37.159441, -9.60188 ], [ -37.16311, -9.607584 ], [ -37.200169, -9.596831 ], [ -37.255017, -9.580901 ], [ -37.23541, -9.611937 ], [ -37.241643, -9.620792 ], [ -37.249466, -9.631907 ], [ -37.253305, -9.631812 ], [ -37.279104, -9.636166 ], [ -37.290022, -9.633868 ], [ -37.302713, -9.635604 ], [ -37.288055, -9.686127 ], [ -37.239328, -9.736412 ], [ -37.248441, -9.738588 ] ] ] } },
{ "type": "Feature", "properties": { "HREG_ID": "27010", "HREG_NAME": "10ª Região de Saúde", "id": "270010", "name": "Água Branca", "description": "Água Branca", "MUN_ID": "270010", "UF": "AL", "MACRO_ID": "2703", "MACRO_NAME": "2ª Macrorregião de Saúde" }, "geometry": { "type": "Polygon", "coordinates": [ [ [ -37.667302, -9.544258 ], [ -37.663379, -9.556818 ], [ -37.649077, -9.577364 ], [ -37.637239, -9.603297 ], [ -37.659018, -9.653706 ], [ -37.656221, -9.669693 ], [ -37.656827, -9.671028 ], [ -37.659981, -9.676842 ], [ -37.666131, -9.66562 ], [ -37.670504, -9.656219 ], [ -37.680466, -9.647614 ], [ -37.686531, -9.644159 ], [ -37.71142, -9.630876 ], [ -37.736702, -9.626567 ], [ -37.746527, -9.625324 ], [ -37.778328, -9.638296 ], [ -37.78474, -9.638197 ], [ -37.787337, -9.632619 ], [ -37.792752, -9.620185 ], [ -37.806719, -9.609682 ], [ -37.8179, -9.592471 ], [ -37.823426, -9.590874 ], [ -37.832762, -9.594464 ], [ -37.837188, -9.58286 ], [ -37.841877, -9.578994 ], [ -37.885821, -9.549744 ], [ -37.893792, -9.539105 ], [ -37.916794, -9.548532 ], [ -37.955945, -9.53366 ], [ -37.98898, -9.526936 ], [ -38.00294, -9.514608 ], [ -37.997598, -9.498861 ], [ -38.010574, -9.478309 ], [ -38.019592, -9.475496 ], [ -38.021804, -9.469569 ], [ -38.029971, -9.46651 ], [ -38.042812, -9.468177 ], [ -38.057204, -9.45878 ], [ -38.067495, -9.458081 ], [ -38.069898, -9.447559 ], [ -38.079357, -9.439965 ], [ -38.108591, -9.4352 ], [ -38.121014, -9.44115 ], [ -38.141576, -9.437341 ], [ -38.154597, -9.442995 ], [ -38.177347, -9.424965 ], [ -38.194494, -9.421519 ], [ -38.196623, -9.420938 ], [ -38.204661, -9.416301 ], [ -38.201516, -9.399963 ], [ -38.193824, -9.393965 ], [ -38.195223, -9.391698 ], [ -38.194124, -9.384514 ], [ -38.19994, -9.379009 ], [ -38.209176, -9.358167 ], [ -38.223245, -9.346486 ], [ -38.237238, -9.329374 ], [ -38.201681, -9.296385 ], [ -38.180327, -9.291257 ], [ -38.176656, -9.288233 ], [ -38.15763, -9.263409 ], [ -38.156019, -9.249224 ], [ -38.156014, -9.248707 ], [ -38.155955, -9.241944 ], [ -38.143557, -9.217785 ], [ -38.118896, -9.201383 ], [ -38.102228, -9.179788 ], [ -38.091937, -9.172305 ], [ -38.078912, -9.170114 ], [ -38.065748, -9.1738 ], [ -38.052395, -9.167399 ], [ -38.04419, -9.168396 ], [ -38.029941, -9.164529 ], [ -38.025437, -9.155087 ], [ -38.010663, -9.155609 ], [ -37.999133, -9.151824 ], [ -37.990637, -9.154957 ], [ -37.979002, -9.147944 ], [ -37.97111, -9.125273 ], [ -37.957218, -9.115211 ], [ -37.953955, -9.109106 ], [ -37.951246, -9.096891 ], [ -37.942334, -9.0918 ], [ -37.93879, -9.082834 ], [ -37.907526, -9.051799 ], [ -37.904583, -9.039817 ], [ -37.889419, -9.034376 ], [ -37.882359, -9.040245 ], [ -37.877912, -9.036537 ], [ -37.874878, -9.024203 ], [ -37.879249, -9.014995 ], [ -37.874137, -9.011096 ], [ -37.866803, -9.011213 ], [ -37.852744, -8.999721 ], [ -37.851928, -8.997278 ], [ -37.84566, -8.984353 ], [ -37.83875, -8.977963 ], [ -37.82565, -8.933819 ], [ -37.825886, -8.932299 ], [ -37.833289, -8.925994 ], [ -37.828149, -8.921368 ], [ -37.820935, -8.91517 ], [ -37.822471, -8.899616 ], [ -37.828658, -8.896693 ], [ -37.828742, -8.893356 ], [ -37.811455, -8.884329 ], [ -37.800884, -8.884295 ], [ -37.792824, -8.875027 ], [ -37.787543, -8.873469 ], [ -37.782318, -8.864771 ], [ -37.775688, -8.862097 ], [ -37.768994, -8.863693 ], [ -37.758494, -8.856134 ], [ -37.74841, -8.869864 ], [ -37.745764, -8.882714 ], [ -37.741248, -8.887243 ], [ -37.734846, -8.887184 ], [ -37.733945, -8.897234 ], [ -37.724218, -8.903674 ], [ -37.726316, -8.905646 ], [ -37.721328, -8.915105 ], [ -37.707532, -8.927382 ], [ -37.702925, -8.937712 ], [ -37.701839, -8.947777 ], [ -37.689745, -8.955738 ], [ -37.683671, -8.967986 ], [ -37.688158, -8.978341 ], [ -37.70301, -8.985729 ], [ -37.701806, -8.988858 ], [ -37.698498, -8.992045 ], [ -37.689122, -8.989881 ], [ -37.685638, -8.998337 ], [ -37.661301, -8.986829 ], [ -37.663717, -8.999126 ], [ -37.658746, -9.006068 ], [ -37.643537, -9.017924 ], [ -37.625792, -9.013956 ], [ -37.611167, -9.005461 ], [ -37.616424, -9.000218 ], [ -37.614222, -8.98874 ], [ -37.60049, -8.975703 ], [ -37.583262, -8.969748 ], [ -37.562068, -8.973535 ], [ -37.546351, -8.961044 ], [ -37.540717, -8.95798 ], [ -37.532059, -8.960916 ], [ -37.529755, -8.962651 ], [ -37.542381, -9.00023 ], [ -37.553567, -9.015467 ], [ -37.554016, -9.016079 ], [ -37.573462, -9.042571 ], [ -37.609811, -9.091393 ], [ -37.618626, -9.09799 ], [ -37.635199, -9.11001 ], [ -37.635506, -9.110413 ], [ -37.649009, -9.128156 ], [ -37.662105, -9.145366 ], [ -37.672503, -9.15795 ], [ -37.690773, -9.175121 ], [ -37.692106, -9.176374 ], [ -37.689662, -9.176981 ], [ -37.625957, -9.19282 ], [ -37.621528, -9.193921 ], [ -37.61805, -9.205273 ], [ -37.623109, -9.209802 ], [ -37.624524, -9.219941 ], [ -37.612547, -9.226248 ], [ -37.610247, -9.232065 ], [ -37.619659, -9.23783 ], [ -37.620467, -9.246707 ], [ -37.612025, -9.249914 ], [ -37.60847, -9.264946 ], [ -37.611108, -9.272411 ], [ -37.60802, -9.280593 ], [ -37.594446, -9.290492 ], [ -37.587446, -9.288406 ], [ -37.585596, -9.295632 ], [ -37.592398, -9.313563 ], [ -37.611259, -9.338327 ], [ -37.618328, -9.357753 ], [ -37.636172, -9.376239 ], [ -37.646459, -9.391438 ], [ -37.647605, -9.401076 ], [ -37.65397, -9.404334 ], [ -37.654601, -9.408425 ], [ -37.655967, -9.407977 ], [ -37.665441, -9.439982 ], [ -37.663858, -9.445177 ], [ -37.670825, -9.461872 ], [ -37.666277, -9.478686 ], [ -37.664745, -9.488568 ], [ -37.67402, -9.49876 ], [ -37.671149, -9.503814 ], [ -37.675826, -9.520829 ], [ -37.671933, -9.53533 ], [ -37.667833, -9.538325 ], [ -37.667302, -9.544258 ] ] ] } }
]
}
