{
"type": "FeatureCollection",
"name": "geojs-53-health_regions",
"crs": { "type": "name", "properties": { "name": "urn:ogc:def:crs:OGC:1.3:CRS84" } },
"features": [
{ "type": "Feature", "properties": { "HREG_ID": "53001", "HREG_NAME": "Distrito Federal", "id": "530010", "name": "Brasília", "description": "Brasília", "MUN_ID": "530010", "UF": "DF", "MACRO_ID": "5302", "MACRO_NAME": "Distrito Federal" }, "geometry": { "type": "Polygon", "coordinates": [ [ [ -47.413960528499999, -15.5477299222 ], [ -47.411801352600001, -15.5478787615 ], [ -47.411016461599999, -15.5470485086 ], [ -47.408910454100003, -15.547605962 ], [ -47.406434902599997, -15.5459517693 ], [ -47.405408426599998, -15.545677738 ], [ -47.404381620099997, -15.545997656100001 ], [ -47.401021532199998, -15.5492853553 ], [ -47.397682230400001, -15.551628287 ], [ -47.3976048627, -15.552588354 ], [ -47.399134893499998, -15.553740053 ], [ -47.3992995073, -15.554716313 ], [ -47.398857329599998, -15.5557095507 ], [ -47.398156884899997, -15.556612426099999 ], [ -47.396461295199998, -15.5574263482 ], [ -47.394438236200003, -15.5576895566 ], [ -47.392608241300003, -15.559495045 ], [ -47.391661066499999, -15.5619827837 ], [ -47.389513939300002, -15.564919937699999 ], [ -47.389188644500003, -15.5669769192 ], [ -47.387960623399998, -15.5671388544 ], [ -47.386994885299998, -15.566452287300001 ], [ -47.384963796299999, -15.5661777993 ], [ -47.3808262238, -15.5664954153 ], [ -47.380020088199998, -15.5669385738 ], [ -47.379103034099998, -15.5727768648 ], [ -47.376577033499998, -15.5753888722 ], [ -47.373798516599997, -15.577381368399999 ], [ -47.371661661799997, -15.577694795599999 ], [ -47.369406104, -15.578768394800001 ], [ -47.3658493386, -15.5777264879 ], [ -47.362301486500002, -15.5775374973 ], [ -47.361352428499998, -15.5781865268 ], [ -47.360964729, -15.5790725197 ], [ -47.3586310592, -15.579702472099999 ], [ -47.356960833099997, -15.580874337099999 ], [ -47.3560451886, -15.580920537500001 ], [ -47.353244506099998, -15.578476998099999 ], [ -47.350766697600001, -15.579727890499999 ], [ -47.3472441686, -15.5793606115 ], [ -47.343920354200002, -15.5812140311 ], [ -47.343376768600002, -15.581841005099999 ], [ -47.341547346399999, -15.5824517668 ], [ -47.333743454, -15.586682319299999 ], [ -47.3318806602, -15.586276698500001 ], [ -47.3296897066, -15.5864981884 ], [ -47.326603936600002, -15.5884806164 ], [ -47.325403515200001, -15.588677115399999 ], [ -47.323407701599997, -15.586075174199999 ], [ -47.322292306900003, -15.5856641737 ], [ -47.321270392099997, -15.5858220158 ], [ -47.318047904099998, -15.587961894099999 ], [ -47.316914171100002, -15.588115436300001 ], [ -47.316546568600003, -15.589093525099999 ], [ -47.316742172399998, -15.5913994574 ], [ -47.315436424600001, -15.593974489800001 ], [ -47.315963748500003, -15.5958322367 ], [ -47.322047358900001, -15.597518193699999 ], [ -47.322997471199997, -15.602818125900001 ], [ -47.325262207800002, -15.609262879299999 ], [ -47.327154333300001, -15.612045050500001 ], [ -47.329357389199998, -15.6194727044 ], [ -47.330550086499997, -15.6212427636 ], [ -47.329800339599998, -15.6219200309 ], [ -47.329460619300001, -15.623186494400001 ], [ -47.331714673, -15.6261754936 ], [ -47.332691027, -15.6294646364 ], [ -47.332466312500003, -15.631498282100001 ], [ -47.330069335499999, -15.6337358356 ], [ -47.330247656, -15.637146424 ], [ -47.328661694, -15.6426150738 ], [ -47.3296344269, -15.644522287499999 ], [ -47.328796807099998, -15.645602072100001 ], [ -47.326296962500003, -15.6473224796 ], [ -47.3261595751, -15.648360540100001 ], [ -47.327293349800001, -15.648818024300001 ], [ -47.3274638559, -15.6498573173 ], [ -47.326271001800002, -15.651528301700001 ], [ -47.3262935427, -15.6525262789 ], [ -47.327208924700003, -15.6528136405 ], [ -47.3287648238, -15.655467179 ], [ -47.328271174699999, -15.658274324900001 ], [ -47.3264608426, -15.659447720899999 ], [ -47.326075962300003, -15.6615214012 ], [ -47.326156785400002, -15.6624771192 ], [ -47.327047917, -15.6629084158 ], [ -47.327988068099998, -15.6646987779 ], [ -47.326219158599997, -15.6660018862 ], [ -47.327044995500003, -15.669036760499999 ], [ -47.326545811800003, -15.6731536779 ], [ -47.327575878200001, -15.675306169200001 ], [ -47.328270255500001, -15.6783370761 ], [ -47.3288746, -15.6793221418 ], [ -47.330827503400002, -15.680336388100001 ], [ -47.331107153799998, -15.681233449400001 ], [ -47.329269503200003, -15.682635983400001 ], [ -47.328684692300001, -15.6845409814 ], [ -47.327794736500003, -15.684900343200001 ], [ -47.327404123699999, -15.686030451500001 ], [ -47.327570747700001, -15.6874730508 ], [ -47.324734644800003, -15.687152534399999 ], [ -47.321324384100002, -15.687865754600001 ], [ -47.321155900100003, -15.686738468 ], [ -47.320265578499999, -15.686280185699999 ], [ -47.319323229799998, -15.6865570541 ], [ -47.316987489299997, -15.6894869565 ], [ -47.316379980500002, -15.6917954875 ], [ -47.3147932782, -15.693508232799999 ], [ -47.312271786099998, -15.694095537300001 ], [ -47.311878535799998, -15.6950458129 ], [ -47.3117922327, -15.697082653300001 ], [ -47.313714565799998, -15.698804127600001 ], [ -47.313684939399998, -15.7028722872 ], [ -47.313163190700003, -15.7050944453 ], [ -47.311933854700001, -15.706720065400001 ], [ -47.312486335499997, -15.7078051249 ], [ -47.313682161899997, -15.708057133400001 ], [ -47.313407691499997, -15.709027190500001 ], [ -47.313741915900003, -15.7099367033 ], [ -47.315130263, -15.7114353232 ], [ -47.314689237800003, -15.714639247199999 ], [ -47.318143915599997, -15.7170309038 ], [ -47.317767258099998, -15.718128137100001 ], [ -47.318602269599999, -15.718539872299999 ], [ -47.319437748399999, -15.7198491763 ], [ -47.319020796099998, -15.7217771558 ], [ -47.317548597, -15.7234043847 ], [ -47.317103102200001, -15.7258885232 ], [ -47.3174620088, -15.7268428219 ], [ -47.316389674100002, -15.728372586300001 ], [ -47.317103211400003, -15.7289881852 ], [ -47.3183210945, -15.7291690098 ], [ -47.318688406500002, -15.730464979100001 ], [ -47.318407041500002, -15.7324977021 ], [ -47.317434492300002, -15.732862513700001 ], [ -47.3164891578, -15.732625287899999 ], [ -47.316354224900003, -15.735030823900001 ], [ -47.315353502199997, -15.7356562114 ], [ -47.3148525589, -15.7347065647 ], [ -47.313965826199997, -15.7353003778 ], [ -47.314018510899999, -15.7362264852 ], [ -47.312488608199999, -15.737643432200001 ], [ -47.31328391, -15.7382426757 ], [ -47.312466214499999, -15.7388655331 ], [ -47.3122246772, -15.7399381012 ], [ -47.312935928599998, -15.7416470624 ], [ -47.31368727, -15.742306064799999 ], [ -47.313073363699999, -15.7447958126 ], [ -47.3137185024, -15.7467839782 ], [ -47.314659400799997, -15.746561097300001 ], [ -47.315269503700002, -15.745608470900001 ], [ -47.3162398471, -15.7453415556 ], [ -47.3164921264, -15.7464723078 ], [ -47.316098331799999, -15.747376726200001 ], [ -47.316852547499998, -15.7482900785 ], [ -47.3167365973, -15.750370952900001 ], [ -47.317850004, -15.7517184274 ], [ -47.318164041300001, -15.754124175899999 ], [ -47.321517538199998, -15.7534995161 ], [ -47.321100582, -15.754853369 ], [ -47.319932173700003, -15.7554359037 ], [ -47.319551148199999, -15.7565195098 ], [ -47.320296039699997, -15.7574334822 ], [ -47.322326088, -15.7576220267 ], [ -47.322881690499997, -15.758841994699999 ], [ -47.322820010800001, -15.7601518694 ], [ -47.323903693, -15.7604445433 ], [ -47.324605487600003, -15.7615629485 ], [ -47.325270488900003, -15.763460999899999 ], [ -47.324989052900001, -15.764639298100001 ], [ -47.325384152, -15.765459056699999 ], [ -47.326296047900001, -15.7646431781 ], [ -47.326655647700001, -15.7656343606 ], [ -47.328302382700002, -15.766950463800001 ], [ -47.327767951299997, -15.769009650299999 ], [ -47.3267950364, -15.7696358912 ], [ -47.3264355628, -15.7706312217 ], [ -47.327763902, -15.7717777119 ], [ -47.328717825, -15.773351246700001 ], [ -47.329744210699999, -15.7734004847 ], [ -47.329410436400003, -15.7790156525 ], [ -47.330494194400003, -15.7789678134 ], [ -47.331652267800003, -15.779784769600001 ], [ -47.333819867099997, -15.780056546699999 ], [ -47.334830086799997, -15.784041526199999 ], [ -47.3357738184, -15.7845338854 ], [ -47.336572316599998, -15.7858097898 ], [ -47.338661720799998, -15.790429637300001 ], [ -47.337905305200003, -15.791313174200001 ], [ -47.337791721099997, -15.7933223231 ], [ -47.338295719400001, -15.7941831507 ], [ -47.340273219099998, -15.7939639461 ], [ -47.340566302799999, -15.794849797 ], [ -47.340132928700001, -15.7956775863 ], [ -47.340882490600002, -15.7964542461 ], [ -47.342934911500002, -15.7956883258 ], [ -47.344183365299997, -15.797454134900001 ], [ -47.3432960596, -15.7993948277 ], [ -47.345298528299999, -15.8024289157 ], [ -47.3460458837, -15.8030177202 ], [ -47.347052923600003, -15.802778822300001 ], [ -47.348154070900001, -15.803343348 ], [ -47.347512440300001, -15.804114502699999 ], [ -47.346600643599999, -15.8074552262 ], [ -47.347743700099997, -15.8075969457 ], [ -47.348545850400001, -15.8070571021 ], [ -47.349132634299998, -15.8090965945 ], [ -47.351930568100002, -15.811770339400001 ], [ -47.351158128900003, -15.8122580844 ], [ -47.350767620500001, -15.813344174799999 ], [ -47.352853772700001, -15.8138039034 ], [ -47.353017018599999, -15.814777464500001 ], [ -47.351712029300003, -15.8167234543 ], [ -47.353765357, -15.817900098599999 ], [ -47.353678702, -15.818804958 ], [ -47.354847556700001, -15.8190732414 ], [ -47.354432025, -15.820067829699999 ], [ -47.353433034600002, -15.8206565006 ], [ -47.353433180400003, -15.8217904259 ], [ -47.354437796600003, -15.82219748 ], [ -47.356519474899997, -15.8213443408 ], [ -47.356657400899998, -15.822292877400001 ], [ -47.3557857777, -15.8226428338 ], [ -47.356981562800001, -15.823286615500001 ], [ -47.3579923096, -15.8228806861 ], [ -47.358626436500003, -15.8200328014 ], [ -47.359631428299998, -15.820172084499999 ], [ -47.359767740700001, -15.821398217800001 ], [ -47.358933074900001, -15.8223872627 ], [ -47.3608225889, -15.8234070424 ], [ -47.361375014899998, -15.8244751125 ], [ -47.3610189, -15.8262784012 ], [ -47.362327048300003, -15.827056769 ], [ -47.364658161500003, -15.827199523499999 ], [ -47.3655184283, -15.827737834 ], [ -47.3644929684, -15.830814672600001 ], [ -47.364847821700003, -15.8316709772 ], [ -47.363269019100002, -15.8333921676 ], [ -47.364098572800003, -15.834297954 ], [ -47.364157190299998, -15.8362414556 ], [ -47.364991208699998, -15.836698115200001 ], [ -47.366180500699997, -15.8352067785 ], [ -47.366880944499997, -15.8360628105 ], [ -47.3657083863, -15.8375564571 ], [ -47.366293549799998, -15.838282294300001 ], [ -47.367236828, -15.8382840208 ], [ -47.367574744400002, -15.8402270402 ], [ -47.369036014099997, -15.841095425300001 ], [ -47.367517585599998, -15.8414005837 ], [ -47.368125258399999, -15.8467949928 ], [ -47.369798045800003, -15.848192772499999 ], [ -47.368686225499999, -15.848686399 ], [ -47.367853046100002, -15.848288163399999 ], [ -47.366958506899998, -15.8487353755 ], [ -47.366848259900003, -15.8541160285 ], [ -47.368764459499999, -15.854074600600001 ], [ -47.369153942, -15.855299474300001 ], [ -47.368162608299997, -15.8559342258 ], [ -47.368822547900002, -15.8608432411 ], [ -47.369319438600002, -15.861613135100001 ], [ -47.372328166899997, -15.863293308899999 ], [ -47.372295166800001, -15.864327424500001 ], [ -47.369237026299999, -15.8646926073 ], [ -47.369490407699999, -15.865823491800001 ], [ -47.371792946100001, -15.869667445199999 ], [ -47.370156678599997, -15.870794718899999 ], [ -47.370134367200002, -15.8718722854 ], [ -47.372314559199999, -15.872473293200001 ], [ -47.372151436899998, -15.873515128299999 ], [ -47.371022902299998, -15.8734888559 ], [ -47.370964509799997, -15.874413472200001 ], [ -47.371821799499997, -15.8764981326 ], [ -47.373905604400001, -15.8795806833 ], [ -47.374632192, -15.880212916 ], [ -47.378792965099997, -15.8803584158 ], [ -47.378960168, -15.8813267508 ], [ -47.375680445299999, -15.8824291941 ], [ -47.377183238800001, -15.886194932800001 ], [ -47.3769971535, -15.887139034400001 ], [ -47.375017957200001, -15.886955668600001 ], [ -47.375961505200003, -15.8900843904 ], [ -47.375606506499999, -15.890937082600001 ], [ -47.374653728299997, -15.8909610754 ], [ -47.374155618300001, -15.8930125549 ], [ -47.374790665900001, -15.8950096023 ], [ -47.375658597600001, -15.895350536600001 ], [ -47.375264191600003, -15.896236169 ], [ -47.373433481699998, -15.8968192476 ], [ -47.373821822799997, -15.897766468 ], [ -47.373075912300003, -15.8988570287 ], [ -47.371933988899997, -15.898921056400001 ], [ -47.370739209900002, -15.8997112834 ], [ -47.372270678299998, -15.903738522699999 ], [ -47.372271328700002, -15.906274229299999 ], [ -47.3662358041, -15.9076885597 ], [ -47.364183006200001, -15.9076348656 ], [ -47.363237528399999, -15.908540460099999 ], [ -47.362878799500002, -15.909446001399999 ], [ -47.363966680799997, -15.909946466 ], [ -47.365976109899997, -15.909587318 ], [ -47.366162208200002, -15.910489736200001 ], [ -47.364929603100002, -15.9121691896 ], [ -47.364931467600002, -15.9132465856 ], [ -47.365710131, -15.9142848114 ], [ -47.366595986100002, -15.914905797 ], [ -47.367127614600001, -15.9172312667 ], [ -47.365243972099996, -15.920489312699999 ], [ -47.364269865200001, -15.9205323272 ], [ -47.3624365525, -15.919486116 ], [ -47.3613205491, -15.919327105700001 ], [ -47.359350686399999, -15.9243722831 ], [ -47.359770921500001, -15.925228851 ], [ -47.360658153899998, -15.925525546 ], [ -47.360182388, -15.9266341496 ], [ -47.360687543499999, -15.927494215 ], [ -47.360550486699999, -15.9285323116 ], [ -47.361541304, -15.928805221399999 ], [ -47.3614063371, -15.9297517341 ], [ -47.360570011500002, -15.930205064100001 ], [ -47.3603477622, -15.9312477415 ], [ -47.3622160404, -15.9315483971 ], [ -47.362213963400002, -15.9304790856 ], [ -47.363047721699999, -15.929848659699999 ], [ -47.363907556100003, -15.930664761199999 ], [ -47.362794703399999, -15.9330127277 ], [ -47.363792463199999, -15.9333307747 ], [ -47.364960586899997, -15.932790538800001 ], [ -47.366079156200001, -15.933157197 ], [ -47.366794514200002, -15.9341045577 ], [ -47.371243102299999, -15.935246881499999 ], [ -47.372073439499999, -15.936108793200001 ], [ -47.371741563199997, -15.937105021400001 ], [ -47.368712024799997, -15.9362846191 ], [ -47.368127114700002, -15.937047568 ], [ -47.368515164800002, -15.9380028951 ], [ -47.370411283899998, -15.938906379400001 ], [ -47.370099510899998, -15.9398591867 ], [ -47.3681821359, -15.9398544828 ], [ -47.367100820200001, -15.940396481200001 ], [ -47.367323244300003, -15.9413018189 ], [ -47.368296048300003, -15.941556201199999 ], [ -47.367768158600001, -15.944469288100001 ], [ -47.366741337800001, -15.9461900235 ], [ -47.366955411799999, -15.947319741799999 ], [ -47.368736331400001, -15.946053368699999 ], [ -47.369209634599997, -15.9470023239 ], [ -47.368569406200002, -15.9516183003 ], [ -47.370152299300003, -15.952727897700001 ], [ -47.369826400599997, -15.955493518899999 ], [ -47.372069557899998, -15.9557688015 ], [ -47.373067774100001, -15.9566709185 ], [ -47.372572372, -15.957805904300001 ], [ -47.371542374400001, -15.9584321315 ], [ -47.371400573700001, -15.9596129712 ], [ -47.371792804400002, -15.9604705002 ], [ -47.375630594100002, -15.9617020826 ], [ -47.376318551, -15.9623781617 ], [ -47.376325034600001, -15.9632858958 ], [ -47.3751552198, -15.963645482800001 ], [ -47.373162215400001, -15.966263083 ], [ -47.373934736199999, -15.9680290014 ], [ -47.374880406800003, -15.968571005599999 ], [ -47.3757363239, -15.9680104372 ], [ -47.376676145600001, -15.9684183722 ], [ -47.376434694, -15.969616842100001 ], [ -47.3747429963, -15.9707502734 ], [ -47.375430831, -15.9717417522 ], [ -47.376573614800002, -15.972173874599999 ], [ -47.377376049799999, -15.9733746265 ], [ -47.375682705499997, -15.974302238 ], [ -47.375850623799998, -15.975726186599999 ], [ -47.376653506, -15.976856871500001 ], [ -47.376458592699997, -15.977947139099999 ], [ -47.374411018899998, -15.977713743600001 ], [ -47.373628224699999, -15.978435573 ], [ -47.373792594400001, -15.9794290069 ], [ -47.371800734899999, -15.979206273899999 ], [ -47.371073721800002, -15.979964840499999 ], [ -47.372328599600003, -15.981558655900001 ], [ -47.374404929900003, -15.981828007600001 ], [ -47.373995033100002, -15.984359244 ], [ -47.375410926599997, -15.986172744099999 ], [ -47.374350160200002, -15.986310983 ], [ -47.3737194156, -15.9856276381 ], [ -47.372912078699997, -15.986581425200001 ], [ -47.370988084899999, -15.9941340336 ], [ -47.369102503699999, -15.9934921707 ], [ -47.368126029199999, -15.993623963499999 ], [ -47.367904795500003, -15.996070188 ], [ -47.3687991639, -15.998981931699999 ], [ -47.368576064499997, -15.9999320326 ], [ -47.3682113411, -16.001488794099998 ], [ -47.367187837099998, -16.001628111700001 ], [ -47.365353769099997, -16.000304890300001 ], [ -47.363623811499998, -16.000296714099999 ], [ -47.3636377443, -16.000412153900001 ], [ -47.364017078800003, -16.0036594145 ], [ -47.362240057400001, -16.005097303700001 ], [ -47.361048441299999, -16.0052314209 ], [ -47.358963021599997, -16.004412585699999 ], [ -47.358206872399997, -16.005226773099999 ], [ -47.359411133499997, -16.007274680599998 ], [ -47.356297887799997, -16.0075401902 ], [ -47.352232580900001, -16.006074577700002 ], [ -47.349408560800001, -16.006160201099998 ], [ -47.347352168199997, -16.005565888500001 ], [ -47.346520906, -16.0061072548 ], [ -47.347098404199997, -16.0070127585 ], [ -47.347076630700002, -16.007920478199999 ], [ -47.346293011, -16.008462408500002 ], [ -47.344880198399999, -16.008500662599999 ], [ -47.344324190499997, -16.0108546845 ], [ -47.340049631500001, -16.010704989499999 ], [ -47.336910092300002, -16.0115605891 ], [ -47.336773869799998, -16.01278732 ], [ -47.339771238499999, -16.0140118554 ], [ -47.339600099800002, -16.015192592199998 ], [ -47.338710369700003, -16.015550609 ], [ -47.338881103399999, -16.016599026 ], [ -47.339686306399997, -16.017684082399999 ], [ -47.339096670700002, -16.018546422099998 ], [ -47.335794767599999, -16.016360059899998 ], [ -47.3347921664, -16.0164019 ], [ -47.334043535900001, -16.020125485499999 ], [ -47.331577687299998, -16.021153588 ], [ -47.329937052699997, -16.021292494499999 ], [ -47.3293193413, -16.022153922200001 ], [ -47.3295441689, -16.024100685899999 ], [ -47.328800753899998, -16.024778528900001 ], [ -47.327270392400003, -16.025001674599999 ], [ -47.327968181700001, -16.026810313 ], [ -47.325185168300003, -16.027533800400001 ], [ -47.3246345807, -16.028343368600002 ], [ -47.323543461500002, -16.028570177799999 ], [ -47.3239049365, -16.0262579121 ], [ -47.323545638500001, -16.025371689699998 ], [ -47.321402282800001, -16.0257537281 ], [ -47.3207131379, -16.026792597099998 ], [ -47.3211041916, -16.029608811799999 ], [ -47.320682262, -16.0305121904 ], [ -47.3187703965, -16.0303721511 ], [ -47.316989134099998, -16.0313583173 ], [ -47.316778093, -16.032496420299999 ], [ -47.318125244100003, -16.034034975499999 ], [ -47.319630976600003, -16.034271173299999 ], [ -47.318686331899997, -16.036238310800002 ], [ -47.316903035800003, -16.036473282199999 ], [ -47.311950008499998, -16.034847237200001 ], [ -47.308570954099999, -16.035635531400001 ], [ -47.308743031399999, -16.0370568218 ], [ -47.310711513, -16.039861734 ], [ -47.310958321900003, -16.0408666686 ], [ -47.310042748100003, -16.041404297500002 ], [ -47.308756129199999, -16.041128994600001 ], [ -47.308156294, -16.041646759 ], [ -47.3082470409, -16.042370129199998 ], [ -47.309666293799999, -16.043318897 ], [ -47.309084567799999, -16.044774306299999 ], [ -47.307761350699998, -16.045310949200001 ], [ -47.309191134800002, -16.0471728775 ], [ -47.308375466100003, -16.0500827947 ], [ -47.415220054499997, -16.050176876799998 ], [ -47.617083095, -16.050208630299998 ], [ -47.673502460100003, -16.050183481200001 ], [ -47.683040953099997, -16.0501774741 ], [ -47.738510453099998, -16.050371778900001 ], [ -47.814077239699998, -16.050613799099999 ], [ -47.889575018199999, -16.0508292124 ], [ -47.938787974599997, -16.050954541100001 ], [ -47.938741324799999, -16.050828214100001 ], [ -47.9813527823, -16.0509782699 ], [ -48.033994851499997, -16.051151613399998 ], [ -48.05024937, -16.051202902899998 ], [ -48.064865187, -16.051247381700001 ], [ -48.086243443800001, -16.051311204800001 ], [ -48.144618444499997, -16.051266801299999 ], [ -48.259464901599998, -16.051131916900001 ], [ -48.278683859099999, -16.051103745900001 ], [ -48.278325631100003, -16.048988582700002 ], [ -48.278518062899998, -16.044228109900001 ], [ -48.277988612800002, -16.042770687499999 ], [ -48.277295791299998, -16.041501491599998 ], [ -48.276936559799999, -16.039323319699999 ], [ -48.276933856500001, -16.038144451600001 ], [ -48.275768733600003, -16.036393890300001 ], [ -48.274773725700001, -16.035917526199999 ], [ -48.273655723600001, -16.0357537334 ], [ -48.273071704700001, -16.033624485299999 ], [ -48.272791981, -16.030988619799999 ], [ -48.271376495799998, -16.029169315099999 ], [ -48.271187468699999, -16.028262653599999 ], [ -48.271184170399998, -16.027039687599999 ], [ -48.271658626200001, -16.024866593300001 ], [ -48.271654943500003, -16.023362867 ], [ -48.270389420900003, -16.021955185 ], [ -48.270186660699999, -16.020777310500002 ], [ -48.270185625300002, -16.0195076151 ], [ -48.270525471600003, -16.017105085600001 ], [ -48.270939834300002, -16.0160173941 ], [ -48.271322774399998, -16.014067721699998 ], [ -48.271182906299998, -16.012749345 ], [ -48.271603301200003, -16.011482741 ], [ -48.272213067099997, -16.010392132 ], [ -48.272436986800003, -16.009164398700001 ], [ -48.272411456, -16.008030824199999 ], [ -48.271716211099999, -16.0059013475 ], [ -48.269653470599998, -16.003808452200001 ], [ -48.268682805300003, -16.0021269818 ], [ -48.268353127899999, -16.0011707026 ], [ -48.266908484799998, -15.999461348100001 ], [ -48.267244635099999, -15.998165520100001 ], [ -48.2668817136, -15.997130074499999 ], [ -48.265663329600002, -15.995288158299999 ], [ -48.264429560700002, -15.994343861400001 ], [ -48.264021263399997, -15.993228927100001 ], [ -48.264157900199997, -15.9910990657 ], [ -48.263467589900003, -15.9870684035 ], [ -48.263157093, -15.986161231100001 ], [ -48.261714381300003, -15.984486131900001 ], [ -48.2611016607, -15.9835592351 ], [ -48.260382188299999, -15.982901248899999 ], [ -48.2599380865, -15.981764673600001 ], [ -48.26057693, -15.9790011917 ], [ -48.259924314400003, -15.977280495700001 ], [ -48.259293701600001, -15.976195659 ], [ -48.259024510300002, -15.9751519158 ], [ -48.258926450099999, -15.973319976299999 ], [ -48.259104904300003, -15.9710337719 ], [ -48.259492078, -15.9695854421 ], [ -48.260800114, -15.967632456600001 ], [ -48.260659368100001, -15.966638916100001 ], [ -48.259321529600001, -15.965090807299999 ], [ -48.258382257599997, -15.9633301215 ], [ -48.2582093093, -15.9621557652 ], [ -48.257553119100002, -15.961247525799999 ], [ -48.256519749900001, -15.9611121137 ], [ -48.255943083399998, -15.9600701117 ], [ -48.255437394099999, -15.9577549555 ], [ -48.254690296, -15.9564645801 ], [ -48.252654736700002, -15.9547458707 ], [ -48.252099016099997, -15.953658535700001 ], [ -48.2518577592, -15.9526191449 ], [ -48.252462384, -15.9503946709 ], [ -48.252883321600002, -15.9493980578 ], [ -48.252767626, -15.9482153323 ], [ -48.252185569399998, -15.9473630542 ], [ -48.251158929399999, -15.9469947669 ], [ -48.250691167500001, -15.9460015532 ], [ -48.251157154300003, -15.944736196499999 ], [ -48.251979070700003, -15.943309321199999 ], [ -48.252275123399997, -15.942562237700001 ], [ -48.2522750794, -15.942302191 ], [ -48.252274426200003, -15.9418999579 ], [ -48.2524706206, -15.940658025899999 ], [ -48.252052891600002, -15.9363107492 ], [ -48.252552135599998, -15.9354493783 ], [ -48.253382781, -15.9348595411 ], [ -48.254551765499997, -15.934494627499999 ], [ -48.255412015799998, -15.933816482899999 ], [ -48.256186621499999, -15.9328652179 ], [ -48.256693032100003, -15.9318825442 ], [ -48.257686345, -15.931681216499999 ], [ -48.258302606, -15.9308103251 ], [ -48.258466526399999, -15.9299112494 ], [ -48.259104239599999, -15.929172295200001 ], [ -48.260749084399997, -15.928532897 ], [ -48.26141262, -15.928198636899999 ], [ -48.262470744399998, -15.928082680299999 ], [ -48.263766153, -15.9285578863 ], [ -48.265298723699999, -15.9304161007 ], [ -48.265655770599999, -15.931362271899999 ], [ -48.266741904299998, -15.932001998100001 ], [ -48.267766522700001, -15.932407036900001 ], [ -48.270629171, -15.932311784 ], [ -48.272748358299999, -15.931682134 ], [ -48.273847944499998, -15.931061511 ], [ -48.275354244399999, -15.930726077499999 ], [ -48.276325158299997, -15.9300957397 ], [ -48.275764836500002, -15.927786339300001 ], [ -48.276213094600003, -15.9268074508 ], [ -48.277075436399997, -15.9263803004 ], [ -48.276442993099998, -15.924339851199999 ], [ -48.276521801, -15.9221913049 ], [ -48.275690424899999, -15.921529566 ], [ -48.272863407, -15.920541567400001 ], [ -48.272578569099998, -15.919584713300001 ], [ -48.271857970399999, -15.918674838099999 ], [ -48.271466085199997, -15.917638670800001 ], [ -48.271157591600002, -15.914688054599999 ], [ -48.270714855400001, -15.913830513500001 ], [ -48.270190251099997, -15.911252124200001 ], [ -48.270689721399997, -15.9101135261 ], [ -48.271572679899997, -15.909615837 ], [ -48.272716975100003, -15.9094552832 ], [ -48.273688193, -15.9091389813 ], [ -48.274514757, -15.908323944 ], [ -48.275323042300002, -15.9078233642 ], [ -48.2769113214, -15.9058766089 ], [ -48.276601471399999, -15.904878607900001 ], [ -48.275854276600001, -15.904247906 ], [ -48.275295681499998, -15.9035222956 ], [ -48.275408958699998, -15.902526458500001 ], [ -48.2767116188, -15.901030179599999 ], [ -48.276296155799997, -15.898848801 ], [ -48.274242343600001, -15.898176447199999 ], [ -48.274410712799998, -15.897181164499999 ], [ -48.274994537300003, -15.8963588083 ], [ -48.276049324299997, -15.8960905715 ], [ -48.276352232500003, -15.8952257088 ], [ -48.276046167899999, -15.894226012800001 ], [ -48.273989367299997, -15.8926069599 ], [ -48.274992179199998, -15.892128589 ], [ -48.2761581018, -15.891926264 ], [ -48.276768940300002, -15.891105508100001 ], [ -48.276327471599998, -15.8902030281 ], [ -48.275240418800003, -15.8893375236 ], [ -48.272494629199997, -15.8837221271 ], [ -48.272187530499998, -15.8823642738 ], [ -48.271744292199998, -15.881228691700001 ], [ -48.2720224268, -15.8802812956 ], [ -48.272850182699997, -15.879781206300001 ], [ -48.273606521399998, -15.879098362900001 ], [ -48.274629388500003, -15.8789642417 ], [ -48.275664112, -15.878378706499999 ], [ -48.275524363599999, -15.8773770999 ], [ -48.275657912200003, -15.8762900079 ], [ -48.276325677800003, -15.875435645 ], [ -48.277097712699998, -15.8748899708 ], [ -48.277655529500002, -15.8736628695 ], [ -48.2780438339, -15.872484394100001 ], [ -48.2780440931, -15.871485571799999 ], [ -48.277464523299997, -15.870578570899999 ], [ -48.276858913600002, -15.868843027600001 ], [ -48.277605750100001, -15.8681635033 ], [ -48.278370927, -15.8680567598 ], [ -48.278909196800001, -15.8679809374 ], [ -48.279795701399998, -15.867679413899999 ], [ -48.279963914500001, -15.866685906500001 ], [ -48.279775537100001, -15.865421163900001 ], [ -48.279435690900002, -15.8645582694 ], [ -48.279850531199997, -15.863397577500001 ], [ -48.279992006, -15.862358373399999 ], [ -48.279660799, -15.8612230537 ], [ -48.279854451600002, -15.8603201988 ], [ -48.281490824800002, -15.859228507599999 ], [ -48.281351704499997, -15.855923299400001 ], [ -48.281716169299997, -15.8549241444 ], [ -48.284103331399997, -15.854428950300001 ], [ -48.284321282800001, -15.8532927595 ], [ -48.284190257900001, -15.852343571500001 ], [ -48.283491788299997, -15.850256464199999 ], [ -48.2839099244, -15.848314762099999 ], [ -48.284268464199997, -15.8472263538 ], [ -48.284514901, -15.845775059099999 ], [ -48.285215669099998, -15.845101464800001 ], [ -48.286103772399997, -15.844772029 ], [ -48.2866556285, -15.8426898422 ], [ -48.286241298500002, -15.8418511027 ], [ -48.285243338900003, -15.841473972899999 ], [ -48.28463135, -15.8406570419 ], [ -48.285161074599998, -15.8397890843 ], [ -48.286020013700004, -15.8374800917 ], [ -48.285941341200001, -15.836263221499999 ], [ -48.285271284899999, -15.835220709 ], [ -48.285017034200003, -15.834269191200001 ], [ -48.283050183, -15.831593618099999 ], [ -48.282155517200003, -15.8291459432 ], [ -48.281019877, -15.823986099300001 ], [ -48.280545376, -15.8230306083 ], [ -48.277028039299999, -15.8177587959 ], [ -48.2742932074, -15.8151710521 ], [ -48.272354097, -15.813770380399999 ], [ -48.271218123899999, -15.812002963199999 ], [ -48.270826198599998, -15.8110019505 ], [ -48.270246116, -15.810050886799999 ], [ -48.268742169100001, -15.808419578200001 ], [ -48.268274039, -15.8074723548 ], [ -48.267462998699997, -15.8064342389 ], [ -48.266687919, -15.8074288854 ], [ -48.265802321, -15.806749638699999 ], [ -48.265049138400002, -15.8056140577 ], [ -48.264244246799997, -15.8050530074 ], [ -48.263164810399999, -15.804889660400001 ], [ -48.262269175500002, -15.8045331796 ], [ -48.260432635199997, -15.803440194 ], [ -48.259744275899997, -15.8027211299 ], [ -48.2578855342, -15.8013576024 ], [ -48.256687349099998, -15.801201005099999 ], [ -48.254492057599997, -15.801206220599999 ], [ -48.252157667799999, -15.800550889 ], [ -48.251162747, -15.8000747848 ], [ -48.249106483200002, -15.8001825898 ], [ -48.2491618313, -15.7991843619 ], [ -48.248959086, -15.7981010522 ], [ -48.247993957200002, -15.7985516243 ], [ -48.2468507245, -15.7983676344 ], [ -48.246655998100003, -15.7969687067 ], [ -48.245708177600001, -15.796511824 ], [ -48.244461186800002, -15.796694909499999 ], [ -48.2427102551, -15.798186504 ], [ -48.241541689500004, -15.798237567199999 ], [ -48.2410189876, -15.7972439019 ], [ -48.240988094800002, -15.7920764566 ], [ -48.240245746699998, -15.7912560627 ], [ -48.239242529599998, -15.7910748402 ], [ -48.2387706982, -15.790263378500001 ], [ -48.2380517088, -15.7879940325 ], [ -48.238270734300002, -15.786821980899999 ], [ -48.238265533400003, -15.785688105 ], [ -48.237829242799997, -15.7842819212 ], [ -48.236742938200003, -15.7837394907 ], [ -48.235210207500003, -15.7834660136 ], [ -48.2343200575, -15.7829206512 ], [ -48.233657664500001, -15.7822454289 ], [ -48.233291793100001, -15.7814187686 ], [ -48.233018090400002, -15.780798792100001 ], [ -48.232689309, -15.7781708415 ], [ -48.2320997976, -15.777263599799999 ], [ -48.231079071300002, -15.7767147896 ], [ -48.229715226400003, -15.7764466491 ], [ -48.227602312199998, -15.774545420400001 ], [ -48.224551449400003, -15.7725033393 ], [ -48.2229111308, -15.769084961600001 ], [ -48.219994899600003, -15.7676312616 ], [ -48.2196926998, -15.7667343047 ], [ -48.2188825689, -15.7656430714 ], [ -48.216935414, -15.763565332800001 ], [ -48.215923477799997, -15.7622177286 ], [ -48.215127407300002, -15.761158356399999 ], [ -48.213686341699997, -15.7599325682 ], [ -48.2131011301, -15.759206282599999 ], [ -48.212487898600003, -15.7581193526 ], [ -48.212297180599997, -15.756585620599999 ], [ -48.2118445511, -15.7554975408 ], [ -48.211603488500003, -15.7540929439 ], [ -48.209995661900003, -15.7505584725 ], [ -48.207413909800003, -15.7477918254 ], [ -48.206464858, -15.7457134882 ], [ -48.205628895799997, -15.741003681500001 ], [ -48.206301121899997, -15.738961936100001 ], [ -48.206439595699997, -15.7367495151 ], [ -48.206046131599997, -15.7342045178 ], [ -48.204824377, -15.729898411300001 ], [ -48.204716066300001, -15.727139622099999 ], [ -48.205135292800001, -15.7258199772 ], [ -48.205327873, -15.7239355965 ], [ -48.206494585, -15.719002508799999 ], [ -48.207050665799997, -15.717890709600001 ], [ -48.207771501300002, -15.7171890456 ], [ -48.211327039399997, -15.714833771 ], [ -48.212629833699999, -15.713026339600001 ], [ -48.213822364599999, -15.712112146300001 ], [ -48.217682664800002, -15.7075891247 ], [ -48.218740386199997, -15.7074460348 ], [ -48.2212445706, -15.7080329536 ], [ -48.223962614500003, -15.708285363 ], [ -48.226162600400002, -15.7087391575 ], [ -48.227795453900001, -15.7087200286 ], [ -48.229907606799998, -15.7090788017 ], [ -48.232293039299996, -15.709080327200001 ], [ -48.233187359900001, -15.7085099729 ], [ -48.236550096499997, -15.708075538 ], [ -48.237632519899996, -15.707717952299999 ], [ -48.238602213199997, -15.707717318 ], [ -48.239334894499997, -15.7069870235 ], [ -48.240382512499998, -15.706539427699999 ], [ -48.240907018800002, -15.7054464426 ], [ -48.241327888900003, -15.7040897946 ], [ -48.2414925737, -15.7021865456 ], [ -48.240686644100002, -15.698065033500001 ], [ -48.240688955400003, -15.6966578135 ], [ -48.240939942600001, -15.6956656223 ], [ -48.240746589499999, -15.6931204277 ], [ -48.2410814781, -15.690639472200001 ], [ -48.241720116400003, -15.6898652923 ], [ -48.242236080200001, -15.688708179200001 ], [ -48.2419964491, -15.687640137600001 ], [ -48.2406064929, -15.6853353207 ], [ -48.240266957700001, -15.6834737427 ], [ -48.239766787500002, -15.682246810100001 ], [ -48.237989350699998, -15.674215461299999 ], [ -48.237324321599999, -15.6719503543 ], [ -48.236298094799999, -15.6699538194 ], [ -48.235745182499997, -15.6680488717 ], [ -48.234877501600003, -15.664066164399999 ], [ -48.234735971799999, -15.660805223900001 ], [ -48.2344629854, -15.658601690499999 ], [ -48.236107088099999, -15.6492059636 ], [ -48.235245385, -15.6446763653 ], [ -48.232549285499999, -15.638692397 ], [ -48.228573748800002, -15.632758624699999 ], [ -48.2235482408, -15.627344407500001 ], [ -48.218525184199997, -15.622182156599999 ], [ -48.211126935199999, -15.620873293300001 ], [ -48.205244738600001, -15.6210517381 ], [ -48.199879738699998, -15.621414575 ], [ -48.199398825800003, -15.6158784254 ], [ -48.198858054399999, -15.609652409200001 ], [ -48.200101592199999, -15.499723296299999 ], [ -48.052793627900002, -15.4997157279 ], [ -48.035699071300002, -15.4997441146 ], [ -47.978616756599997, -15.499830704900001 ], [ -47.852537788200003, -15.4999705288 ], [ -47.771611081300001, -15.500022895600001 ], [ -47.688310458300002, -15.5000458312 ], [ -47.6166182435, -15.500039467400001 ], [ -47.523785702700003, -15.499998361899999 ], [ -47.500051465399999, -15.49998171 ], [ -47.4955240253, -15.499850224799999 ], [ -47.495534923500003, -15.499948504200001 ], [ -47.492645432800003, -15.4999457503 ], [ -47.416912507699998, -15.499864610099999 ], [ -47.417294880699998, -15.546381263700001 ], [ -47.415823027800002, -15.546356447799999 ], [ -47.413960528499999, -15.5477299222 ] ] ] } }
]
}
