{
"type": "FeatureCollection",
"name": "geojs-24-macro_regions",
"crs": { "type": "name", "properties": { "name": "urn:ogc:def:crs:OGC:1.3:CRS84" } },
"features": [
{ "type": "Feature", "properties": { "MACRO_ID": "2401", "MACRO_NAME": "Macrorregião II", "id": "240020", "name": "Açu", "description": "Açu", "MUN_ID": "240020", "UF": "RN", "HREG_ID": "24008", "HREG_NAME": "8ª Região de Saúde - Acu" }, "geometry": { "type": "Polygon", "coordinates": [ [ [ -38.269496, -6.494042 ], [ -38.28837, -6.505218 ], [ -38.293678, -6.489003 ], [ -38.297161, -6.486808 ], [ -38.308564, -6.489128 ], [ -38.311658, -6.488474 ], [ -38.312144, -6.487735 ], [ -38.31246, -6.48788 ], [ -38.315634, -6.482021 ], [ -38.317905, -6.473376 ], [ -38.328087, -6.460257 ], [ -38.33244, -6.457792 ], [ -38.338974, -6.459727 ], [ -38.343451, -6.456253 ], [ -38.354868, -6.456823 ], [ -38.360625, -6.461589 ], [ -38.36344, -6.453243 ], [ -38.373312, -6.455382 ], [ -38.374769, -6.436981 ], [ -38.381587, -6.431659 ], [ -38.382617, -6.424356 ], [ -38.387835, -6.418551 ], [ -38.391198, -6.415809 ], [ -38.401388, -6.409161 ], [ -38.402685, -6.409386 ], [ -38.405682, -6.409793 ], [ -38.42569, -6.413726 ], [ -38.437993, -6.409477 ], [ -38.44126, -6.404304 ], [ -38.447607, -6.402954 ], [ -38.448486, -6.394177 ], [ -38.451712, -6.392091 ], [ -38.465457, -6.396012 ], [ -38.485882, -6.398354 ], [ -38.482731, -6.380715 ], [ -38.490182, -6.365678 ], [ -38.475688, -6.34533 ], [ -38.458035, -6.329816 ], [ -38.474633, -6.332848 ], [ -38.480877, -6.336975 ], [ -38.484563, -6.339737 ], [ -38.493824, -6.34442 ], [ -38.505069, -6.356111 ], [ -38.516247, -6.345837 ], [ -38.533755, -6.341529 ], [ -38.544661, -6.344191 ], [ -38.549497, -6.350305 ], [ -38.544713, -6.35336 ], [ -38.562956, -6.355634 ], [ -38.562835, -6.352353 ], [ -38.576723, -6.34703 ], [ -38.58119, -6.330649 ], [ -38.580944, -6.315813 ], [ -38.56567, -6.302191 ], [ -38.569944, -6.299596 ], [ -38.570025, -6.292553 ], [ -38.571161, -6.284046 ], [ -38.578362, -6.27991 ], [ -38.56256, -6.267562 ], [ -38.554069, -6.262999 ], [ -38.545499, -6.24503 ], [ -38.538113, -6.2465 ], [ -38.528613, -6.239474 ], [ -38.52309, -6.227922 ], [ -38.51936, -6.222641 ], [ -38.528934, -6.213344 ], [ -38.525543, -6.197844 ], [ -38.526852, -6.192982 ], [ -38.512425, -6.191627 ], [ -38.500973, -6.190551 ], [ -38.500407, -6.179286 ], [ -38.490737, -6.170112 ], [ -38.472584, -6.151582 ], [ -38.471714, -6.148353 ], [ -38.476064, -6.144017 ], [ -38.473073, -6.135607 ], [ -38.457319, -6.107624 ], [ -38.44042, -6.096479 ], [ -38.446965, -6.084882 ], [ -38.430899, -6.075097 ], [ -38.427085, -6.068981 ], [ -38.412836, -6.057925 ], [ -38.404527, -6.056894 ], [ -38.401186, -6.0531 ], [ -38.394642, -6.055015 ], [ -38.381605, -6.052393 ], [ -38.385341, -6.064284 ], [ -38.378012, -6.066435 ], [ -38.379422, -6.072921 ], [ -38.370969, -6.084011 ], [ -38.364895, -6.088064 ], [ -38.350073, -6.082848 ], [ -38.347014, -6.080306 ], [ -38.346433, -6.066882 ], [ -38.339237, -6.077296 ], [ -38.336409, -6.080002 ], [ -38.319571, -6.076643 ], [ -38.304452, -6.086572 ], [ -38.290439, -6.072756 ], [ -38.276659, -6.069556 ], [ -38.274551, -6.065403 ], [ -38.274047, -6.06339 ], [ -38.269684, -6.062274 ], [ -38.264625, -6.053852 ], [ -38.258834, -6.053385 ], [ -38.259818, -6.04932 ], [ -38.25222, -6.042707 ], [ -38.251822, -6.009762 ], [ -38.244154, -5.999062 ], [ -38.229684, -5.986472 ], [ -38.217675, -5.976603 ], [ -38.205666, -5.963953 ], [ -38.19202, -5.95917 ], [ -38.183233, -5.949829 ], [ -38.175082, -5.953007 ], [ -38.164444, -5.946137 ], [ -38.163141, -5.938501 ], [ -38.165088, -5.931709 ], [ -38.159659, -5.924564 ], [ -38.158949, -5.924182 ], [ -38.146372, -5.915783 ], [ -38.142205, -5.901246 ], [ -38.124589, -5.887218 ], [ -38.115937, -5.847593 ], [ -38.118516, -5.832441 ], [ -38.111197, -5.818263 ], [ -38.075807, -5.780663 ], [ -38.058245, -5.754458 ], [ -38.058228, -5.754073 ], [ -38.046661, -5.72987 ], [ -38.074878, -5.723076 ], [ -38.08682, -5.730129 ], [ -38.089754, -5.720087 ], [ -38.082494, -5.698011 ], [ -38.08253, -5.672149 ], [ -38.078921, -5.665731 ], [ -38.053036, -5.645712 ], [ -38.033922, -5.63676 ], [ -38.013617, -5.594006 ], [ -37.99798, -5.584926 ], [ -37.999148, -5.574999 ], [ -37.997432, -5.567547 ], [ -37.98969, -5.555406 ], [ -37.94771, -5.534253 ], [ -37.932288, -5.502716 ], [ -37.917144, -5.50497 ], [ -37.9019, -5.50027 ], [ -37.901641, -5.497122 ], [ -37.901189, -5.495082 ], [ -37.900331, -5.491211 ], [ -37.891879, -5.480368 ], [ -37.888531, -5.448963 ], [ -37.880882, -5.435793 ], [ -37.870618, -5.419918 ], [ -37.860136, -5.406295 ], [ -37.85897, -5.395344 ], [ -37.86339, -5.3737 ], [ -37.847125, -5.339633 ], [ -37.835367, -5.334997 ], [ -37.812457, -5.316179 ], [ -37.786525, -5.296779 ], [ -37.782765, -5.294426 ], [ -37.782261, -5.286347 ], [ -37.791514, -5.268382 ], [ -37.790113, -5.254567 ], [ -37.783175, -5.24244 ], [ -37.783081, -5.228655 ], [ -37.787817, -5.218808 ], [ -37.789684, -5.210551 ], [ -37.775965, -5.186731 ], [ -37.764611, -5.139228 ], [ -37.739947, -5.110029 ], [ -37.733078, -5.100253 ], [ -37.731283, -5.084139 ], [ -37.723646, -5.069316 ], [ -37.710147, -5.060762 ], [ -37.677276, -5.053698 ], [ -37.676798, -5.052147 ], [ -37.65992, -4.997518 ], [ -37.650923, -4.965219 ], [ -37.639995, -4.926018 ], [ -37.590825, -4.914885 ], [ -37.539467, -4.902911 ], [ -37.539011, -4.902799 ], [ -37.466739, -4.885538 ], [ -37.465453, -4.885229 ], [ -37.446104, -4.880575 ], [ -37.356505, -4.857652 ], [ -37.252642, -4.831326 ], [ -37.244857, -4.843187 ], [ -37.221295, -4.881353 ], [ -37.210143, -4.894442 ], [ -37.181102, -4.916578 ], [ -37.166791, -4.931743 ], [ -37.158307, -4.934444 ], [ -37.133169, -4.937941 ], [ -37.120076, -4.931982 ], [ -37.10924, -4.925092 ], [ -37.097674, -4.924524 ], [ -37.083187, -4.932159 ], [ -37.082074, -4.929349 ], [ -37.057176, -4.945932 ], [ -37.038453, -4.95067 ], [ -37.029554, -4.948518 ], [ -36.998997, -4.930759 ], [ -36.980858, -4.93362 ], [ -36.971726, -4.930926 ], [ -36.964437, -4.927113 ], [ -36.962216, -4.919323 ], [ -36.921321, -4.947372 ], [ -36.900972, -4.950499 ], [ -36.88125, -4.948613 ], [ -36.854742, -4.971599 ], [ -36.817859, -5.018995 ], [ -36.799034, -5.038362 ], [ -36.749763, -5.058752 ], [ -36.732286, -5.059387 ], [ -36.73513, -5.06388 ], [ -36.7227, -5.074964 ], [ -36.712079, -5.07291 ], [ -36.71663, -5.082342 ], [ -36.74392, -5.089118 ], [ -36.751138, -5.095421 ], [ -36.750084, -5.100091 ], [ -36.739632, -5.10626 ], [ -36.720274, -5.107865 ], [ -36.71613, -5.114477 ], [ -36.719159, -5.119019 ], [ -36.726197, -5.115349 ], [ -36.730094, -5.118084 ], [ -36.730222, -5.132662 ], [ -36.721109, -5.134999 ], [ -36.727245, -5.153432 ], [ -36.734504, -5.147601 ], [ -36.741128, -5.149717 ], [ -36.74356, -5.140936 ], [ -36.749107, -5.143677 ], [ -36.748369, -5.151678 ], [ -36.736355, -5.161556 ], [ -36.733271, -5.171937 ], [ -36.72878, -5.17464 ], [ -36.579046, -5.21544 ], [ -36.575115, -5.21378 ], [ -36.571877, -5.219074 ], [ -36.567779, -5.217324 ], [ -36.557216, -5.220427 ], [ -36.55885, -5.227247 ], [ -36.54921, -5.233231 ], [ -36.542171, -5.242795 ], [ -36.545214, -5.253993 ], [ -36.534821, -5.264236 ], [ -36.540201, -5.275844 ], [ -36.538185, -5.280539 ], [ -36.541768, -5.30112 ], [ -36.514441, -5.301497 ], [ -36.515292, -5.401847 ], [ -36.537048, -5.412404 ], [ -36.610554, -5.407395 ], [ -36.708422, -5.400704 ], [ -36.734403, -5.398927 ], [ -36.83765, -5.39184 ], [ -36.838095, -5.403366 ], [ -36.840719, -5.408756 ], [ -36.84897, -5.413702 ], [ -36.859969, -5.433457 ], [ -36.860068, -5.441951 ], [ -36.851436, -5.443107 ], [ -36.851373, -5.443114 ], [ -36.699389, -5.463421 ], [ -36.698762, -5.521034 ], [ -36.69871, -5.525756 ], [ -36.644486, -5.525885 ], [ -36.580039, -5.528396 ], [ -36.578606, -5.578531 ], [ -36.572391, -5.585535 ], [ -36.492474, -5.59521 ], [ -36.469574, -5.59798 ], [ -36.302832, -5.652236 ], [ -36.269276, -5.679675 ], [ -36.261906, -5.67949 ], [ -36.273214, -5.708897 ], [ -36.28442, -5.858896 ], [ -36.356025, -5.848646 ], [ -36.388887, -5.794983 ], [ -36.432716, -5.780582 ], [ -36.508837, -5.755548 ], [ -36.524852, -5.76491 ], [ -36.550053, -5.768981 ], [ -36.567593, -5.757199 ], [ -36.6205, -5.755935 ], [ -36.629763, -5.758276 ], [ -36.636954, -5.755015 ], [ -36.643641, -5.758531 ], [ -36.645373, -5.748469 ], [ -36.657246, -5.742132 ], [ -36.662339, -5.721485 ], [ -36.674378, -5.70569 ], [ -36.688122, -5.70286 ], [ -36.698851, -5.695393 ], [ -36.702344, -5.70104 ], [ -36.720413, -5.713741 ], [ -36.741401, -5.735676 ], [ -36.755134, -5.758617 ], [ -36.760911, -5.755938 ], [ -36.767119, -5.762639 ], [ -36.775716, -5.763228 ], [ -36.789406, -5.754774 ], [ -36.776133, -5.778608 ], [ -36.76832, -5.792632 ], [ -36.770387, -5.798993 ], [ -36.776392, -5.802797 ], [ -36.773733, -5.815582 ], [ -36.77714, -5.8259 ], [ -36.772107, -5.835319 ], [ -36.772474, -5.858293 ], [ -36.792529, -5.883242 ], [ -36.81773, -5.912744 ], [ -36.835299, -5.928114 ], [ -36.87571, -5.963476 ], [ -36.878115, -5.960241 ], [ -36.893391, -5.974561 ], [ -36.910803, -5.972668 ], [ -36.914491, -5.965225 ], [ -36.926282, -5.971397 ], [ -36.93626, -5.967959 ], [ -36.940966, -5.957898 ], [ -36.939422, -5.951313 ], [ -36.950474, -5.934706 ], [ -36.950172, -5.930025 ], [ -36.964432, -5.924293 ], [ -36.972759, -5.912411 ], [ -36.971912, -5.904412 ], [ -36.959156, -5.898863 ], [ -36.954834, -5.883931 ], [ -36.936631, -5.868037 ], [ -36.941686, -5.857961 ], [ -36.953063, -5.855742 ], [ -36.954678, -5.855166 ], [ -36.965694, -5.845904 ], [ -36.977062, -5.813227 ], [ -36.9897, -5.816806 ], [ -37.005877, -5.831093 ], [ -37.015018, -5.870452 ], [ -37.035236, -5.890674 ], [ -37.061909, -5.970249 ], [ -37.066583, -5.984207 ], [ -37.121823, -5.954476 ], [ -37.128355, -5.956008 ], [ -37.13083, -5.967698 ], [ -37.142946, -5.97881 ], [ -37.147604, -5.990468 ], [ -37.154325, -5.99279 ], [ -37.159091, -6.010169 ], [ -37.161998, -6.020775 ], [ -37.162276, -6.021785 ], [ -37.173591, -6.04762 ], [ -37.193955, -6.047637 ], [ -37.204057, -6.037756 ], [ -37.222347, -6.041752 ], [ -37.23152, -6.027199 ], [ -37.250273, -6.025516 ], [ -37.256133, -6.028075 ], [ -37.263238, -6.04596 ], [ -37.272136, -6.055306 ], [ -37.286576, -6.057593 ], [ -37.295231, -6.049699 ], [ -37.300253, -6.049864 ], [ -37.308858, -6.057364 ], [ -37.328482, -6.064308 ], [ -37.335438, -6.067063 ], [ -37.354092, -6.08609 ], [ -37.371223, -6.082383 ], [ -37.378441, -6.084736 ], [ -37.381997, -6.085158 ], [ -37.391841, -6.107777 ], [ -37.407467, -6.112386 ], [ -37.425612, -6.108601 ], [ -37.44535, -6.111806 ], [ -37.45357, -6.119677 ], [ -37.458605, -6.144606 ], [ -37.473753, -6.148342 ], [ -37.482648, -6.151284 ], [ -37.489026, -6.144041 ], [ -37.503053, -6.144 ], [ -37.502548, -6.151744 ], [ -37.521534, -6.151394 ], [ -37.536007, -6.152439 ], [ -37.539652, -6.165534 ], [ -37.560309, -6.164135 ], [ -37.569277, -6.155042 ], [ -37.573378, -6.158227 ], [ -37.573427, -6.158377 ], [ -37.584793, -6.162429 ], [ -37.599569, -6.173614 ], [ -37.615905, -6.175801 ], [ -37.638131, -6.17944 ], [ -37.646368, -6.188995 ], [ -37.679747, -6.188756 ], [ -37.679814, -6.188751 ], [ -37.697838, -6.186206 ], [ -37.708652, -6.176607 ], [ -37.716064, -6.17884 ], [ -37.742029, -6.188579 ], [ -37.753189, -6.198072 ], [ -37.752734, -6.214033 ], [ -37.7635, -6.218503 ], [ -37.775271, -6.230946 ], [ -37.762427, -6.23494 ], [ -37.762721, -6.240738 ], [ -37.776268, -6.245478 ], [ -37.760171, -6.253693 ], [ -37.770132, -6.265239 ], [ -37.771076, -6.272668 ], [ -37.757451, -6.287383 ], [ -37.757317, -6.290375 ], [ -37.771353, -6.29055 ], [ -37.794172, -6.288635 ], [ -37.810075, -6.29126 ], [ -37.823684, -6.305636 ], [ -37.81419, -6.311914 ], [ -37.814409, -6.314745 ], [ -37.822327, -6.317381 ], [ -37.833386, -6.321381 ], [ -37.842849, -6.33269 ], [ -37.833914, -6.341987 ], [ -37.843771, -6.353959 ], [ -37.840298, -6.360942 ], [ -37.853896, -6.365918 ], [ -37.859481, -6.374479 ], [ -37.887878, -6.363971 ], [ -37.888165, -6.386811 ], [ -37.883915, -6.391278 ], [ -37.885903, -6.396602 ], [ -37.88991, -6.399737 ], [ -37.901185, -6.39928 ], [ -37.919099, -6.411248 ], [ -37.92777, -6.421194 ], [ -37.94509, -6.422222 ], [ -37.954858, -6.407663 ], [ -37.955048, -6.397809 ], [ -37.967675, -6.404724 ], [ -37.968331, -6.418345 ], [ -37.978737, -6.426295 ], [ -37.979912, -6.426686 ], [ -37.98867, -6.428237 ], [ -38.013348, -6.427029 ], [ -38.014045, -6.429994 ], [ -38.007877, -6.431794 ], [ -38.019621, -6.445606 ], [ -38.012599, -6.468455 ], [ -38.021467, -6.468057 ], [ -38.026411, -6.474358 ], [ -38.033824, -6.475448 ], [ -38.040726, -6.470775 ], [ -38.035908, -6.459593 ], [ -38.043575, -6.451577 ], [ -38.04305, -6.44295 ], [ -38.046, -6.440532 ], [ -38.051104, -6.442007 ], [ -38.053607, -6.453285 ], [ -38.058895, -6.452731 ], [ -38.061588, -6.459049 ], [ -38.066269, -6.46004 ], [ -38.070518, -6.463528 ], [ -38.082669, -6.485489 ], [ -38.095049, -6.493187 ], [ -38.097639, -6.509092 ], [ -38.116709, -6.522269 ], [ -38.119863, -6.521982 ], [ -38.135169, -6.518077 ], [ -38.147533, -6.491089 ], [ -38.160824, -6.498715 ], [ -38.172838, -6.499433 ], [ -38.191915, -6.49793 ], [ -38.200202, -6.48788 ], [ -38.22677, -6.483549 ], [ -38.228672, -6.482948 ], [ -38.238879, -6.479898 ], [ -38.252538, -6.485024 ], [ -38.256181, -6.482811 ], [ -38.261064, -6.484747 ], [ -38.269496, -6.494042 ] ] ] } },
{ "type": "Feature", "properties": { "MACRO_ID": "2402", "MACRO_NAME": "Macrorregião I", "id": "240010", "name": "Acari", "description": "Acari", "MUN_ID": "240010", "UF": "RN", "HREG_ID": "24004", "HREG_NAME": "4ª Região de Saúde - Caico" }, "geometry": { "type": "Polygon", "coordinates": [ [ [ -36.609458, -6.936434 ], [ -36.616195, -6.933612 ], [ -36.637112, -6.933404 ], [ -36.654542, -6.927835 ], [ -36.686882, -6.925559 ], [ -36.694335, -6.934087 ], [ -36.699366, -6.947937 ], [ -36.712103, -6.979615 ], [ -36.718217, -6.982331 ], [ -36.730734, -6.975784 ], [ -36.737039, -6.972405 ], [ -36.755465, -6.953863 ], [ -36.766207, -6.935464 ], [ -36.759661, -6.914137 ], [ -36.755727, -6.895922 ], [ -36.744652, -6.879111 ], [ -36.729861, -6.835993 ], [ -36.760405, -6.837565 ], [ -36.769128, -6.838345 ], [ -36.772392, -6.786663 ], [ -36.788793, -6.772064 ], [ -36.834692, -6.730669 ], [ -36.873996, -6.742782 ], [ -36.909878, -6.756528 ], [ -36.931184, -6.768173 ], [ -36.956797, -6.790076 ], [ -36.958759, -6.782901 ], [ -36.952324, -6.774751 ], [ -36.964228, -6.773653 ], [ -36.971548, -6.765081 ], [ -36.971459, -6.740244 ], [ -36.977283, -6.721454 ], [ -36.989602, -6.708749 ], [ -37.003252, -6.709211 ], [ -37.009647, -6.714111 ], [ -37.011846, -6.715821 ], [ -37.034921, -6.733764 ], [ -37.059084, -6.749023 ], [ -37.075077, -6.753732 ], [ -37.11972, -6.76689 ], [ -37.128596, -6.765575 ], [ -37.151887, -6.797962 ], [ -37.190331, -6.824963 ], [ -37.213555, -6.824417 ], [ -37.234258, -6.824234 ], [ -37.251716, -6.812699 ], [ -37.254803, -6.810659 ], [ -37.255076, -6.798067 ], [ -37.260251, -6.786958 ], [ -37.256985, -6.779994 ], [ -37.273608, -6.766389 ], [ -37.269022, -6.761584 ], [ -37.263579, -6.731769 ], [ -37.279576, -6.723832 ], [ -37.289826, -6.712643 ], [ -37.283374, -6.693514 ], [ -37.297925, -6.691163 ], [ -37.313957, -6.688573 ], [ -37.342371, -6.700846 ], [ -37.399628, -6.699328 ], [ -37.406991, -6.696794 ], [ -37.426636, -6.700055 ], [ -37.45553, -6.704852 ], [ -37.484356, -6.709636 ], [ -37.470638, -6.679936 ], [ -37.474858, -6.672422 ], [ -37.465848, -6.659559 ], [ -37.476873, -6.641511 ], [ -37.474189, -6.617513 ], [ -37.475657, -6.607714 ], [ -37.480041, -6.604818 ], [ -37.479775, -6.59375 ], [ -37.474472, -6.564051 ], [ -37.48024, -6.55942 ], [ -37.482785, -6.550011 ], [ -37.473599, -6.537569 ], [ -37.464382, -6.532264 ], [ -37.444553, -6.532671 ], [ -37.436222, -6.532842 ], [ -37.436003, -6.532845 ], [ -37.415367, -6.53148 ], [ -37.396889, -6.514201 ], [ -37.39061, -6.452443 ], [ -37.380905, -6.436697 ], [ -37.380971, -6.4364 ], [ -37.381152, -6.435576 ], [ -37.386252, -6.425638 ], [ -37.397328, -6.415886 ], [ -37.395782, -6.400745 ], [ -37.388489, -6.390581 ], [ -37.388207, -6.379335 ], [ -37.382104, -6.373013 ], [ -37.377199, -6.368934 ], [ -37.377505, -6.35004 ], [ -37.376987, -6.343994 ], [ -37.363011, -6.321767 ], [ -37.333616, -6.307942 ], [ -37.327851, -6.302806 ], [ -37.318182, -6.279257 ], [ -37.306117, -6.277667 ], [ -37.286508, -6.281868 ], [ -37.274385, -6.281028 ], [ -37.270211, -6.251317 ], [ -37.251186, -6.226061 ], [ -37.233931, -6.212881 ], [ -37.20124, -6.205306 ], [ -37.193898, -6.19785 ], [ -37.192603, -6.182683 ], [ -37.173881, -6.179706 ], [ -37.165343, -6.169977 ], [ -37.156583, -6.152091 ], [ -37.166041, -6.153512 ], [ -37.174755, -6.141786 ], [ -37.166635, -6.109959 ], [ -37.172312, -6.098433 ], [ -37.17022, -6.082659 ], [ -37.175233, -6.054543 ], [ -37.173591, -6.04762 ], [ -37.162276, -6.021785 ], [ -37.161998, -6.020775 ], [ -37.159091, -6.010169 ], [ -37.154325, -5.99279 ], [ -37.147604, -5.990468 ], [ -37.142946, -5.97881 ], [ -37.13083, -5.967698 ], [ -37.128355, -5.956008 ], [ -37.121823, -5.954476 ], [ -37.066583, -5.984207 ], [ -37.061909, -5.970249 ], [ -37.035236, -5.890674 ], [ -37.015018, -5.870452 ], [ -37.005877, -5.831093 ], [ -36.9897, -5.816806 ], [ -36.977062, -5.813227 ], [ -36.965694, -5.845904 ], [ -36.954678, -5.855166 ], [ -36.953063, -5.855742 ], [ -36.941686, -5.857961 ], [ -36.936631, -5.868037 ], [ -36.954834, -5.883931 ], [ -36.959156, -5.898863 ], [ -36.971912, -5.904412 ], [ -36.972759, -5.912411 ], [ -36.964432, -5.924293 ], [ -36.950172, -5.930025 ], [ -36.950474, -5.934706 ], [ -36.939422, -5.951313 ], [ -36.940966, -5.957898 ], [ -36.93626, -5.967959 ], [ -36.926282, -5.971397 ], [ -36.914491, -5.965225 ], [ -36.910803, -5.972668 ], [ -36.893391, -5.974561 ], [ -36.878115, -5.960241 ], [ -36.87571, -5.963476 ], [ -36.835299, -5.928114 ], [ -36.81773, -5.912744 ], [ -36.792529, -5.883242 ], [ -36.772474, -5.858293 ], [ -36.772107, -5.835319 ], [ -36.77714, -5.8259 ], [ -36.773733, -5.815582 ], [ -36.776392, -5.802797 ], [ -36.770387, -5.798993 ], [ -36.76832, -5.792632 ], [ -36.776133, -5.778608 ], [ -36.789406, -5.754774 ], [ -36.775716, -5.763228 ], [ -36.767119, -5.762639 ], [ -36.760911, -5.755938 ], [ -36.755134, -5.758617 ], [ -36.741401, -5.735676 ], [ -36.720413, -5.713741 ], [ -36.702344, -5.70104 ], [ -36.698851, -5.695393 ], [ -36.688122, -5.70286 ], [ -36.674378, -5.70569 ], [ -36.662339, -5.721485 ], [ -36.657246, -5.742132 ], [ -36.645373, -5.748469 ], [ -36.643641, -5.758531 ], [ -36.636954, -5.755015 ], [ -36.629763, -5.758276 ], [ -36.6205, -5.755935 ], [ -36.567593, -5.757199 ], [ -36.550053, -5.768981 ], [ -36.524852, -5.76491 ], [ -36.508837, -5.755548 ], [ -36.432716, -5.780582 ], [ -36.388887, -5.794983 ], [ -36.356025, -5.848646 ], [ -36.28442, -5.858896 ], [ -36.273214, -5.708897 ], [ -36.261906, -5.67949 ], [ -36.269276, -5.679675 ], [ -36.302832, -5.652236 ], [ -36.469574, -5.59798 ], [ -36.492474, -5.59521 ], [ -36.572391, -5.585535 ], [ -36.578606, -5.578531 ], [ -36.580039, -5.528396 ], [ -36.644486, -5.525885 ], [ -36.69871, -5.525756 ], [ -36.698762, -5.521034 ], [ -36.699389, -5.463421 ], [ -36.851373, -5.443114 ], [ -36.851436, -5.443107 ], [ -36.860068, -5.441951 ], [ -36.859969, -5.433457 ], [ -36.84897, -5.413702 ], [ -36.840719, -5.408756 ], [ -36.838095, -5.403366 ], [ -36.83765, -5.39184 ], [ -36.734403, -5.398927 ], [ -36.708422, -5.400704 ], [ -36.610554, -5.407395 ], [ -36.537048, -5.412404 ], [ -36.515292, -5.401847 ], [ -36.514441, -5.301497 ], [ -36.541768, -5.30112 ], [ -36.538185, -5.280539 ], [ -36.540201, -5.275844 ], [ -36.534821, -5.264236 ], [ -36.545214, -5.253993 ], [ -36.542171, -5.242795 ], [ -36.54921, -5.233231 ], [ -36.55885, -5.227247 ], [ -36.557216, -5.220427 ], [ -36.567779, -5.217324 ], [ -36.571877, -5.219074 ], [ -36.575115, -5.21378 ], [ -36.579046, -5.21544 ], [ -36.72878, -5.17464 ], [ -36.733271, -5.171937 ], [ -36.736355, -5.161556 ], [ -36.748369, -5.151678 ], [ -36.749107, -5.143677 ], [ -36.74356, -5.140936 ], [ -36.741128, -5.149717 ], [ -36.734504, -5.147601 ], [ -36.727245, -5.153432 ], [ -36.721109, -5.134999 ], [ -36.730222, -5.132662 ], [ -36.730094, -5.118084 ], [ -36.726197, -5.115349 ], [ -36.719159, -5.119019 ], [ -36.71613, -5.114477 ], [ -36.720274, -5.107865 ], [ -36.739632, -5.10626 ], [ -36.750084, -5.100091 ], [ -36.751138, -5.095421 ], [ -36.74392, -5.089118 ], [ -36.71663, -5.082342 ], [ -36.712079, -5.07291 ], [ -36.708278, -5.064945 ], [ -36.703829, -5.064778 ], [ -36.700418, -5.085707 ], [ -36.691188, -5.092895 ], [ -36.688388, -5.091464 ], [ -36.666092, -5.085102 ], [ -36.628032, -5.088357 ], [ -36.619325, -5.075783 ], [ -36.606567, -5.081688 ], [ -36.600465, -5.080266 ], [ -36.595689, -5.074647 ], [ -36.587863, -5.079738 ], [ -36.558492, -5.083524 ], [ -36.554403, -5.08036 ], [ -36.526672, -5.077365 ], [ -36.511107, -5.064097 ], [ -36.501435, -5.061173 ], [ -36.437289, -5.06792 ], [ -36.405597, -5.078342 ], [ -36.369117, -5.090294 ], [ -36.349935, -5.087085 ], [ -36.344387, -5.081891 ], [ -36.326806, -5.087936 ], [ -36.309108, -5.098918 ], [ -36.308091, -5.102467 ], [ -36.289478, -5.087437 ], [ -36.276673, -5.089761 ], [ -36.273263, -5.088905 ], [ -36.243366, -5.095374 ], [ -36.19206, -5.094295 ], [ -36.137311, -5.09299 ], [ -36.12165, -5.089082 ], [ -36.098895, -5.075996 ], [ -36.07796, -5.065056 ], [ -36.058283, -5.062512 ], [ -36.036256, -5.050491 ], [ -36.012888, -5.048542 ], [ -35.999867, -5.044101 ], [ -35.98418, -5.045978 ], [ -35.980125, -5.041167 ], [ -35.949188, -5.04374 ], [ -35.907923, -5.059063 ], [ -35.882248, -5.067295 ], [ -35.852164, -5.068353 ], [ -35.828623, -5.074527 ], [ -35.802439, -5.072808 ], [ -35.790461, -5.076589 ], [ -35.783711, -5.07535 ], [ -35.757391, -5.088729 ], [ -35.717487, -5.096911 ], [ -35.708123, -5.103535 ], [ -35.697131, -5.102049 ], [ -35.645459, -5.117101 ], [ -35.635126, -5.121156 ], [ -35.627115, -5.119872 ], [ -35.618478, -5.118154 ], [ -35.616691, -5.111786 ], [ -35.570918, -5.134475 ], [ -35.567064, -5.135699 ], [ -35.5316, -5.14393 ], [ -35.509589, -5.154752 ], [ -35.487741, -5.159093 ], [ -35.465144, -5.185475 ], [ -35.460155, -5.196423 ], [ -35.45075, -5.202804 ], [ -35.417811, -5.221369 ], [ -35.395831, -5.246057 ], [ -35.384322, -5.267714 ], [ -35.383191, -5.269495 ], [ -35.37951, -5.273655 ], [ -35.368679, -5.29312 ], [ -35.359188, -5.343903 ], [ -35.353705, -5.358195 ], [ -35.339281, -5.375649 ], [ -35.325704, -5.380897 ], [ -35.320853, -5.376749 ], [ -35.309766, -5.391386 ], [ -35.310502, -5.407898 ], [ -35.29812, -5.426361 ], [ -35.292955, -5.427163 ], [ -35.288947, -5.459004 ], [ -35.27271, -5.478918 ], [ -35.265583, -5.482503 ], [ -35.260767, -5.4804 ], [ -35.260196, -5.499825 ], [ -35.258109, -5.514555 ], [ -35.254221, -5.519447 ], [ -35.249131, -5.528032 ], [ -35.249206, -5.5427 ], [ -35.244363, -5.557451 ], [ -35.237452, -5.567281 ], [ -35.226631, -5.580474 ], [ -35.224812, -5.596255 ], [ -35.227409, -5.611841 ], [ -35.226273, -5.620136 ], [ -35.221876, -5.629065 ], [ -35.216511, -5.630125 ], [ -35.218675, -5.667745 ], [ -35.214013, -5.681419 ], [ -35.205094, -5.692611 ], [ -35.197608, -5.692695 ], [ -35.192836, -5.69807 ], [ -35.204479, -5.740468 ], [ -35.203093, -5.757132 ], [ -35.196195, -5.759339 ], [ -35.193476, -5.781066 ], [ -35.185921, -5.792505 ], [ -35.183087, -5.79245 ], [ -35.180571, -5.801412 ], [ -35.179563, -5.86837 ], [ -35.17103, -5.881943 ], [ -35.166503, -5.884047 ], [ -35.161256, -5.879826 ], [ -35.154334, -5.883451 ], [ -35.154804, -5.897529 ], [ -35.157197, -5.923047 ], [ -35.153893, -5.927789 ], [ -35.151573, -5.952357 ], [ -35.144825, -5.963961 ], [ -35.128607, -5.967353 ], [ -35.121531, -5.982774 ], [ -35.113555, -5.987753 ], [ -35.113532, -5.994285 ], [ -35.106716, -6.005901 ], [ -35.110673, -6.040852 ], [ -35.107145, -6.053586 ], [ -35.097355, -6.056767 ], [ -35.101444, -6.075216 ], [ -35.099523, -6.084333 ], [ -35.0986, -6.138611 ], [ -35.094399, -6.181309 ], [ -35.091267, -6.178373 ], [ -35.08332, -6.189274 ], [ -35.077934, -6.211321 ], [ -35.071961, -6.221413 ], [ -35.066843, -6.220623 ], [ -35.060407, -6.226853 ], [ -35.041922, -6.227195 ], [ -35.036974, -6.23562 ], [ -35.03463, -6.285779 ], [ -35.030505, -6.308177 ], [ -35.03685, -6.314091 ], [ -35.029925, -6.344015 ], [ -35.022011, -6.362151 ], [ -35.017825, -6.368211 ], [ -35.011742, -6.370468 ], [ -35.00753, -6.366643 ], [ -34.999168, -6.37041 ], [ -34.991771, -6.37292 ], [ -34.979983, -6.403077 ], [ -34.972298, -6.43732 ], [ -34.973796, -6.44851 ], [ -34.968217, -6.48686 ], [ -34.968461, -6.489725 ], [ -34.971253, -6.484839 ], [ -34.979372, -6.489732 ], [ -34.991747, -6.501094 ], [ -35.010796, -6.505722 ], [ -35.01848, -6.50266 ], [ -35.02822, -6.505121 ], [ -35.036642, -6.516724 ], [ -35.057411, -6.52739 ], [ -35.066825, -6.524259 ], [ -35.09522, -6.497277 ], [ -35.101337, -6.49975 ], [ -35.103359, -6.505444 ], [ -35.112228, -6.504716 ], [ -35.123132, -6.529459 ], [ -35.132308, -6.535361 ], [ -35.145485, -6.552358 ], [ -35.157162, -6.551307 ], [ -35.169976, -6.557991 ], [ -35.193684, -6.549918 ], [ -35.199152, -6.549543 ], [ -35.206987, -6.543317 ], [ -35.217912, -6.518204 ], [ -35.223137, -6.515831 ], [ -35.224106, -6.521232 ], [ -35.232025, -6.531375 ], [ -35.252887, -6.533609 ], [ -35.272895, -6.543075 ], [ -35.274241, -6.543477 ], [ -35.302391, -6.543752 ], [ -35.330449, -6.54394 ], [ -35.34094, -6.538216 ], [ -35.364188, -6.51164 ], [ -35.379496, -6.502526 ], [ -35.400425, -6.491202 ], [ -35.407434, -6.489183 ], [ -35.423646, -6.488254 ], [ -35.441774, -6.486191 ], [ -35.441404, -6.482069 ], [ -35.442331, -6.478976 ], [ -35.446372, -6.486443 ], [ -35.459721, -6.476378 ], [ -35.463899, -6.482311 ], [ -35.478995, -6.486392 ], [ -35.491657, -6.479684 ], [ -35.495468, -6.482859 ], [ -35.501085, -6.477402 ], [ -35.513629, -6.477757 ], [ -35.525564, -6.475825 ], [ -35.526771, -6.478873 ], [ -35.533311, -6.482632 ], [ -35.537632, -6.479505 ], [ -35.540437, -6.482569 ], [ -35.546368, -6.481466 ], [ -35.551774, -6.490423 ], [ -35.558188, -6.492481 ], [ -35.56447, -6.491379 ], [ -35.563865, -6.487068 ], [ -35.581059, -6.485396 ], [ -35.591386, -6.476758 ], [ -35.591838, -6.47123 ], [ -35.599862, -6.46021 ], [ -35.616548, -6.462233 ], [ -35.620052, -6.456924 ], [ -35.636472, -6.453988 ], [ -35.656937, -6.445382 ], [ -35.663277, -6.44643 ], [ -35.664831, -6.450115 ], [ -35.671021, -6.451324 ], [ -35.681646, -6.447528 ], [ -35.697854, -6.462491 ], [ -35.710929, -6.470694 ], [ -35.721529, -6.471265 ], [ -35.725864, -6.469211 ], [ -35.740828, -6.475904 ], [ -35.743233, -6.473485 ], [ -35.749899, -6.478091 ], [ -35.772996, -6.482444 ], [ -35.779598, -6.482875 ], [ -35.782302, -6.483036 ], [ -35.81699, -6.485094 ], [ -35.852762, -6.487213 ], [ -35.870032, -6.488237 ], [ -35.943854, -6.492606 ], [ -35.964912, -6.483959 ], [ -35.971911, -6.487138 ], [ -35.977318, -6.488505 ], [ -36.005018, -6.480653 ], [ -36.007026, -6.474122 ], [ -36.011879, -6.473533 ], [ -36.008007, -6.464719 ], [ -36.012955, -6.454641 ], [ -36.036381, -6.443865 ], [ -36.050918, -6.431803 ], [ -36.061408, -6.409846 ], [ -36.066895, -6.414688 ], [ -36.073432, -6.414472 ], [ -36.072377, -6.410023 ], [ -36.079683, -6.40479 ], [ -36.086414, -6.415436 ], [ -36.095773, -6.419799 ], [ -36.09615, -6.41986 ], [ -36.098241, -6.419525 ], [ -36.102783, -6.421148 ], [ -36.107143, -6.425877 ], [ -36.109857, -6.428781 ], [ -36.14342, -6.424925 ], [ -36.174133, -6.430365 ], [ -36.203856, -6.43182 ], [ -36.226203, -6.433629 ], [ -36.24944, -6.43696 ], [ -36.250831, -6.404024 ], [ -36.261912, -6.401876 ], [ -36.268762, -6.401488 ], [ -36.282587, -6.397019 ], [ -36.294889, -6.394161 ], [ -36.298912, -6.381658 ], [ -36.296006, -6.370011 ], [ -36.278145, -6.348958 ], [ -36.278803, -6.317229 ], [ -36.278803, -6.317228 ], [ -36.27954, -6.308463 ], [ -36.286714, -6.300666 ], [ -36.294647, -6.291708 ], [ -36.307259, -6.281099 ], [ -36.343131, -6.301832 ], [ -36.343655, -6.302136 ], [ -36.362272, -6.30958 ], [ -36.394228, -6.293576 ], [ -36.429972, -6.361856 ], [ -36.444449, -6.361776 ], [ -36.448452, -6.361552 ], [ -36.499514, -6.357766 ], [ -36.504043, -6.386052 ], [ -36.507157, -6.399717 ], [ -36.530637, -6.451672 ], [ -36.530491, -6.471432 ], [ -36.527876, -6.478884 ], [ -36.525512, -6.500761 ], [ -36.518939, -6.50215 ], [ -36.482296, -6.519138 ], [ -36.478934, -6.539469 ], [ -36.468856, -6.548696 ], [ -36.462366, -6.54985 ], [ -36.461922, -6.54993 ], [ -36.448839, -6.553514 ], [ -36.444056, -6.557919 ], [ -36.440837, -6.599036 ], [ -36.435524, -6.625477 ], [ -36.437888, -6.628882 ], [ -36.449015, -6.623796 ], [ -36.460184, -6.633992 ], [ -36.473146, -6.614006 ], [ -36.501577, -6.601078 ], [ -36.507625, -6.59505 ], [ -36.513476, -6.593992 ], [ -36.521576, -6.596687 ], [ -36.523184, -6.601802 ], [ -36.520408, -6.6102 ], [ -36.541411, -6.665662 ], [ -36.547081, -6.694747 ], [ -36.557009, -6.7057 ], [ -36.558545, -6.708706 ], [ -36.543869, -6.730802 ], [ -36.533183, -6.733084 ], [ -36.524879, -6.736316 ], [ -36.520231, -6.745279 ], [ -36.504419, -6.753536 ], [ -36.50097, -6.777167 ], [ -36.505157, -6.808422 ], [ -36.509627, -6.817546 ], [ -36.528831, -6.824995 ], [ -36.543333, -6.841696 ], [ -36.559821, -6.840371 ], [ -36.56946, -6.847605 ], [ -36.573744, -6.857055 ], [ -36.566459, -6.866189 ], [ -36.567604, -6.874394 ], [ -36.609458, -6.936434 ] ], [ [ -35.933882, -5.714481 ], [ -35.940807, -5.725413 ], [ -35.933881, -5.714481 ], [ -35.933882, -5.714481 ] ], [ [ -35.131377, -6.407332 ], [ -35.131377, -6.407333 ], [ -35.127794, -6.410798 ], [ -35.131377, -6.407332 ] ] ] } }
]
}
