{
"type": "FeatureCollection",
"name": "geojs-33-macro_regions",
"crs": { "type": "name", "properties": { "name": "urn:ogc:def:crs:OGC:1.3:CRS84" } },
"features": [
{ "type": "Feature", "properties": { "MACRO_ID": "3312", "MACRO_NAME": "Macrorregião I", "id": "330010", "name": "Angra dos Reis", "description": "Angra dos Reis", "MUN_ID": "330010", "UF": "RJ", "HREG_ID": "33001", "HREG_NAME": "Baia da Ilha Grande" }, "geometry": { "type": "MultiPolygon", "coordinates": [ [ [ [ -44.720172, -23.358136 ], [ -44.719204, -23.358196 ], [ -44.718486, -23.358522 ], [ -44.719118, -23.358956 ], [ -44.719673, -23.358895 ], [ -44.720172, -23.358136 ] ] ], [ [ [ -44.672962, -23.356796 ], [ -44.673073, -23.356336 ], [ -44.672874, -23.355823 ], [ -44.672601, -23.355386 ], [ -44.672153, -23.355075 ], [ -44.671432, -23.354889 ], [ -44.671047, -23.355189 ], [ -44.671154, -23.35574 ], [ -44.671795, -23.356529 ], [ -44.671959, -23.356987 ], [ -44.672482, -23.357071 ], [ -44.672962, -23.356796 ] ] ], [ [ [ -44.569899, -23.350789 ], [ -44.569686, -23.349802 ], [ -44.569705, -23.348836 ], [ -44.569521, -23.348395 ], [ -44.569205, -23.348011 ], [ -44.568706, -23.348017 ], [ -44.568232, -23.348309 ], [ -44.567103, -23.347939 ], [ -44.566708, -23.348255 ], [ -44.566794, -23.349253 ], [ -44.567123, -23.349729 ], [ -44.567463, -23.350716 ], [ -44.567738, -23.351134 ], [ -44.568151, -23.351535 ], [ -44.569456, -23.352337 ], [ -44.570207, -23.353062 ], [ -44.57071, -23.353038 ], [ -44.571013, -23.352627 ], [ -44.569899, -23.350789 ] ] ], [ [ [ -44.570767, -23.266155 ], [ -44.570293, -23.265528 ], [ -44.568572, -23.264656 ], [ -44.567794, -23.264439 ], [ -44.567298, -23.264535 ], [ -44.567906, -23.265207 ], [ -44.568512, -23.265635 ], [ -44.570019, -23.267319 ], [ -44.570569, -23.26771 ], [ -44.570986, -23.267761 ], [ -44.571263, -23.267178 ], [ -44.570767, -23.266155 ] ] ], [ [ [ -44.671093, -23.239896 ], [ -44.67115, -23.239399 ], [ -44.67088, -23.238898 ], [ -44.670298, -23.238685 ], [ -44.669741, -23.238662 ], [ -44.668125, -23.238807 ], [ -44.667854, -23.239204 ], [ -44.667989, -23.23965 ], [ -44.668487, -23.239931 ], [ -44.670241, -23.240329 ], [ -44.670765, -23.240261 ], [ -44.671093, -23.239896 ] ] ], [ [ [ -44.6491, -23.230771 ], [ -44.646353, -23.22679 ], [ -44.633599, -23.225358 ], [ -44.6491, -23.230771 ] ] ], [ [ [ -44.690825, -23.218059 ], [ -44.692993, -23.21618 ], [ -44.689406, -23.214404 ], [ -44.690825, -23.218059 ] ] ], [ [ [ -44.599595, -23.21705 ], [ -44.60229, -23.22256 ], [ -44.618321, -23.224313 ], [ -44.619987, -23.221772 ], [ -44.604515, -23.215318 ], [ -44.59365, -23.202123 ], [ -44.587321, -23.206769 ], [ -44.584213, -23.204617 ], [ -44.585962, -23.20964 ], [ -44.599595, -23.21705 ] ] ], [ [ [ -44.582957, -23.212012 ], [ -44.58346, -23.212221 ], [ -44.584045, -23.212273 ], [ -44.584541, -23.211908 ], [ -44.584659, -23.21146 ], [ -44.584456, -23.210875 ], [ -44.583984, -23.210766 ], [ -44.583487, -23.210872 ], [ -44.581984, -23.210514 ], [ -44.581685, -23.211014 ], [ -44.582096, -23.211424 ], [ -44.582957, -23.212012 ] ] ], [ [ [ -44.709012, -23.204054 ], [ -44.708626, -23.204389 ], [ -44.708656, -23.204937 ], [ -44.709156, -23.205207 ], [ -44.709598, -23.204911 ], [ -44.710096, -23.204788 ], [ -44.710217, -23.204321 ], [ -44.709522, -23.20403 ], [ -44.709012, -23.204054 ] ] ], [ [ [ -44.579048, -23.20305 ], [ -44.583823, -23.200593 ], [ -44.580463, -23.198533 ], [ -44.579048, -23.20305 ] ] ], [ [ [ -44.573067, -23.183521 ], [ -44.57282, -23.188956 ], [ -44.576542, -23.189892 ], [ -44.573067, -23.183521 ] ] ], [ [ [ -44.656966, -23.187991 ], [ -44.659401, -23.185369 ], [ -44.657629, -23.18132 ], [ -44.656966, -23.187991 ] ] ], [ [ [ -44.681851, -23.177955 ], [ -44.682268, -23.178588 ], [ -44.683846, -23.179235 ], [ -44.684264, -23.178991 ], [ -44.684383, -23.178292 ], [ -44.683875, -23.177411 ], [ -44.68365, -23.176718 ], [ -44.682102, -23.177031 ], [ -44.681851, -23.177955 ] ] ], [ [ [ -44.663656, -23.162875 ], [ -44.663932, -23.163258 ], [ -44.664461, -23.163406 ], [ -44.665429, -23.16271 ], [ -44.665847, -23.161062 ], [ -44.665601, -23.160663 ], [ -44.664686, -23.160314 ], [ -44.664403, -23.159885 ], [ -44.664206, -23.159348 ], [ -44.663568, -23.158538 ], [ -44.662042, -23.158951 ], [ -44.66163, -23.159241 ], [ -44.661567, -23.15972 ], [ -44.661738, -23.160186 ], [ -44.662122, -23.160737 ], [ -44.663179, -23.161738 ], [ -44.663656, -23.162875 ] ] ], [ [ [ -44.694264, -23.156016 ], [ -44.683993, -23.151208 ], [ -44.681514, -23.157139 ], [ -44.691848, -23.169475 ], [ -44.694067, -23.161238 ], [ -44.694264, -23.156016 ] ] ], [ [ [ -44.550322, -23.037497 ], [ -44.559906, -23.038598 ], [ -44.568133, -23.047146 ], [ -44.575681, -23.047993 ], [ -44.577539, -23.05398 ], [ -44.585432, -23.056727 ], [ -44.583426, -23.058107 ], [ -44.599069, -23.063176 ], [ -44.590456, -23.052434 ], [ -44.591185, -23.049069 ], [ -44.596243, -23.045389 ], [ -44.608235, -23.049741 ], [ -44.611298, -23.048055 ], [ -44.613962, -23.051456 ], [ -44.613741, -23.045673 ], [ -44.617625, -23.043395 ], [ -44.638015, -23.052462 ], [ -44.638517, -23.048191 ], [ -44.645216, -23.046614 ], [ -44.650513, -23.056346 ], [ -44.656353, -23.051938 ], [ -44.660906, -23.056489 ], [ -44.667789, -23.05359 ], [ -44.677936, -23.063438 ], [ -44.676129, -23.07056 ], [ -44.683297, -23.070988 ], [ -44.687628, -23.077342 ], [ -44.684794, -23.079421 ], [ -44.691015, -23.08349 ], [ -44.687298, -23.090521 ], [ -44.692678, -23.093197 ], [ -44.695923, -23.102321 ], [ -44.698349, -23.121477 ], [ -44.687795, -23.126829 ], [ -44.691824, -23.131212 ], [ -44.69874, -23.131638 ], [ -44.69882, -23.135371 ], [ -44.697932, -23.143103 ], [ -44.692837, -23.146226 ], [ -44.698633, -23.155171 ], [ -44.705062, -23.155914 ], [ -44.706853, -23.166622 ], [ -44.698531, -23.168691 ], [ -44.698103, -23.174149 ], [ -44.710073, -23.176608 ], [ -44.711796, -23.182642 ], [ -44.716957, -23.18484 ], [ -44.714602, -23.187316 ], [ -44.706434, -23.185703 ], [ -44.714629, -23.189875 ], [ -44.713838, -23.193948 ], [ -44.717921, -23.193568 ], [ -44.721209, -23.201627 ], [ -44.713716, -23.211433 ], [ -44.710516, -23.211122 ], [ -44.707827, -23.219791 ], [ -44.71235, -23.221609 ], [ -44.709074, -23.225509 ], [ -44.71221, -23.233278 ], [ -44.705107, -23.233611 ], [ -44.700056, -23.232491 ], [ -44.694741, -23.231916 ], [ -44.689824, -23.221856 ], [ -44.683991, -23.223374 ], [ -44.675791, -23.21842 ], [ -44.673046, -23.214587 ], [ -44.677207, -23.212194 ], [ -44.671099, -23.210646 ], [ -44.668689, -23.205636 ], [ -44.66601, -23.209192 ], [ -44.663379, -23.205994 ], [ -44.658599, -23.207126 ], [ -44.650958, -23.187664 ], [ -44.642796, -23.185306 ], [ -44.643745, -23.195715 ], [ -44.626186, -23.196335 ], [ -44.626327, -23.201979 ], [ -44.616181, -23.20342 ], [ -44.61571, -23.20622 ], [ -44.62238, -23.207411 ], [ -44.62663, -23.212814 ], [ -44.6241, -23.221076 ], [ -44.627964, -23.223979 ], [ -44.632832, -23.222248 ], [ -44.63391, -23.217181 ], [ -44.64062, -23.21879 ], [ -44.636347, -23.210651 ], [ -44.650992, -23.221693 ], [ -44.6527, -23.217233 ], [ -44.662521, -23.214167 ], [ -44.658826, -23.22178 ], [ -44.663709, -23.227792 ], [ -44.657318, -23.223874 ], [ -44.654904, -23.227177 ], [ -44.666434, -23.234924 ], [ -44.67263, -23.230573 ], [ -44.678271, -23.238223 ], [ -44.672214, -23.240053 ], [ -44.677036, -23.24239 ], [ -44.681369, -23.239689 ], [ -44.684066, -23.242163 ], [ -44.679009, -23.246553 ], [ -44.692291, -23.252771 ], [ -44.678796, -23.252267 ], [ -44.669011, -23.244318 ], [ -44.669132, -23.249185 ], [ -44.663264, -23.247857 ], [ -44.658315, -23.239217 ], [ -44.650877, -23.235219 ], [ -44.637683, -23.23519 ], [ -44.633269, -23.239812 ], [ -44.629338, -23.238922 ], [ -44.613161, -23.234077 ], [ -44.624245, -23.244588 ], [ -44.641131, -23.276508 ], [ -44.656901, -23.292605 ], [ -44.65538, -23.295337 ], [ -44.639268, -23.300823 ], [ -44.643461, -23.295837 ], [ -44.64552, -23.290375 ], [ -44.641328, -23.287319 ], [ -44.63771, -23.289877 ], [ -44.631151, -23.28303 ], [ -44.620299, -23.258463 ], [ -44.59657, -23.243935 ], [ -44.598653, -23.237196 ], [ -44.596297, -23.234653 ], [ -44.574148, -23.233819 ], [ -44.559893, -23.227098 ], [ -44.560628, -23.231853 ], [ -44.575793, -23.244725 ], [ -44.574936, -23.253521 ], [ -44.583811, -23.266427 ], [ -44.579427, -23.271091 ], [ -44.575322, -23.269039 ], [ -44.55905, -23.273681 ], [ -44.550953, -23.271256 ], [ -44.548874, -23.274594 ], [ -44.536764, -23.26737 ], [ -44.518379, -23.280556 ], [ -44.519959, -23.28464 ], [ -44.5149, -23.286207 ], [ -44.51216, -23.292055 ], [ -44.505048, -23.291396 ], [ -44.502438, -23.296357 ], [ -44.509431, -23.301434 ], [ -44.51341, -23.292531 ], [ -44.528789, -23.28812 ], [ -44.535293, -23.292801 ], [ -44.540491, -23.305512 ], [ -44.542399, -23.302761 ], [ -44.551069, -23.307986 ], [ -44.556206, -23.305348 ], [ -44.565511, -23.32367 ], [ -44.561461, -23.330466 ], [ -44.5851, -23.359442 ], [ -44.591068, -23.36223 ], [ -44.599068, -23.359415 ], [ -44.604903, -23.367367 ], [ -44.607986, -23.363846 ], [ -44.606627, -23.349172 ], [ -44.61279, -23.34808 ], [ -44.617746, -23.351515 ], [ -44.618881, -23.342451 ], [ -44.623706, -23.340774 ], [ -44.628487, -23.350058 ], [ -44.63379, -23.352679 ], [ -44.629268, -23.338616 ], [ -44.640393, -23.332743 ], [ -44.647574, -23.334984 ], [ -44.651963, -23.34233 ], [ -44.661876, -23.33948 ], [ -44.659571, -23.34787 ], [ -44.672071, -23.345406 ], [ -44.675654, -23.335572 ], [ -44.681404, -23.340042 ], [ -44.68132, -23.347508 ], [ -44.686624, -23.352267 ], [ -44.686681, -23.348025 ], [ -44.701682, -23.340805 ], [ -44.71796, -23.347227 ], [ -44.72196, -23.353334 ], [ -44.719184, -23.353977 ], [ -44.721151, -23.357618 ], [ -44.726786, -23.354369 ], [ -44.731208, -23.359256 ], [ -44.723915, -23.367698 ], [ -44.737427, -23.36267 ], [ -44.742381, -23.357978 ], [ -44.749708, -23.35804 ], [ -44.753303, -23.352161 ], [ -44.759706, -23.342004 ], [ -44.77788, -23.338527 ], [ -44.776322, -23.333309 ], [ -44.781626, -23.325948 ], [ -44.779506, -23.322628 ], [ -44.780143, -23.315347 ], [ -44.787568, -23.305287 ], [ -44.786263, -23.299478 ], [ -44.797009, -23.293881 ], [ -44.804927, -23.289555 ], [ -44.80696, -23.282886 ], [ -44.826346, -23.291456 ], [ -44.82363, -23.280396 ], [ -44.830029, -23.269339 ], [ -44.839707, -23.263318 ], [ -44.83622, -23.256449 ], [ -44.843134, -23.255271 ], [ -44.85387, -23.24849 ], [ -44.874624, -23.248674 ], [ -44.87785, -23.232335 ], [ -44.884826, -23.232511 ], [ -44.888493, -23.224012 ], [ -44.880962, -23.215479 ], [ -44.882203, -23.202218 ], [ -44.875935, -23.197412 ], [ -44.875009, -23.191923 ], [ -44.872275, -23.182588 ], [ -44.860302, -23.181001 ], [ -44.852908, -23.176263 ], [ -44.853765, -23.172303 ], [ -44.845822, -23.172552 ], [ -44.844849, -23.168477 ], [ -44.839845, -23.16653 ], [ -44.839781, -23.166494 ], [ -44.825346, -23.162607 ], [ -44.822657, -23.157908 ], [ -44.825008, -23.143226 ], [ -44.816435, -23.140283 ], [ -44.819377, -23.132738 ], [ -44.810677, -23.125227 ], [ -44.813179, -23.12113 ], [ -44.810769, -23.114626 ], [ -44.815772, -23.109716 ], [ -44.808601, -23.099246 ], [ -44.812447, -23.098008 ], [ -44.81193, -23.091594 ], [ -44.818268, -23.089579 ], [ -44.814491, -23.080491 ], [ -44.811403, -23.07003 ], [ -44.813575, -23.067139 ], [ -44.806889, -23.061635 ], [ -44.81113, -23.054018 ], [ -44.808823, -23.051737 ], [ -44.80279, -23.049858 ], [ -44.801213, -23.030932 ], [ -44.796125, -23.024179 ], [ -44.796679, -23.023012 ], [ -44.796749, -23.022865 ], [ -44.798236, -23.019735 ], [ -44.792718, -23.009752 ], [ -44.802209, -22.998653 ], [ -44.792878, -22.993222 ], [ -44.79263, -22.989785 ], [ -44.792044, -22.981673 ], [ -44.786686, -22.982287 ], [ -44.783075, -22.978804 ], [ -44.77531, -22.978199 ], [ -44.76488, -22.982909 ], [ -44.759021, -22.978448 ], [ -44.754853, -22.979816 ], [ -44.756174, -22.975431 ], [ -44.748875, -22.969678 ], [ -44.751987, -22.962236 ], [ -44.743097, -22.947019 ], [ -44.74306, -22.947008 ], [ -44.742551, -22.946862 ], [ -44.720542, -22.935351 ], [ -44.71316, -22.929729 ], [ -44.702902, -22.935655 ], [ -44.695729, -22.931767 ], [ -44.687774, -22.936007 ], [ -44.673459, -22.917806 ], [ -44.658936, -22.927244 ], [ -44.63802, -22.913914 ], [ -44.633074, -22.904947 ], [ -44.628945, -22.904414 ], [ -44.60663, -22.885197 ], [ -44.600184, -22.888303 ], [ -44.575546, -22.878108 ], [ -44.562408, -22.884266 ], [ -44.554819, -22.888609 ], [ -44.543279, -22.88434 ], [ -44.54524, -22.880764 ], [ -44.532621, -22.868758 ], [ -44.519073, -22.864821 ], [ -44.505308, -22.851292 ], [ -44.494296, -22.845978 ], [ -44.483941, -22.845864 ], [ -44.47599, -22.85585 ], [ -44.48052, -22.865826 ], [ -44.475593, -22.867308 ], [ -44.476461, -22.873793 ], [ -44.471271, -22.875579 ], [ -44.46579, -22.885032 ], [ -44.444785, -22.87573 ], [ -44.437214, -22.871922 ], [ -44.432761, -22.860911 ], [ -44.424149, -22.851794 ], [ -44.417763, -22.84762 ], [ -44.402717, -22.848046 ], [ -44.401483, -22.854133 ], [ -44.391656, -22.852151 ], [ -44.387456, -22.85724 ], [ -44.373791, -22.857593 ], [ -44.362956, -22.853196 ], [ -44.325987, -22.837686 ], [ -44.320045, -22.839983 ], [ -44.323351, -22.849088 ], [ -44.317625, -22.844602 ], [ -44.316989, -22.839459 ], [ -44.308065, -22.832261 ], [ -44.29621, -22.827355 ], [ -44.286289, -22.828053 ], [ -44.282896, -22.835418 ], [ -44.273009, -22.832005 ], [ -44.268435, -22.82912 ], [ -44.261157, -22.804732 ], [ -44.243846, -22.801897 ], [ -44.23975, -22.790891 ], [ -44.241776, -22.787723 ], [ -44.247573, -22.789974 ], [ -44.256389, -22.786279 ], [ -44.253347, -22.78116 ], [ -44.257042, -22.778328 ], [ -44.25715, -22.766465 ], [ -44.250042, -22.757075 ], [ -44.238347, -22.755232 ], [ -44.242144, -22.749554 ], [ -44.22639, -22.733175 ], [ -44.201549, -22.731942 ], [ -44.197986, -22.724487 ], [ -44.201649, -22.723296 ], [ -44.203289, -22.715884 ], [ -44.196093, -22.714576 ], [ -44.184376, -22.712446 ], [ -44.178075, -22.707433 ], [ -44.174152, -22.701583 ], [ -44.176211, -22.692667 ], [ -44.168132, -22.687463 ], [ -44.163558, -22.67965 ], [ -44.160517, -22.677836 ], [ -44.17102, -22.658936 ], [ -44.189697, -22.648092 ], [ -44.19063, -22.644566 ], [ -44.183846, -22.636806 ], [ -44.190394, -22.629714 ], [ -44.198073, -22.629998 ], [ -44.203351, -22.626464 ], [ -44.203672, -22.614967 ], [ -44.207526, -22.613041 ], [ -44.218934, -22.617044 ], [ -44.226376, -22.604086 ], [ -44.232921, -22.608439 ], [ -44.247665, -22.606135 ], [ -44.253053, -22.61178 ], [ -44.27107, -22.600472 ], [ -44.282658, -22.603729 ], [ -44.285259, -22.609239 ], [ -44.294712, -22.601831 ], [ -44.295352, -22.597757 ], [ -44.303171, -22.59867 ], [ -44.312327, -22.594757 ], [ -44.318036, -22.596632 ], [ -44.326149, -22.588053 ], [ -44.339397, -22.590471 ], [ -44.342874, -22.58777 ], [ -44.347264, -22.590079 ], [ -44.345738, -22.596783 ], [ -44.349851, -22.595105 ], [ -44.351372, -22.599111 ], [ -44.349141, -22.608656 ], [ -44.356275, -22.614 ], [ -44.360657, -22.611223 ], [ -44.361159, -22.592402 ], [ -44.36594, -22.593361 ], [ -44.36985, -22.589373 ], [ -44.359768, -22.581435 ], [ -44.363588, -22.577913 ], [ -44.371208, -22.579617 ], [ -44.383986, -22.573293 ], [ -44.39146, -22.572651 ], [ -44.395271, -22.581071 ], [ -44.409153, -22.587864 ], [ -44.40497, -22.591413 ], [ -44.404358, -22.600096 ], [ -44.398079, -22.602526 ], [ -44.406455, -22.607879 ], [ -44.416317, -22.6013 ], [ -44.429794, -22.59804 ], [ -44.442301, -22.603839 ], [ -44.446294, -22.610021 ], [ -44.453964, -22.608639 ], [ -44.465776, -22.615197 ], [ -44.477802, -22.612445 ], [ -44.48295, -22.6041 ], [ -44.48804, -22.606036 ], [ -44.485134, -22.61088 ], [ -44.487364, -22.612319 ], [ -44.504018, -22.635664 ], [ -44.508885, -22.64043 ], [ -44.514489, -22.62973 ], [ -44.530378, -22.629846 ], [ -44.534248, -22.63254 ], [ -44.530798, -22.639005 ], [ -44.534852, -22.637047 ], [ -44.537022, -22.63188 ], [ -44.525632, -22.619024 ], [ -44.532769, -22.615216 ], [ -44.536767, -22.616831 ], [ -44.548483, -22.605679 ], [ -44.550468, -22.60455 ], [ -44.554364, -22.609475 ], [ -44.562808, -22.611033 ], [ -44.572745, -22.60141 ], [ -44.583716, -22.6255 ], [ -44.591037, -22.622476 ], [ -44.596758, -22.610046 ], [ -44.601879, -22.607146 ], [ -44.604328, -22.613951 ], [ -44.609362, -22.616585 ], [ -44.622128, -22.605277 ], [ -44.634208, -22.609085 ], [ -44.645424, -22.603409 ], [ -44.643015, -22.599995 ], [ -44.646686, -22.58415 ], [ -44.641934, -22.577144 ], [ -44.641296, -22.55888 ], [ -44.647652, -22.552003 ], [ -44.649919, -22.556523 ], [ -44.661099, -22.550446 ], [ -44.676992, -22.56101 ], [ -44.675822, -22.544422 ], [ -44.669494, -22.538814 ], [ -44.687726, -22.520967 ], [ -44.695506, -22.517786 ], [ -44.697732, -22.512858 ], [ -44.700714, -22.510631 ], [ -44.715267, -22.513749 ], [ -44.709655, -22.499922 ], [ -44.712076, -22.492886 ], [ -44.72013, -22.491841 ], [ -44.723455, -22.483629 ], [ -44.722691, -22.475214 ], [ -44.717328, -22.467845 ], [ -44.723953, -22.455787 ], [ -44.723628, -22.451032 ], [ -44.728254, -22.447936 ], [ -44.729777, -22.43963 ], [ -44.733067, -22.433108 ], [ -44.739989, -22.425244 ], [ -44.754669, -22.414439 ], [ -44.769541, -22.414656 ], [ -44.778353, -22.408091 ], [ -44.808806, -22.404805 ], [ -44.803584, -22.393336 ], [ -44.793284, -22.386601 ], [ -44.787155, -22.387602 ], [ -44.780051, -22.382283 ], [ -44.775566, -22.383804 ], [ -44.761601, -22.375766 ], [ -44.744016, -22.375708 ], [ -44.730465, -22.361134 ], [ -44.723546, -22.359464 ], [ -44.705101, -22.372821 ], [ -44.691195, -22.369609 ], [ -44.678328, -22.37373 ], [ -44.666054, -22.372698 ], [ -44.660267, -22.380034 ], [ -44.658439, -22.374252 ], [ -44.645828, -22.364652 ], [ -44.642471, -22.353259 ], [ -44.627914, -22.34549 ], [ -44.625738, -22.335609 ], [ -44.616843, -22.331289 ], [ -44.614918, -22.32974 ], [ -44.611885, -22.327717 ], [ -44.588624, -22.319915 ], [ -44.587245, -22.321122 ], [ -44.587381, -22.321468 ], [ -44.580608, -22.327289 ], [ -44.571241, -22.323664 ], [ -44.569482, -22.326804 ], [ -44.563914, -22.33189 ], [ -44.561268, -22.330003 ], [ -44.554348, -22.329639 ], [ -44.545434, -22.323163 ], [ -44.543038, -22.331385 ], [ -44.531528, -22.328195 ], [ -44.530129, -22.323421 ], [ -44.517332, -22.315834 ], [ -44.513242, -22.308511 ], [ -44.496352, -22.302387 ], [ -44.482271, -22.293316 ], [ -44.479131, -22.287603 ], [ -44.476263, -22.288253 ], [ -44.467575, -22.279114 ], [ -44.460713, -22.279875 ], [ -44.462866, -22.274531 ], [ -44.458706, -22.270008 ], [ -44.462188, -22.266209 ], [ -44.456018, -22.256759 ], [ -44.446245, -22.255151 ], [ -44.444315, -22.257482 ], [ -44.440022, -22.254328 ], [ -44.437992, -22.25783 ], [ -44.434236, -22.251982 ], [ -44.431839, -22.250955 ], [ -44.423466, -22.255173 ], [ -44.414021, -22.253664 ], [ -44.394366, -22.258417 ], [ -44.390683, -22.267828 ], [ -44.390531, -22.268118 ], [ -44.387158, -22.272015 ], [ -44.383643, -22.267039 ], [ -44.376988, -22.267542 ], [ -44.375244, -22.261591 ], [ -44.359826, -22.252185 ], [ -44.35191, -22.257264 ], [ -44.343798, -22.253135 ], [ -44.336812, -22.25819 ], [ -44.323501, -22.254501 ], [ -44.321574, -22.260673 ], [ -44.314306, -22.25401 ], [ -44.301359, -22.25306 ], [ -44.29108, -22.242571 ], [ -44.289019, -22.246972 ], [ -44.284088, -22.243073 ], [ -44.275961, -22.242689 ], [ -44.268375, -22.244331 ], [ -44.26688, -22.247844 ], [ -44.264179, -22.244366 ], [ -44.263076, -22.242946 ], [ -44.259864, -22.267878 ], [ -44.250372, -22.260204 ], [ -44.246299, -22.266518 ], [ -44.238716, -22.262452 ], [ -44.235049, -22.265717 ], [ -44.22396, -22.258838 ], [ -44.224016, -22.252503 ], [ -44.212899, -22.245777 ], [ -44.2081, -22.250571 ], [ -44.203429, -22.248353 ], [ -44.201271, -22.251075 ], [ -44.189072, -22.24026 ], [ -44.1806, -22.232643 ], [ -44.179828, -22.227574 ], [ -44.173153, -22.229973 ], [ -44.166441, -22.227088 ], [ -44.166606, -22.231743 ], [ -44.163716, -22.232051 ], [ -44.158212, -22.224797 ], [ -44.153244, -22.226464 ], [ -44.148765, -22.213178 ], [ -44.140662, -22.219776 ], [ -44.133184, -22.209617 ], [ -44.127043, -22.211552 ], [ -44.125988, -22.208319 ], [ -44.121094, -22.208632 ], [ -44.124881, -22.20003 ], [ -44.120874, -22.19485 ], [ -44.122684, -22.187783 ], [ -44.118879, -22.186794 ], [ -44.117463, -22.189631 ], [ -44.104657, -22.184091 ], [ -44.104485, -22.177321 ], [ -44.099656, -22.172821 ], [ -44.089769, -22.175334 ], [ -44.087367, -22.183938 ], [ -44.084409, -22.175051 ], [ -44.07644, -22.174924 ], [ -44.072148, -22.164474 ], [ -44.065965, -22.161617 ], [ -44.040579, -22.160112 ], [ -44.037854, -22.153873 ], [ -44.023515, -22.150891 ], [ -44.004628, -22.161895 ], [ -43.997601, -22.155556 ], [ -43.992886, -22.157846 ], [ -43.987905, -22.149689 ], [ -43.976741, -22.149161 ], [ -43.978385, -22.146171 ], [ -43.960728, -22.139511 ], [ -43.952867, -22.140987 ], [ -43.940361, -22.131664 ], [ -43.888553, -22.113991 ], [ -43.880184, -22.113164 ], [ -43.879922, -22.108107 ], [ -43.879496, -22.099869 ], [ -43.871009, -22.103443 ], [ -43.870318, -22.099494 ], [ -43.86191, -22.099052 ], [ -43.857238, -22.094658 ], [ -43.842971, -22.098474 ], [ -43.838303, -22.095671 ], [ -43.83468, -22.094665 ], [ -43.81799, -22.086179 ], [ -43.816326, -22.086165 ], [ -43.810678, -22.085536 ], [ -43.812432, -22.082911 ], [ -43.809905, -22.081805 ], [ -43.79984, -22.082012 ], [ -43.777015, -22.066291 ], [ -43.768347, -22.067077 ], [ -43.765573, -22.062434 ], [ -43.763442, -22.072773 ], [ -43.755802, -22.076495 ], [ -43.760083, -22.080524 ], [ -43.745966, -22.087754 ], [ -43.746518, -22.092287 ], [ -43.740752, -22.094623 ], [ -43.734186, -22.096773 ], [ -43.719517, -22.080723 ], [ -43.70946, -22.081078 ], [ -43.708988, -22.076505 ], [ -43.69982, -22.077419 ], [ -43.69143, -22.070422 ], [ -43.681491, -22.071131 ], [ -43.679682, -22.080591 ], [ -43.673597, -22.089352 ], [ -43.668231, -22.085539 ], [ -43.665184, -22.073969 ], [ -43.656021, -22.072856 ], [ -43.652155, -22.066626 ], [ -43.645193, -22.065447 ], [ -43.643956, -22.065828 ], [ -43.638294, -22.067575 ], [ -43.627904, -22.076062 ], [ -43.620661, -22.075019 ], [ -43.620323, -22.08336 ], [ -43.612777, -22.08185 ], [ -43.611487, -22.071064 ], [ -43.6033, -22.071642 ], [ -43.599242, -22.058521 ], [ -43.595524, -22.059587 ], [ -43.592306, -22.055442 ], [ -43.585662, -22.051539 ], [ -43.584111, -22.070043 ], [ -43.574323, -22.077338 ], [ -43.56883, -22.077336 ], [ -43.566518, -22.087244 ], [ -43.562711, -22.08776 ], [ -43.561978, -22.087313 ], [ -43.556385, -22.081816 ], [ -43.555462, -22.081608 ], [ -43.525164, -22.071523 ], [ -43.519413, -22.061382 ], [ -43.513185, -22.058841 ], [ -43.505333, -22.0661 ], [ -43.507106, -22.07402 ], [ -43.491791, -22.073821 ], [ -43.48626, -22.072992 ], [ -43.475513, -22.06928 ], [ -43.462048, -22.072163 ], [ -43.43664, -22.059535 ], [ -43.427766, -22.054208 ], [ -43.418851, -22.053315 ], [ -43.387737, -22.031779 ], [ -43.368154, -22.020016 ], [ -43.36549, -22.011128 ], [ -43.351678, -22.008269 ], [ -43.349119, -22.002911 ], [ -43.346435, -22.00307 ], [ -43.33896, -22.010078 ], [ -43.330459, -22.010415 ], [ -43.324066, -22.005858 ], [ -43.317378, -22.006379 ], [ -43.316487, -22.015555 ], [ -43.298655, -22.019588 ], [ -43.280101, -22.010554 ], [ -43.268818, -22.011814 ], [ -43.261991, -22.008047 ], [ -43.254376, -22.011504 ], [ -43.246128, -22.00655 ], [ -43.236186, -22.01162 ], [ -43.236323, -22.022384 ], [ -43.233201, -22.023419 ], [ -43.227295, -22.02804 ], [ -43.22273, -22.031199 ], [ -43.215226, -22.030202 ], [ -43.211017, -22.029643 ], [ -43.203594, -22.025471 ], [ -43.202569, -22.025018 ], [ -43.204323, -22.03478 ], [ -43.20162, -22.03662 ], [ -43.180404, -22.028835 ], [ -43.169126, -22.021717 ], [ -43.164294, -22.022452 ], [ -43.162974, -22.028031 ], [ -43.154709, -22.031939 ], [ -43.147154, -22.030634 ], [ -43.143738, -22.033239 ], [ -43.130718, -22.029197 ], [ -43.130895, -22.035493 ], [ -43.127682, -22.045757 ], [ -43.133671, -22.058525 ], [ -43.150165, -22.071159 ], [ -43.153703, -22.077495 ], [ -43.145695, -22.094585 ], [ -43.145541, -22.097249 ], [ -43.136125, -22.109184 ], [ -43.127179, -22.104423 ], [ -43.122129, -22.090603 ], [ -43.106329, -22.083551 ], [ -43.089069, -22.087461 ], [ -43.077596, -22.083626 ], [ -43.07371, -22.092857 ], [ -43.05274, -22.082052 ], [ -43.032743, -22.065412 ], [ -43.032181, -22.059747 ], [ -43.038484, -22.052495 ], [ -43.039023, -22.046116 ], [ -43.002629, -22.031901 ], [ -42.99617, -22.035575 ], [ -42.968568, -22.014403 ], [ -42.959254, -22.01454 ], [ -42.946677, -22.005428 ], [ -42.920477, -21.994798 ], [ -42.90867, -21.990006 ], [ -42.901886, -21.984174 ], [ -42.882366, -21.966659 ], [ -42.882092, -21.959625 ], [ -42.845869, -21.947942 ], [ -42.791312, -21.930388 ], [ -42.767326, -21.920876 ], [ -42.743213, -21.909627 ], [ -42.719407, -21.89678 ], [ -42.668512, -21.874048 ], [ -42.662564, -21.871908 ], [ -42.655707, -21.869441 ], [ -42.646565, -21.866728 ], [ -42.6123, -21.854913 ], [ -42.608092, -21.851708 ], [ -42.604826, -21.854592 ], [ -42.597021, -21.853226 ], [ -42.57946, -21.845216 ], [ -42.58198, -21.837239 ], [ -42.552443, -21.825152 ], [ -42.540063, -21.820593 ], [ -42.463954, -21.78632 ], [ -42.460235, -21.784985 ], [ -42.39078, -21.759728 ], [ -42.383133, -21.752949 ], [ -42.377882, -21.748514 ], [ -42.376305, -21.74818 ], [ -42.356126, -21.741406 ], [ -42.335419, -21.745764 ], [ -42.324415, -21.742339 ], [ -42.311132, -21.73507 ], [ -42.3068, -21.729036 ], [ -42.266944, -21.713725 ], [ -42.271376, -21.714073 ], [ -42.266206, -21.707868 ], [ -42.271709, -21.703804 ], [ -42.270931, -21.699434 ], [ -42.264932, -21.693601 ], [ -42.270235, -21.681208 ], [ -42.274876, -21.67643 ], [ -42.282956, -21.68046 ], [ -42.286706, -21.672238 ], [ -42.282657, -21.670175 ], [ -42.290733, -21.66426 ], [ -42.295266, -21.659809 ], [ -42.301371, -21.654822 ], [ -42.310345, -21.659556 ], [ -42.315887, -21.654762 ], [ -42.320012, -21.660256 ], [ -42.324278, -21.656082 ], [ -42.331456, -21.661218 ], [ -42.33604, -21.660246 ], [ -42.337789, -21.661407 ], [ -42.342678, -21.65922 ], [ -42.342576, -21.6553 ], [ -42.346754, -21.642691 ], [ -42.35509, -21.647003 ], [ -42.364719, -21.645797 ], [ -42.36941, -21.639805 ], [ -42.363558, -21.631408 ], [ -42.358296, -21.631235 ], [ -42.355314, -21.625372 ], [ -42.358898, -21.620948 ], [ -42.364482, -21.623761 ], [ -42.368732, -21.619481 ], [ -42.360959, -21.601565 ], [ -42.352732, -21.59158 ], [ -42.345846, -21.582483 ], [ -42.325539, -21.56954 ], [ -42.326984, -21.562204 ], [ -42.330734, -21.560127 ], [ -42.313861, -21.555102 ], [ -42.30885, -21.550282 ], [ -42.310173, -21.546611 ], [ -42.302517, -21.53902 ], [ -42.305928, -21.529052 ], [ -42.296703, -21.524065 ], [ -42.286024, -21.527586 ], [ -42.282761, -21.522951 ], [ -42.273349, -21.503687 ], [ -42.259588, -21.495895 ], [ -42.256647, -21.494236 ], [ -42.252573, -21.493211 ], [ -42.252323, -21.489349 ], [ -42.270994, -21.475187 ], [ -42.268206, -21.468384 ], [ -42.292207, -21.459553 ], [ -42.283906, -21.445961 ], [ -42.285643, -21.441847 ], [ -42.279251, -21.434917 ], [ -42.2805, -21.432149 ], [ -42.275078, -21.427861 ], [ -42.278655, -21.41009 ], [ -42.274302, -21.403496 ], [ -42.267041, -21.399557 ], [ -42.260407, -21.409596 ], [ -42.238959, -21.40301 ], [ -42.237532, -21.392474 ], [ -42.249679, -21.389677 ], [ -42.252026, -21.386031 ], [ -42.240566, -21.377445 ], [ -42.241428, -21.372671 ], [ -42.229457, -21.366085 ], [ -42.232202, -21.353671 ], [ -42.228972, -21.350655 ], [ -42.235814, -21.343253 ], [ -42.22371, -21.337507 ], [ -42.228509, -21.328257 ], [ -42.23628, -21.324695 ], [ -42.237817, -21.318199 ], [ -42.229432, -21.307974 ], [ -42.22903, -21.284713 ], [ -42.22399, -21.276247 ], [ -42.212116, -21.271586 ], [ -42.209979, -21.266251 ], [ -42.19297, -21.252876 ], [ -42.189288, -21.249416 ], [ -42.194815, -21.238062 ], [ -42.188372, -21.229563 ], [ -42.191197, -21.223335 ], [ -42.196921, -21.225856 ], [ -42.202543, -21.221203 ], [ -42.20106, -21.208136 ], [ -42.194676, -21.201266 ], [ -42.2059, -21.185651 ], [ -42.208087, -21.177728 ], [ -42.203125, -21.174181 ], [ -42.193679, -21.163589 ], [ -42.195478, -21.159557 ], [ -42.191707, -21.148105 ], [ -42.179, -21.14049 ], [ -42.175153, -21.131675 ], [ -42.17024, -21.128155 ], [ -42.170252, -21.114122 ], [ -42.163962, -21.100971 ], [ -42.139696, -21.102554 ], [ -42.135615, -21.093927 ], [ -42.13276, -21.080592 ], [ -42.120796, -21.077607 ], [ -42.118514, -21.074831 ], [ -42.119905, -21.069495 ], [ -42.100937, -21.049283 ], [ -42.100709, -21.033975 ], [ -42.093337, -21.036771 ], [ -42.080089, -21.035625 ], [ -42.079752, -21.030093 ], [ -42.083966, -21.028341 ], [ -42.084507, -21.0224 ], [ -42.102289, -21.013983 ], [ -42.108689, -21.014282 ], [ -42.108843, -21.01417 ], [ -42.110403, -21.013039 ], [ -42.115374, -21.009434 ], [ -42.116604, -21.002104 ], [ -42.12609, -21.003104 ], [ -42.14083, -20.99267 ], [ -42.141171, -20.986614 ], [ -42.150732, -20.979746 ], [ -42.149841, -20.975107 ], [ -42.151268, -20.973895 ], [ -42.137997, -20.960074 ], [ -42.125078, -20.955358 ], [ -42.121459, -20.959252 ], [ -42.115186, -20.958741 ], [ -42.114823, -20.949748 ], [ -42.10902, -20.947485 ], [ -42.09356, -20.935539 ], [ -42.087038, -20.938663 ], [ -42.065336, -20.938155 ], [ -42.045766, -20.932764 ], [ -42.038132, -20.92697 ], [ -42.022962, -20.924993 ], [ -42.018698, -20.927326 ], [ -42.004184, -20.93155 ], [ -41.99827, -20.925986 ], [ -41.976262, -20.935022 ], [ -41.979238, -20.921877 ], [ -41.972464, -20.91563 ], [ -41.96693, -20.916353 ], [ -41.963687, -20.906027 ], [ -41.967055, -20.899419 ], [ -41.964791, -20.892384 ], [ -41.960014, -20.882348 ], [ -41.949927, -20.87392 ], [ -41.954321, -20.865023 ], [ -41.949381, -20.857474 ], [ -41.935242, -20.85416 ], [ -41.930993, -20.847877 ], [ -41.929475, -20.844391 ], [ -41.925758, -20.837576 ], [ -41.934989, -20.828077 ], [ -41.924939, -20.801097 ], [ -41.927734, -20.794504 ], [ -41.915644, -20.792312 ], [ -41.905905, -20.796754 ], [ -41.900797, -20.79576 ], [ -41.896292, -20.789027 ], [ -41.885157, -20.784803 ], [ -41.8784, -20.778236 ], [ -41.878668, -20.773619 ], [ -41.873064, -20.770449 ], [ -41.874626, -20.765991 ], [ -41.861187, -20.763538 ], [ -41.853441, -20.763662 ], [ -41.847736, -20.77465 ], [ -41.837393, -20.780158 ], [ -41.825182, -20.788105 ], [ -41.828119, -20.796121 ], [ -41.816462, -20.800455 ], [ -41.806653, -20.79716 ], [ -41.813525, -20.804648 ], [ -41.800794, -20.805089 ], [ -41.794071, -20.798475 ], [ -41.781839, -20.797771 ], [ -41.775023, -20.799423 ], [ -41.767122, -20.80151 ], [ -41.763527, -20.806588 ], [ -41.755274, -20.807058 ], [ -41.749995, -20.817595 ], [ -41.747753, -20.81291 ], [ -41.740511, -20.817809 ], [ -41.742586, -20.825151 ], [ -41.738892, -20.827334 ], [ -41.740673, -20.829647 ], [ -41.736993, -20.836109 ], [ -41.745169, -20.852839 ], [ -41.742819, -20.858658 ], [ -41.739793, -20.865608 ], [ -41.741457, -20.872332 ], [ -41.728819, -20.869576 ], [ -41.726712, -20.864362 ], [ -41.712005, -20.871082 ], [ -41.718595, -20.875029 ], [ -41.726728, -20.892362 ], [ -41.724949, -20.896766 ], [ -41.719305, -20.896724 ], [ -41.722738, -20.922313 ], [ -41.73705, -20.927299 ], [ -41.737152, -20.930432 ], [ -41.733386, -20.943417 ], [ -41.717296, -20.954607 ], [ -41.715683, -20.9755 ], [ -41.711542, -20.980568 ], [ -41.710436, -20.989239 ], [ -41.715727, -20.991585 ], [ -41.722434, -21.010675 ], [ -41.715114, -21.016171 ], [ -41.71563, -21.022404 ], [ -41.723314, -21.024706 ], [ -41.72593, -21.03213 ], [ -41.720941, -21.04463 ], [ -41.716236, -21.046637 ], [ -41.719998, -21.054733 ], [ -41.723938, -21.055922 ], [ -41.728815, -21.049868 ], [ -41.732033, -21.066285 ], [ -41.723232, -21.067067 ], [ -41.721307, -21.073119 ], [ -41.731047, -21.086921 ], [ -41.734688, -21.09855 ], [ -41.735241, -21.102876 ], [ -41.728626, -21.10634 ], [ -41.722231, -21.103026 ], [ -41.716739, -21.104984 ], [ -41.707464, -21.106658 ], [ -41.704757, -21.110695 ], [ -41.717542, -21.115835 ], [ -41.718075, -21.123221 ], [ -41.704169, -21.126655 ], [ -41.705323, -21.120332 ], [ -41.695346, -21.114919 ], [ -41.69083, -21.116181 ], [ -41.687897, -21.121446 ], [ -41.681792, -21.120558 ], [ -41.67752, -21.125218 ], [ -41.678751, -21.131446 ], [ -41.676023, -21.133237 ], [ -41.671233, -21.126502 ], [ -41.662263, -21.124582 ], [ -41.664527, -21.132193 ], [ -41.653058, -21.136891 ], [ -41.653715, -21.142484 ], [ -41.645541, -21.143055 ], [ -41.638548, -21.145883 ], [ -41.628501, -21.143973 ], [ -41.615855, -21.150926 ], [ -41.613131, -21.155068 ], [ -41.607516, -21.154512 ], [ -41.605639, -21.154117 ], [ -41.592032, -21.148874 ], [ -41.586911, -21.149056 ], [ -41.581971, -21.166097 ], [ -41.570313, -21.170845 ], [ -41.569519, -21.179079 ], [ -41.565317, -21.182248 ], [ -41.558184, -21.172381 ], [ -41.551706, -21.175554 ], [ -41.548035, -21.182373 ], [ -41.537728, -21.180698 ], [ -41.53051, -21.17934 ], [ -41.52084, -21.186672 ], [ -41.516845, -21.186512 ], [ -41.512065, -21.175216 ], [ -41.505319, -21.175702 ], [ -41.498201, -21.184828 ], [ -41.488, -21.1798 ], [ -41.482233, -21.183275 ], [ -41.479349, -21.181729 ], [ -41.47948, -21.193442 ], [ -41.469736, -21.202192 ], [ -41.466521, -21.204072 ], [ -41.459935, -21.206894 ], [ -41.453733, -21.20787 ], [ -41.447536, -21.213648 ], [ -41.43523, -21.215534 ], [ -41.4169, -21.199359 ], [ -41.412844, -21.201243 ], [ -41.410266, -21.198627 ], [ -41.406441, -21.202281 ], [ -41.402976, -21.198427 ], [ -41.394961, -21.201137 ], [ -41.392805, -21.2022 ], [ -41.387917, -21.198914 ], [ -41.381875, -21.199779 ], [ -41.381025, -21.195926 ], [ -41.377117, -21.195258 ], [ -41.376722, -21.200811 ], [ -41.370687, -21.203951 ], [ -41.363249, -21.202417 ], [ -41.343272, -21.208539 ], [ -41.337799, -21.206875 ], [ -41.333623, -21.209439 ], [ -41.332229, -21.214479 ], [ -41.325826, -21.218035 ], [ -41.325735, -21.212607 ], [ -41.31668, -21.213271 ], [ -41.317286, -21.221113 ], [ -41.31104, -21.218808 ], [ -41.2974, -21.233964 ], [ -41.288427, -21.233691 ], [ -41.285625, -21.23734 ], [ -41.283478, -21.23446 ], [ -41.276672, -21.239769 ], [ -41.275393, -21.235903 ], [ -41.271426, -21.236813 ], [ -41.271923, -21.232895 ], [ -41.265289, -21.232608 ], [ -41.261673, -21.23628 ], [ -41.256901, -21.2253 ], [ -41.249347, -21.221706 ], [ -41.246545, -21.220703 ], [ -41.240881, -21.220674 ], [ -41.22805, -21.225515 ], [ -41.227194, -21.230538 ], [ -41.223903, -21.226809 ], [ -41.22454, -21.230235 ], [ -41.220313, -21.229496 ], [ -41.221273, -21.232856 ], [ -41.211833, -21.235415 ], [ -41.204875, -21.243425 ], [ -41.203682, -21.239381 ], [ -41.19918, -21.243665 ], [ -41.193174, -21.243822 ], [ -41.192566, -21.241275 ], [ -41.190506, -21.248004 ], [ -41.187751, -21.243044 ], [ -41.183148, -21.24396 ], [ -41.185835, -21.240923 ], [ -41.182467, -21.235836 ], [ -41.180783, -21.2394 ], [ -41.17755, -21.238652 ], [ -41.180635, -21.241428 ], [ -41.17409, -21.240607 ], [ -41.176412, -21.244363 ], [ -41.163633, -21.242733 ], [ -41.160576, -21.245521 ], [ -41.157815, -21.240653 ], [ -41.155492, -21.244589 ], [ -41.155813, -21.239671 ], [ -41.140982, -21.238209 ], [ -41.137055, -21.227502 ], [ -41.134008, -21.226158 ], [ -41.11884, -21.229906 ], [ -41.103907, -21.219257 ], [ -41.102263, -21.221702 ], [ -41.092043, -21.218169 ], [ -41.090658, -21.221169 ], [ -41.088218, -21.219944 ], [ -41.081045, -21.221501 ], [ -41.072851, -21.230458 ], [ -41.070158, -21.228243 ], [ -41.055476, -21.237673 ], [ -41.040992, -21.25468 ], [ -41.024755, -21.245814 ], [ -41.011914, -21.250599 ], [ -41.006269, -21.251556 ], [ -40.998064, -21.265741 ], [ -40.998922, -21.277976 ], [ -40.994281, -21.285842 ], [ -40.985176, -21.286481 ], [ -40.977596, -21.280553 ], [ -40.976148, -21.286453 ], [ -40.980291, -21.288305 ], [ -40.97533, -21.288588 ], [ -40.972433, -21.293622 ], [ -40.965456, -21.295169 ], [ -40.965066, -21.299189 ], [ -40.956395, -21.303353 ], [ -40.960219, -21.31772 ], [ -40.964397, -21.343672 ], [ -40.960201, -21.360955 ], [ -40.964754, -21.363142 ], [ -40.982269, -21.393436 ], [ -40.987177, -21.391263 ], [ -40.997202, -21.398265 ], [ -41.006368, -21.419872 ], [ -41.023176, -21.444879 ], [ -41.03718, -21.461067 ], [ -41.047481, -21.466771 ], [ -41.063978, -21.486935 ], [ -41.070339, -21.499002 ], [ -41.074256, -21.521777 ], [ -41.07079, -21.54436 ], [ -41.056615, -21.584208 ], [ -41.037731, -21.60283 ], [ -41.019726, -21.604194 ], [ -41.012979, -21.60827 ], [ -41.014062, -21.604772 ], [ -41.010008, -21.611509 ], [ -41.016179, -21.646859 ], [ -41.02364, -21.680249 ], [ -41.025727, -21.720562 ], [ -41.008824, -21.797085 ], [ -40.97966, -21.915066 ], [ -40.975388, -21.93033 ], [ -40.974139, -21.968133 ], [ -40.984751, -21.99944 ], [ -40.992423, -22.00946 ], [ -41.009229, -22.022039 ], [ -41.047699, -22.041358 ], [ -41.130604, -22.090536 ], [ -41.157587, -22.109583 ], [ -41.203286, -22.131662 ], [ -41.241975, -22.146701 ], [ -41.294453, -22.161591 ], [ -41.421783, -22.194343 ], [ -41.424958, -22.194933 ], [ -41.460947, -22.205121 ], [ -41.467255, -22.207087 ], [ -41.482733, -22.211557 ], [ -41.498809, -22.216795 ], [ -41.537953, -22.232584 ], [ -41.576216, -22.247062 ], [ -41.591442, -22.253632 ], [ -41.604505, -22.259402 ], [ -41.619649, -22.265617 ], [ -41.688614, -22.299615 ], [ -41.694864, -22.303481 ], [ -41.740512, -22.340187 ], [ -41.753334, -22.34582 ], [ -41.766698, -22.354881 ], [ -41.77337, -22.364005 ], [ -41.774364, -22.373551 ], [ -41.766617, -22.37677 ], [ -41.770666, -22.38395 ], [ -41.767503, -22.388416 ], [ -41.787362, -22.398116 ], [ -41.790091, -22.399594 ], [ -41.817391, -22.416336 ], [ -41.841086, -22.434857 ], [ -41.851964, -22.446072 ], [ -41.858001, -22.458573 ], [ -41.861841, -22.477064 ], [ -41.868344, -22.478053 ], [ -41.878339, -22.487637 ], [ -41.891037, -22.48669 ], [ -41.899346, -22.49425 ], [ -41.916895, -22.516697 ], [ -41.920037, -22.526446 ], [ -41.932447, -22.537559 ], [ -41.93737, -22.536685 ], [ -41.943566, -22.527923 ], [ -41.957035, -22.531785 ], [ -41.969062, -22.542949 ], [ -41.979083, -22.562106 ], [ -41.989057, -22.598519 ], [ -41.992566, -22.597247 ], [ -41.997756, -22.608559 ], [ -41.997586, -22.66297 ], [ -41.987778, -22.709396 ], [ -41.979433, -22.725728 ], [ -41.974031, -22.730103 ], [ -41.955306, -22.732088 ], [ -41.957287, -22.737522 ], [ -41.934358, -22.765804 ], [ -41.919, -22.770755 ], [ -41.91039, -22.764021 ], [ -41.912363, -22.755036 ], [ -41.905029, -22.754889 ], [ -41.900676, -22.750409 ], [ -41.888227, -22.75373 ], [ -41.881603, -22.748476 ], [ -41.882264, -22.740309 ], [ -41.874757, -22.741593 ], [ -41.871948, -22.73706 ], [ -41.867844, -22.741347 ], [ -41.874131, -22.750821 ], [ -41.864005, -22.75357 ], [ -41.865605, -22.76068 ], [ -41.87148, -22.761119 ], [ -41.874059, -22.765754 ], [ -41.876589, -22.7615 ], [ -41.878444, -22.775032 ], [ -41.884922, -22.768252 ], [ -41.888955, -22.770151 ], [ -41.883087, -22.776746 ], [ -41.88215, -22.78427 ], [ -41.885004, -22.784357 ], [ -41.887419, -22.777364 ], [ -41.8967, -22.785773 ], [ -41.900252, -22.780589 ], [ -41.905397, -22.782501 ], [ -41.906501, -22.778484 ], [ -41.912309, -22.77865 ], [ -41.931453, -22.79665 ], [ -41.932704, -22.803625 ], [ -41.927397, -22.807578 ], [ -41.929783, -22.813145 ], [ -41.941418, -22.809031 ], [ -41.944782, -22.812847 ], [ -41.969671, -22.820985 ], [ -41.985952, -22.848105 ], [ -41.98581, -22.861856 ], [ -41.982668, -22.866067 ], [ -41.97876, -22.864497 ], [ -41.983282, -22.868166 ], [ -41.980869, -22.872408 ], [ -41.990811, -22.881854 ], [ -41.998945, -22.884379 ], [ -42.001482, -22.889387 ], [ -42.005059, -22.884797 ], [ -42.011143, -22.883683 ], [ -42.023896, -22.8932 ], [ -42.032086, -22.906981 ], [ -42.035367, -22.933662 ], [ -42.031702, -22.946187 ], [ -42.021204, -22.945995 ], [ -42.025454, -22.95581 ], [ -42.020783, -22.961325 ], [ -42.014199, -22.954537 ], [ -42.001972, -22.949813 ], [ -42.008559, -22.959624 ], [ -42.006253, -22.962005 ], [ -42.00287, -22.959014 ], [ -41.996617, -22.960016 ], [ -42.002646, -22.969181 ], [ -42.013058, -22.964121 ], [ -42.015731, -22.967281 ], [ -42.011557, -22.970074 ], [ -42.018813, -22.970775 ], [ -42.018866, -22.978918 ], [ -42.010223, -22.978524 ], [ -42.007453, -22.98312 ], [ -42.012168, -22.98806 ], [ -42.012845, -22.99744 ], [ -42.020083, -22.983144 ], [ -42.029807, -22.982532 ], [ -42.034508, -22.978524 ], [ -42.033729, -22.970709 ], [ -42.045616, -22.962937 ], [ -42.076117, -22.95517 ], [ -42.143533, -22.949357 ], [ -42.291039, -22.93906 ], [ -42.366866, -22.935454 ], [ -42.4552, -22.935287 ], [ -42.476206, -22.93859 ], [ -42.510205, -22.933832 ], [ -42.585634, -22.933156 ], [ -42.635893, -22.937103 ], [ -42.678367, -22.945533 ], [ -42.683956, -22.949552 ], [ -42.68534, -22.958754 ], [ -42.691871, -22.962029 ], [ -42.698144, -22.957347 ], [ -42.713928, -22.955719 ], [ -42.812837, -22.961249 ], [ -42.854103, -22.964014 ], [ -42.875953, -22.966217 ], [ -42.918033, -22.974464 ], [ -42.994122, -22.969181 ], [ -43.011452, -22.971436 ], [ -43.013758, -22.976373 ], [ -43.023317, -22.975225 ], [ -43.024314, -22.980144 ], [ -43.027653, -22.980684 ], [ -43.030701, -22.97606 ], [ -43.039392, -22.974513 ], [ -43.051679, -22.982412 ], [ -43.051619, -22.977612 ], [ -43.045925, -22.972497 ], [ -43.05365, -22.962894 ], [ -43.082256, -22.955253 ], [ -43.110651, -22.953684 ], [ -43.113785, -22.951916 ], [ -43.113536, -22.946522 ], [ -43.11993, -22.945705 ], [ -43.117089, -22.938032 ], [ -43.135343, -22.938738 ], [ -43.126347, -22.934904 ], [ -43.124037, -22.922958 ], [ -43.120174, -22.923356 ], [ -43.116009, -22.931093 ], [ -43.112648, -22.929365 ], [ -43.114149, -22.932571 ], [ -43.108231, -22.937566 ], [ -43.102147, -22.935567 ], [ -43.094977, -22.925832 ], [ -43.096484, -22.914824 ], [ -43.110788, -22.916105 ], [ -43.116561, -22.905143 ], [ -43.1242, -22.905917 ], [ -43.130952, -22.911518 ], [ -43.136897, -22.902897 ], [ -43.124619, -22.894924 ], [ -43.126147, -22.885181 ], [ -43.133732, -22.88514 ], [ -43.133316, -22.880011 ], [ -43.129952, -22.876769 ], [ -43.122376, -22.877677 ], [ -43.120393, -22.882608 ], [ -43.11493, -22.88092 ], [ -43.1117, -22.867914 ], [ -43.103006, -22.857108 ], [ -43.098778, -22.848418 ], [ -43.093457, -22.840207 ], [ -43.096757, -22.834286 ], [ -43.095401, -22.827007 ], [ -43.080176, -22.818711 ], [ -43.065654, -22.802122 ], [ -43.078649, -22.79892 ], [ -43.080732, -22.78664 ], [ -43.069676, -22.779153 ], [ -43.067871, -22.768589 ], [ -43.062263, -22.763431 ], [ -43.028911, -22.7466 ], [ -43.026424, -22.7419 ], [ -43.030487, -22.73293 ], [ -43.027427, -22.724656 ], [ -43.034516, -22.716155 ], [ -43.035153, -22.709584 ], [ -43.031877, -22.70495 ], [ -43.026095, -22.705219 ], [ -43.035428, -22.697942 ], [ -43.031624, -22.692094 ], [ -43.038154, -22.688079 ], [ -43.039872, -22.690977 ], [ -43.043718, -22.68496 ], [ -43.050208, -22.689008 ], [ -43.054543, -22.681456 ], [ -43.056397, -22.684842 ], [ -43.065229, -22.686417 ], [ -43.085516, -22.677123 ], [ -43.092235, -22.684998 ], [ -43.104128, -22.686998 ], [ -43.107731, -22.687056 ], [ -43.10634, -22.694203 ], [ -43.108897, -22.692511 ], [ -43.113613, -22.688309 ], [ -43.111707, -22.693476 ], [ -43.11623, -22.695974 ], [ -43.11682, -22.706168 ], [ -43.12701, -22.713844 ], [ -43.133842, -22.714213 ], [ -43.141706, -22.707515 ], [ -43.151789, -22.707131 ], [ -43.163986, -22.710211 ], [ -43.166005, -22.71402 ], [ -43.181315, -22.720198 ], [ -43.21511, -22.726964 ], [ -43.211901, -22.730166 ], [ -43.216039, -22.735463 ], [ -43.227015, -22.739831 ], [ -43.235597, -22.735123 ], [ -43.232733, -22.739856 ], [ -43.239232, -22.740858 ], [ -43.244386, -22.746267 ], [ -43.2424, -22.749784 ], [ -43.252843, -22.75673 ], [ -43.258845, -22.75539 ], [ -43.253961, -22.759132 ], [ -43.271708, -22.771747 ], [ -43.270508, -22.773968 ], [ -43.277819, -22.780537 ], [ -43.276761, -22.785258 ], [ -43.288206, -22.800317 ], [ -43.287761, -22.807922 ], [ -43.282899, -22.816166 ], [ -43.273489, -22.810561 ], [ -43.275369, -22.818385 ], [ -43.267233, -22.821957 ], [ -43.255339, -22.836488 ], [ -43.244264, -22.842317 ], [ -43.241492, -22.857999 ], [ -43.238792, -22.862453 ], [ -43.242483, -22.868121 ], [ -43.237568, -22.876713 ], [ -43.23009, -22.870986 ], [ -43.225624, -22.875273 ], [ -43.222673, -22.87322 ], [ -43.217648, -22.875925 ], [ -43.208929, -22.868519 ], [ -43.200885, -22.876103 ], [ -43.210953, -22.886923 ], [ -43.208158, -22.89278 ], [ -43.189257, -22.888115 ], [ -43.179577, -22.89124 ], [ -43.181266, -22.894675 ], [ -43.178528, -22.891659 ], [ -43.178983, -22.895319 ], [ -43.17441, -22.89268 ], [ -43.166883, -22.895001 ], [ -43.171385, -22.897561 ], [ -43.167455, -22.899214 ], [ -43.165323, -22.896282 ], [ -43.167408, -22.899313 ], [ -43.176567, -22.895951 ], [ -43.168723, -22.904125 ], [ -43.16149, -22.904183 ], [ -43.160657, -22.912126 ], [ -43.156672, -22.912749 ], [ -43.161438, -22.917241 ], [ -43.168419, -22.914133 ], [ -43.172445, -22.916549 ], [ -43.170251, -22.919548 ], [ -43.168618, -22.916865 ], [ -43.166672, -22.922168 ], [ -43.170536, -22.93201 ], [ -43.167783, -22.93794 ], [ -43.173768, -22.943646 ], [ -43.179299, -22.943593 ], [ -43.18018, -22.94752 ], [ -43.169509, -22.951795 ], [ -43.161871, -22.943068 ], [ -43.151178, -22.938216 ], [ -43.155225, -22.942997 ], [ -43.149802, -22.950252 ], [ -43.163809, -22.953988 ], [ -43.159366, -22.957065 ], [ -43.159961, -22.960962 ], [ -43.158549, -22.96381 ], [ -43.167431, -22.963338 ], [ -43.181868, -22.971655 ], [ -43.186555, -22.981657 ], [ -43.180899, -22.985561 ], [ -43.186947, -22.987576 ], [ -43.19071, -22.990433 ], [ -43.221781, -22.988396 ], [ -43.243407, -23.001135 ], [ -43.274992, -23.002895 ], [ -43.285872, -23.008743 ], [ -43.285906, -23.016061 ], [ -43.296328, -23.016542 ], [ -43.294039, -23.011548 ], [ -43.301371, -23.008621 ], [ -43.305868, -23.00056 ], [ -43.311516, -22.996953 ], [ -43.319707, -22.997012 ], [ -43.32326, -22.990199 ], [ -43.333957, -22.989608 ], [ -43.342401, -22.981828 ], [ -43.348074, -22.979622 ], [ -43.350966, -22.978497 ], [ -43.363957, -22.973441 ], [ -43.37604, -22.975638 ], [ -43.382648, -22.973616 ], [ -43.393926, -22.983224 ], [ -43.403537, -22.9748 ], [ -43.406043, -22.978607 ], [ -43.402989, -22.984849 ], [ -43.406038, -22.980534 ], [ -43.415013, -22.987238 ], [ -43.412065, -22.986204 ], [ -43.412433, -22.98921 ], [ -43.407239, -22.991964 ], [ -43.390238, -22.988083 ], [ -43.388229, -22.992216 ], [ -43.391731, -22.993911 ], [ -43.388703, -22.994371 ], [ -43.385457, -22.989668 ], [ -43.387377, -22.982566 ], [ -43.380736, -22.977888 ], [ -43.349818, -22.979132 ], [ -43.344484, -22.984232 ], [ -43.35734, -22.984888 ], [ -43.349596, -22.987355 ], [ -43.346507, -22.991894 ], [ -43.351366, -22.993763 ], [ -43.357649, -22.989754 ], [ -43.359897, -22.993356 ], [ -43.323428, -22.995841 ], [ -43.322537, -23.000271 ], [ -43.316682, -22.999987 ], [ -43.310703, -23.00604 ], [ -43.295314, -23.012115 ], [ -43.305526, -23.015821 ], [ -43.358147, -23.010746 ], [ -43.443295, -23.021551 ], [ -43.465703, -23.029104 ], [ -43.469985, -23.033232 ], [ -43.468593, -23.037531 ], [ -43.472893, -23.032074 ], [ -43.493814, -23.034716 ], [ -43.506231, -23.042285 ], [ -43.508098, -23.047549 ], [ -43.535734, -23.051393 ], [ -43.536873, -23.055763 ], [ -43.54907, -23.062039 ], [ -43.55229, -23.070766 ], [ -43.549483, -23.072912 ], [ -43.553652, -23.076139 ], [ -43.55716, -23.073844 ], [ -43.571899, -23.073411 ], [ -43.56812, -23.071165 ], [ -43.568373, -23.063022 ], [ -43.576959, -23.056788 ], [ -43.594657, -23.052126 ], [ -43.668094, -23.053598 ], [ -43.777992, -23.061328 ], [ -43.858651, -23.071721 ], [ -43.955626, -23.087559 ], [ -43.986818, -23.101886 ], [ -44.006765, -23.094843 ], [ -44.007926, -23.081521 ], [ -44.012125, -23.077825 ], [ -44.006595, -23.070805 ], [ -43.999456, -23.072197 ], [ -43.992879, -23.067157 ], [ -43.990762, -23.056731 ], [ -43.984064, -23.058931 ], [ -43.973899, -23.045097 ], [ -43.95474, -23.039632 ], [ -43.948682, -23.048545 ], [ -43.931462, -23.056833 ], [ -43.918848, -23.05754 ], [ -43.898791, -23.067637 ], [ -43.884765, -23.067099 ], [ -43.876903, -23.057874 ], [ -43.880213, -23.04187 ], [ -43.907265, -23.026025 ], [ -43.911741, -23.01982 ], [ -43.900819, -23.028905 ], [ -43.864243, -23.04412 ], [ -43.8279, -23.057311 ], [ -43.793568, -23.06077 ], [ -43.711489, -23.0546 ], [ -43.66666, -23.042331 ], [ -43.614097, -23.031374 ], [ -43.605515, -23.034353 ], [ -43.602655, -23.039953 ], [ -43.567987, -23.053544 ], [ -43.567581, -23.064172 ], [ -43.558728, -23.05375 ], [ -43.556764, -23.048678 ], [ -43.559183, -23.047922 ], [ -43.563229, -23.045538 ], [ -43.563537, -23.053405 ], [ -43.572039, -23.049351 ], [ -43.579953, -23.039432 ], [ -43.579236, -23.042867 ], [ -43.588015, -23.0355 ], [ -43.585348, -23.035337 ], [ -43.594179, -23.032313 ], [ -43.599346, -23.023221 ], [ -43.625209, -23.007211 ], [ -43.63915, -23.006382 ], [ -43.643655, -23.001597 ], [ -43.653238, -23.003005 ], [ -43.664127, -22.986846 ], [ -43.677126, -22.980597 ], [ -43.686842, -22.986221 ], [ -43.689813, -22.991985 ], [ -43.695269, -22.985016 ], [ -43.700569, -22.985721 ], [ -43.71296, -22.969835 ], [ -43.720368, -22.97381 ], [ -43.718987, -22.96657 ], [ -43.729675, -22.954742 ], [ -43.749342, -22.945872 ], [ -43.763286, -22.935357 ], [ -43.763261, -22.930551 ], [ -43.767794, -22.931868 ], [ -43.776984, -22.924594 ], [ -43.775044, -22.920782 ], [ -43.784124, -22.923226 ], [ -43.794562, -22.917235 ], [ -43.805015, -22.914183 ], [ -43.815734, -22.918845 ], [ -43.814933, -22.911971 ], [ -43.822094, -22.910567 ], [ -43.81932, -22.920786 ], [ -43.832542, -22.928413 ], [ -43.841405, -22.929197 ], [ -43.84373, -22.92545 ], [ -43.851513, -22.924341 ], [ -43.850177, -22.920283 ], [ -43.853762, -22.918071 ], [ -43.835739, -22.912575 ], [ -43.832319, -22.908043 ], [ -43.836461, -22.902981 ], [ -43.855929, -22.901612 ], [ -43.870727, -22.905034 ], [ -43.879678, -22.911407 ], [ -43.884321, -22.921628 ], [ -43.893126, -22.921668 ], [ -43.909956, -22.930248 ], [ -43.930386, -22.929032 ], [ -43.940763, -22.93001 ], [ -43.950574, -22.926621 ], [ -43.964534, -22.934478 ], [ -43.976816, -22.931245 ], [ -43.989043, -22.935421 ], [ -43.99449, -22.940815 ], [ -44.000076, -22.942141 ], [ -44.002989, -22.938168 ], [ -44.011981, -22.949782 ], [ -44.02238, -22.955957 ], [ -44.021766, -22.962755 ], [ -44.030129, -22.964015 ], [ -44.034127, -22.98118 ], [ -44.04679, -22.983995 ], [ -44.055513, -22.980517 ], [ -44.041295, -22.96211 ], [ -44.044735, -22.95615 ], [ -44.039103, -22.94999 ], [ -44.046043, -22.938447 ], [ -44.062431, -22.94865 ], [ -44.074567, -22.951572 ], [ -44.080794, -22.958589 ], [ -44.080942, -22.956216 ], [ -44.08332, -22.959191 ], [ -44.07521, -22.972817 ], [ -44.081321, -22.990954 ], [ -44.096158, -22.996251 ], [ -44.095398, -23.003952 ], [ -44.104735, -23.015094 ], [ -44.129676, -23.031987 ], [ -44.147073, -23.03465 ], [ -44.152317, -23.040318 ], [ -44.156567, -23.032919 ], [ -44.166152, -23.032492 ], [ -44.17637, -23.037157 ], [ -44.175376, -23.041521 ], [ -44.171318, -23.042714 ], [ -44.172951, -23.048023 ], [ -44.178931, -23.049731 ], [ -44.182259, -23.044978 ], [ -44.184234, -23.052498 ], [ -44.193738, -23.054377 ], [ -44.192875, -23.042006 ], [ -44.199821, -23.038339 ], [ -44.237126, -23.056461 ], [ -44.243685, -23.054493 ], [ -44.246435, -23.048689 ], [ -44.250959, -23.050206 ], [ -44.243405, -23.044231 ], [ -44.235766, -23.025975 ], [ -44.221157, -23.017009 ], [ -44.221929, -23.011095 ], [ -44.228573, -23.013969 ], [ -44.242267, -22.999874 ], [ -44.24851, -23.000737 ], [ -44.247959, -22.995661 ], [ -44.26052, -23.007268 ], [ -44.266824, -23.002021 ], [ -44.273971, -23.006855 ], [ -44.278908, -23.013351 ], [ -44.277906, -23.017347 ], [ -44.283263, -23.014241 ], [ -44.288707, -23.016853 ], [ -44.290122, -23.02391 ], [ -44.298226, -23.025715 ], [ -44.30577, -23.023277 ], [ -44.298048, -23.009894 ], [ -44.30049, -23.002705 ], [ -44.303988, -23.002167 ], [ -44.307266, -23.006862 ], [ -44.316124, -23.007944 ], [ -44.316072, -23.013968 ], [ -44.319709, -23.009886 ], [ -44.322383, -23.01527 ], [ -44.327847, -23.014831 ], [ -44.326429, -23.020834 ], [ -44.332073, -23.020245 ], [ -44.336096, -23.025066 ], [ -44.338418, -23.021752 ], [ -44.342154, -23.022967 ], [ -44.350381, -23.03023 ], [ -44.350321, -23.022346 ], [ -44.357851, -23.022882 ], [ -44.357905, -23.019399 ], [ -44.362236, -23.017636 ], [ -44.359465, -23.010597 ], [ -44.362235, -23.009692 ], [ -44.356703, -23.007615 ], [ -44.354157, -22.998194 ], [ -44.344713, -22.990733 ], [ -44.327958, -22.993602 ], [ -44.328768, -22.983012 ], [ -44.323384, -22.982105 ], [ -44.320539, -22.985572 ], [ -44.309484, -22.979761 ], [ -44.312015, -22.9727 ], [ -44.305517, -22.963082 ], [ -44.301516, -22.962435 ], [ -44.299327, -22.958235 ], [ -44.30174, -22.956325 ], [ -44.312766, -22.959271 ], [ -44.318314, -22.956039 ], [ -44.329294, -22.960447 ], [ -44.332157, -22.966584 ], [ -44.33582, -22.963891 ], [ -44.336963, -22.956816 ], [ -44.328186, -22.953822 ], [ -44.332878, -22.953136 ], [ -44.332795, -22.945012 ], [ -44.32253, -22.941328 ], [ -44.321838, -22.940584 ], [ -44.319379, -22.93563 ], [ -44.325323, -22.936121 ], [ -44.321574, -22.928747 ], [ -44.324474, -22.926776 ], [ -44.32782, -22.925972 ], [ -44.32665, -22.923496 ], [ -44.331317, -22.927559 ], [ -44.344848, -22.921337 ], [ -44.350127, -22.922352 ], [ -44.347376, -22.924377 ], [ -44.351763, -22.928419 ], [ -44.354817, -22.928602 ], [ -44.358567, -22.922528 ], [ -44.365207, -22.924341 ], [ -44.360462, -22.925692 ], [ -44.366314, -22.929293 ], [ -44.359905, -22.931426 ], [ -44.370955, -22.937427 ], [ -44.368576, -22.946262 ], [ -44.36613, -22.947402 ], [ -44.363741, -22.939954 ], [ -44.349462, -22.945614 ], [ -44.358764, -22.956243 ], [ -44.362269, -22.954253 ], [ -44.366155, -22.959655 ], [ -44.372129, -22.958083 ], [ -44.377242, -22.96928 ], [ -44.380243, -22.966249 ], [ -44.383493, -22.971917 ], [ -44.386739, -22.969002 ], [ -44.378844, -22.957912 ], [ -44.394406, -22.94895 ], [ -44.407072, -22.952335 ], [ -44.411848, -22.94137 ], [ -44.413435, -22.94572 ], [ -44.423044, -22.951009 ], [ -44.422117, -22.959066 ], [ -44.426071, -22.956395 ], [ -44.425568, -22.962059 ], [ -44.434959, -22.964419 ], [ -44.435655, -22.972251 ], [ -44.430207, -22.977935 ], [ -44.434457, -22.979191 ], [ -44.434739, -22.987219 ], [ -44.440457, -22.991192 ], [ -44.43813, -22.995462 ], [ -44.429187, -22.992863 ], [ -44.424681, -22.997541 ], [ -44.441959, -23.005119 ], [ -44.446044, -23.011738 ], [ -44.439819, -23.020364 ], [ -44.430625, -23.020288 ], [ -44.444623, -23.027045 ], [ -44.4526, -23.016324 ], [ -44.45968, -23.018231 ], [ -44.458295, -23.010878 ], [ -44.462624, -23.005662 ], [ -44.467932, -23.005925 ], [ -44.46899, -23.010737 ], [ -44.476626, -23.005728 ], [ -44.483241, -23.008116 ], [ -44.489097, -23.020279 ], [ -44.505458, -23.030436 ], [ -44.510964, -23.026497 ], [ -44.519074, -23.027285 ], [ -44.529436, -23.027612 ], [ -44.550322, -23.037497 ] ], [ [ -44.079958, -22.646731 ], [ -44.084754, -22.65298 ], [ -44.079957, -22.646731 ], [ -44.079958, -22.646731 ] ], [ [ -41.920509, -22.161329 ], [ -41.920509, -22.161328 ], [ -41.934206, -22.164442 ], [ -41.920509, -22.161329 ] ] ], [ [ [ -44.674569, -23.131876 ], [ -44.674744, -23.13245 ], [ -44.674988, -23.132876 ], [ -44.675491, -23.133102 ], [ -44.675988, -23.132988 ], [ -44.676354, -23.132643 ], [ -44.675852, -23.131996 ], [ -44.674935, -23.131531 ], [ -44.674569, -23.131876 ] ] ], [ [ [ -44.685075, -23.130469 ], [ -44.685594, -23.130759 ], [ -44.686076, -23.130868 ], [ -44.687127, -23.130652 ], [ -44.687455, -23.130294 ], [ -44.687681, -23.129878 ], [ -44.687407, -23.129594 ], [ -44.686325, -23.129101 ], [ -44.685403, -23.128439 ], [ -44.684901, -23.128213 ], [ -44.684404, -23.128175 ], [ -44.684097, -23.128658 ], [ -44.684376, -23.129703 ], [ -44.684662, -23.130104 ], [ -44.685075, -23.130469 ] ] ], [ [ [ -44.67976, -23.1263 ], [ -44.679627, -23.125837 ], [ -44.677677, -23.124327 ], [ -44.677435, -23.124715 ], [ -44.67735, -23.125802 ], [ -44.677767, -23.12613 ], [ -44.678017, -23.12661 ], [ -44.678434, -23.126948 ], [ -44.67899, -23.12697 ], [ -44.679521, -23.126779 ], [ -44.67976, -23.1263 ] ] ], [ [ [ -44.677877, -23.113459 ], [ -44.677292, -23.112592 ], [ -44.677322, -23.111322 ], [ -44.677067, -23.110904 ], [ -44.676515, -23.110685 ], [ -44.675934, -23.110749 ], [ -44.674766, -23.111066 ], [ -44.67429, -23.110895 ], [ -44.673732, -23.110898 ], [ -44.673434, -23.111246 ], [ -44.673318, -23.111769 ], [ -44.673599, -23.112671 ], [ -44.673965, -23.113034 ], [ -44.675095, -23.113653 ], [ -44.675494, -23.114106 ], [ -44.676014, -23.114353 ], [ -44.677156, -23.114526 ], [ -44.677661, -23.114475 ], [ -44.67796, -23.114098 ], [ -44.677877, -23.113459 ] ] ], [ [ [ -44.678654, -23.109629 ], [ -44.679126, -23.109853 ], [ -44.679622, -23.109748 ], [ -44.680576, -23.109267 ], [ -44.680715, -23.108792 ], [ -44.680659, -23.108207 ], [ -44.680158, -23.108222 ], [ -44.679681, -23.108079 ], [ -44.679187, -23.108281 ], [ -44.678705, -23.10914 ], [ -44.678654, -23.109629 ] ] ], [ [ [ -44.687491, -23.109152 ], [ -44.687991, -23.109522 ], [ -44.688486, -23.109585 ], [ -44.688741, -23.109172 ], [ -44.688575, -23.108741 ], [ -44.687653, -23.107649 ], [ -44.687075, -23.107241 ], [ -44.686789, -23.106857 ], [ -44.686682, -23.106412 ], [ -44.686209, -23.10617 ], [ -44.685711, -23.106176 ], [ -44.685399, -23.106588 ], [ -44.685653, -23.107005 ], [ -44.686487, -23.107796 ], [ -44.687015, -23.108659 ], [ -44.687491, -23.109152 ] ] ], [ [ [ -44.669547, -23.096292 ], [ -44.669098, -23.096545 ], [ -44.669379, -23.097285 ], [ -44.669767, -23.097755 ], [ -44.670739, -23.09842 ], [ -44.67124, -23.098655 ], [ -44.672408, -23.098874 ], [ -44.672936, -23.09888 ], [ -44.67341, -23.098129 ], [ -44.672963, -23.097924 ], [ -44.672406, -23.097535 ], [ -44.672048, -23.097143 ], [ -44.671543, -23.096829 ], [ -44.670459, -23.096802 ], [ -44.669903, -23.096626 ], [ -44.669547, -23.096292 ] ] ], [ [ [ -44.684042, -23.087145 ], [ -44.6836, -23.086887 ], [ -44.683512, -23.086318 ], [ -44.682521, -23.086654 ], [ -44.683904, -23.088139 ], [ -44.684129, -23.088564 ], [ -44.684599, -23.088413 ], [ -44.684602, -23.087947 ], [ -44.684244, -23.087604 ], [ -44.684042, -23.087145 ] ] ], [ [ [ -44.596014, -23.088627 ], [ -44.595659, -23.087703 ], [ -44.594908, -23.086709 ], [ -44.594932, -23.08621 ], [ -44.594624, -23.085298 ], [ -44.593491, -23.086259 ], [ -44.593436, -23.086766 ], [ -44.593739, -23.087733 ], [ -44.594657, -23.088716 ], [ -44.595737, -23.089247 ], [ -44.596095, -23.089563 ], [ -44.59651, -23.089229 ], [ -44.596014, -23.088627 ] ] ], [ [ [ -44.6423, -23.067819 ], [ -44.635573, -23.06797 ], [ -44.641654, -23.074562 ], [ -44.644541, -23.075072 ], [ -44.644985, -23.071813 ], [ -44.6423, -23.067819 ] ] ], [ [ [ -44.632791, -23.069973 ], [ -44.630848, -23.067836 ], [ -44.629708, -23.07116 ], [ -44.632791, -23.069973 ] ] ], [ [ [ -44.603348, -23.068286 ], [ -44.603794, -23.068053 ], [ -44.604239, -23.068284 ], [ -44.604741, -23.067939 ], [ -44.604048, -23.067227 ], [ -44.603432, -23.066958 ], [ -44.602898, -23.066873 ], [ -44.602399, -23.067013 ], [ -44.601795, -23.067836 ], [ -44.602132, -23.068759 ], [ -44.602572, -23.069028 ], [ -44.603348, -23.068286 ] ] ], [ [ [ -44.594689, -23.066139 ], [ -44.594909, -23.066608 ], [ -44.595797, -23.067054 ], [ -44.596324, -23.06721 ], [ -44.596846, -23.067017 ], [ -44.596705, -23.066507 ], [ -44.596189, -23.065655 ], [ -44.595177, -23.065282 ], [ -44.594689, -23.066139 ] ] ], [ [ [ -44.626434, -23.060617 ], [ -44.62613, -23.061046 ], [ -44.626325, -23.061469 ], [ -44.626825, -23.061874 ], [ -44.627125, -23.062348 ], [ -44.627269, -23.062804 ], [ -44.627714, -23.063009 ], [ -44.629246, -23.062938 ], [ -44.62968, -23.062578 ], [ -44.629882, -23.06208 ], [ -44.62865, -23.060531 ], [ -44.628128, -23.060438 ], [ -44.627047, -23.060669 ], [ -44.626434, -23.060617 ] ] ], [ [ [ -44.60079, -23.056219 ], [ -44.601017, -23.05676 ], [ -44.601541, -23.057371 ], [ -44.602042, -23.05775 ], [ -44.603184, -23.059185 ], [ -44.603626, -23.059427 ], [ -44.604685, -23.059659 ], [ -44.605122, -23.059973 ], [ -44.605515, -23.060398 ], [ -44.606129, -23.061383 ], [ -44.606827, -23.062167 ], [ -44.607485, -23.063681 ], [ -44.607881, -23.06416 ], [ -44.608959, -23.064402 ], [ -44.609184, -23.063978 ], [ -44.608873, -23.063395 ], [ -44.608706, -23.062706 ], [ -44.608791, -23.061637 ], [ -44.608657, -23.06103 ], [ -44.607602, -23.059777 ], [ -44.603937, -23.058058 ], [ -44.603519, -23.057336 ], [ -44.602518, -23.056821 ], [ -44.602158, -23.056371 ], [ -44.601628, -23.05599 ], [ -44.601128, -23.055864 ], [ -44.60079, -23.056219 ] ] ], [ [ [ -44.624374, -23.058177 ], [ -44.62396, -23.057259 ], [ -44.623602, -23.056789 ], [ -44.623039, -23.056587 ], [ -44.621209, -23.056873 ], [ -44.620772, -23.057134 ], [ -44.620402, -23.057542 ], [ -44.619939, -23.057854 ], [ -44.619769, -23.058328 ], [ -44.620097, -23.058669 ], [ -44.620545, -23.058829 ], [ -44.621132, -23.058838 ], [ -44.621632, -23.059099 ], [ -44.62199, -23.059433 ], [ -44.622483, -23.05923 ], [ -44.622877, -23.058913 ], [ -44.62324, -23.05931 ], [ -44.622993, -23.059761 ], [ -44.623376, -23.06015 ], [ -44.624271, -23.059675 ], [ -44.624461, -23.059184 ], [ -44.624488, -23.05865 ], [ -44.624374, -23.058177 ] ] ], [ [ [ -44.559486, -23.05262 ], [ -44.559744, -23.053136 ], [ -44.56018, -23.053448 ], [ -44.560736, -23.05348 ], [ -44.561852, -23.053189 ], [ -44.562381, -23.053309 ], [ -44.563237, -23.052949 ], [ -44.562796, -23.05269 ], [ -44.562178, -23.051876 ], [ -44.561765, -23.051637 ], [ -44.560596, -23.051299 ], [ -44.560097, -23.051295 ], [ -44.559712, -23.05163 ], [ -44.55952, -23.052147 ], [ -44.559486, -23.05262 ] ] ], [ [ [ -44.55621, -23.224005 ], [ -44.55671, -23.224141 ], [ -44.557157, -23.223926 ], [ -44.557406, -23.223467 ], [ -44.55713, -23.222377 ], [ -44.556487, -23.221221 ], [ -44.556074, -23.220829 ], [ -44.554408, -23.220577 ], [ -44.553991, -23.220248 ], [ -44.553681, -23.220598 ], [ -44.553685, -23.221117 ], [ -44.553928, -23.221552 ], [ -44.554848, -23.222107 ], [ -44.555454, -23.223218 ], [ -44.55621, -23.224005 ] ] ], [ [ [ -44.201351, -23.119556 ], [ -44.196959, -23.121795 ], [ -44.169379, -23.118562 ], [ -44.172397, -23.12875 ], [ -44.170099, -23.137646 ], [ -44.162619, -23.142065 ], [ -44.155569, -23.138947 ], [ -44.15785, -23.135087 ], [ -44.151596, -23.134305 ], [ -44.147291, -23.124786 ], [ -44.127064, -23.119568 ], [ -44.124484, -23.124566 ], [ -44.140518, -23.139331 ], [ -44.13849, -23.14562 ], [ -44.133437, -23.145662 ], [ -44.140378, -23.157819 ], [ -44.138066, -23.159667 ], [ -44.129462, -23.154281 ], [ -44.127019, -23.155781 ], [ -44.116181, -23.148031 ], [ -44.116847, -23.154241 ], [ -44.107472, -23.164333 ], [ -44.097268, -23.164062 ], [ -44.09143, -23.167543 ], [ -44.09501, -23.174894 ], [ -44.108623, -23.178416 ], [ -44.117486, -23.185893 ], [ -44.131985, -23.186944 ], [ -44.123549, -23.17755 ], [ -44.128759, -23.170702 ], [ -44.137102, -23.167662 ], [ -44.158929, -23.171522 ], [ -44.170732, -23.184648 ], [ -44.177795, -23.179856 ], [ -44.185844, -23.180468 ], [ -44.189953, -23.18849 ], [ -44.182433, -23.19104 ], [ -44.182265, -23.194763 ], [ -44.196627, -23.20367 ], [ -44.197174, -23.197437 ], [ -44.207095, -23.192219 ], [ -44.227071, -23.195736 ], [ -44.231872, -23.199838 ], [ -44.244517, -23.199749 ], [ -44.251295, -23.204524 ], [ -44.258656, -23.202287 ], [ -44.252069, -23.196911 ], [ -44.25324, -23.191075 ], [ -44.260566, -23.191151 ], [ -44.271628, -23.196796 ], [ -44.26693, -23.185931 ], [ -44.27337, -23.179638 ], [ -44.28504, -23.175988 ], [ -44.285515, -23.178609 ], [ -44.294013, -23.176455 ], [ -44.31087, -23.180109 ], [ -44.317766, -23.185761 ], [ -44.315405, -23.189703 ], [ -44.322874, -23.202506 ], [ -44.331486, -23.210352 ], [ -44.333493, -23.223048 ], [ -44.348821, -23.226188 ], [ -44.340207, -23.218082 ], [ -44.350931, -23.216301 ], [ -44.351211, -23.21351 ], [ -44.348547, -23.202724 ], [ -44.340013, -23.190531 ], [ -44.341428, -23.181431 ], [ -44.34552, -23.180203 ], [ -44.357761, -23.190667 ], [ -44.362071, -23.178074 ], [ -44.37129, -23.18284 ], [ -44.377871, -23.176491 ], [ -44.377206, -23.171243 ], [ -44.368075, -23.164046 ], [ -44.361372, -23.164856 ], [ -44.354267, -23.158987 ], [ -44.348933, -23.160479 ], [ -44.340044, -23.153224 ], [ -44.326685, -23.154435 ], [ -44.320373, -23.143934 ], [ -44.324288, -23.139697 ], [ -44.316908, -23.135011 ], [ -44.3109, -23.136756 ], [ -44.313732, -23.132663 ], [ -44.310179, -23.124865 ], [ -44.296935, -23.1151 ], [ -44.294622, -23.114075 ], [ -44.293963, -23.121949 ], [ -44.297237, -23.131274 ], [ -44.290929, -23.131517 ], [ -44.289932, -23.136972 ], [ -44.28438, -23.136142 ], [ -44.279538, -23.12519 ], [ -44.273463, -23.123451 ], [ -44.275238, -23.117051 ], [ -44.266111, -23.115154 ], [ -44.259567, -23.11596 ], [ -44.257428, -23.111727 ], [ -44.249515, -23.109286 ], [ -44.250846, -23.099757 ], [ -44.259153, -23.099332 ], [ -44.237299, -23.092634 ], [ -44.237625, -23.086002 ], [ -44.234844, -23.084563 ], [ -44.233238, -23.089686 ], [ -44.216934, -23.089296 ], [ -44.209295, -23.092447 ], [ -44.209899, -23.09875 ], [ -44.195572, -23.098308 ], [ -44.194453, -23.103381 ], [ -44.190461, -23.102224 ], [ -44.199906, -23.108964 ], [ -44.200679, -23.105364 ], [ -44.207127, -23.103623 ], [ -44.217342, -23.105723 ], [ -44.215879, -23.109433 ], [ -44.208402, -23.111192 ], [ -44.206425, -23.107853 ], [ -44.201351, -23.119556 ] ] ], [ [ [ -44.557021, -23.055828 ], [ -44.552318, -23.055961 ], [ -44.557375, -23.063283 ], [ -44.56329, -23.067077 ], [ -44.564377, -23.064968 ], [ -44.557021, -23.055828 ] ] ], [ [ [ -44.545546, -23.049656 ], [ -44.546046, -23.049642 ], [ -44.546236, -23.049161 ], [ -44.545595, -23.047719 ], [ -44.544744, -23.047177 ], [ -44.544154, -23.04707 ], [ -44.544598, -23.048537 ], [ -44.545546, -23.049656 ] ] ], [ [ [ -44.136072, -23.041813 ], [ -44.13591, -23.042704 ], [ -44.136125, -23.043236 ], [ -44.13721, -23.043509 ], [ -44.13754, -23.043154 ], [ -44.138074, -23.043053 ], [ -44.138461, -23.043388 ], [ -44.138909, -23.043014 ], [ -44.138847, -23.042519 ], [ -44.138631, -23.042004 ], [ -44.137897, -23.0412 ], [ -44.136128, -23.039992 ], [ -44.135847, -23.040377 ], [ -44.136072, -23.041813 ] ] ], [ [ [ -44.129425, -23.041786 ], [ -44.130592, -23.038148 ], [ -44.129293, -23.035342 ], [ -44.123315, -23.039906 ], [ -44.129425, -23.041786 ] ] ], [ [ [ -44.161097, -23.040483 ], [ -44.159489, -23.035897 ], [ -44.157953, -23.040138 ], [ -44.161097, -23.040483 ] ] ], [ [ [ -43.950736, -23.024889 ], [ -43.953709, -23.024147 ], [ -43.952736, -23.022112 ], [ -43.950736, -23.024889 ] ] ], [ [ [ -44.110573, -23.023436 ], [ -44.110297, -23.022542 ], [ -44.110012, -23.022149 ], [ -44.109462, -23.021784 ], [ -44.108981, -23.021951 ], [ -44.10868, -23.022335 ], [ -44.108704, -23.022801 ], [ -44.108928, -23.023208 ], [ -44.109765, -23.023804 ], [ -44.110291, -23.02382 ], [ -44.110573, -23.023436 ] ] ], [ [ [ -43.943682, -23.019623 ], [ -43.943679, -23.023313 ], [ -43.947177, -23.02297 ], [ -43.943682, -23.019623 ] ] ], [ [ [ -43.954653, -23.006177 ], [ -43.949186, -23.005655 ], [ -43.952122, -23.009404 ], [ -43.954653, -23.006177 ] ] ], [ [ [ -44.049285, -23.000719 ], [ -44.034403, -22.995906 ], [ -44.029517, -23.006924 ], [ -44.037595, -23.010884 ], [ -44.042599, -23.005736 ], [ -44.047098, -23.010724 ], [ -44.052177, -23.004713 ], [ -44.049285, -23.000719 ] ] ], [ [ [ -43.952596, -23.001635 ], [ -43.952874, -23.00275 ], [ -43.953153, -23.003196 ], [ -43.953542, -23.003497 ], [ -43.953929, -23.003024 ], [ -43.954348, -23.002129 ], [ -43.954126, -23.001704 ], [ -43.953625, -23.001475 ], [ -43.953292, -23.00108 ], [ -43.953154, -23.000571 ], [ -43.952677, -23.000157 ], [ -43.952175, -23.000331 ], [ -43.951925, -23.000799 ], [ -43.952321, -23.001144 ], [ -43.952596, -23.001635 ] ] ], [ [ [ -43.928373, -22.988911 ], [ -43.917898, -22.987681 ], [ -43.916899, -22.993326 ], [ -43.92551, -22.999996 ], [ -43.933989, -23.014833 ], [ -43.937039, -23.004143 ], [ -43.936757, -22.997826 ], [ -43.931351, -22.995369 ], [ -43.928373, -22.988911 ] ] ], [ [ [ -43.90787, -22.988674 ], [ -43.910011, -22.994296 ], [ -43.912099, -22.992927 ], [ -43.90787, -22.988674 ] ] ], [ [ [ -44.040076, -22.988753 ], [ -44.044202, -22.987785 ], [ -44.041485, -22.985945 ], [ -44.040076, -22.988753 ] ] ], [ [ [ -43.923067, -22.987327 ], [ -43.923573, -22.986965 ], [ -43.923539, -22.986508 ], [ -43.923316, -22.985975 ], [ -43.922098, -22.984604 ], [ -43.921512, -22.984317 ], [ -43.919318, -22.983866 ], [ -43.918624, -22.984385 ], [ -43.918427, -22.985186 ], [ -43.918819, -22.985961 ], [ -43.920453, -22.987225 ], [ -43.922374, -22.987435 ], [ -43.923067, -22.987327 ] ] ], [ [ [ -43.91004, -22.983103 ], [ -43.914065, -22.982759 ], [ -43.913596, -22.978968 ], [ -43.907568, -22.979438 ], [ -43.91004, -22.983103 ] ] ], [ [ [ -43.947596, -22.959051 ], [ -43.947101, -22.959531 ], [ -43.946961, -22.960362 ], [ -43.947036, -22.961028 ], [ -43.949962, -22.960355 ], [ -43.95118, -22.960403 ], [ -43.951484, -22.960119 ], [ -43.951405, -22.959613 ], [ -43.950264, -22.959051 ], [ -43.948904, -22.959333 ], [ -43.947596, -22.959051 ] ] ], [ [ [ -43.967155, -22.944337 ], [ -43.967013, -22.943874 ], [ -43.967601, -22.943464 ], [ -43.967568, -22.942728 ], [ -43.966151, -22.942605 ], [ -43.965927, -22.943224 ], [ -43.966213, -22.944254 ], [ -43.967127, -22.945498 ], [ -43.967541, -22.945435 ], [ -43.967462, -22.944669 ], [ -43.967155, -22.944337 ] ] ], [ [ [ -43.963713, -22.94331 ], [ -43.963425, -22.942962 ], [ -43.961876, -22.942276 ], [ -43.961844, -22.943479 ], [ -43.962205, -22.944154 ], [ -43.963155, -22.944633 ], [ -43.963684, -22.944621 ], [ -43.964066, -22.944217 ], [ -43.963713, -22.94331 ] ] ], [ [ [ -43.884258, -22.92706 ], [ -43.88188, -22.923864 ], [ -43.867711, -22.925578 ], [ -43.877678, -22.940392 ], [ -43.874928, -22.941353 ], [ -43.876369, -22.946115 ], [ -43.872873, -22.946967 ], [ -43.87965, -22.950182 ], [ -43.8838, -22.94748 ], [ -43.896352, -22.95788 ], [ -43.90493, -22.95817 ], [ -43.909457, -22.955417 ], [ -43.905432, -22.947071 ], [ -43.912297, -22.941869 ], [ -43.911742, -22.934175 ], [ -43.90129, -22.929708 ], [ -43.893378, -22.933154 ], [ -43.891961, -22.927947 ], [ -43.886265, -22.930544 ], [ -43.884258, -22.92706 ] ] ], [ [ [ -43.914602, -22.938794 ], [ -43.91476, -22.940082 ], [ -43.915099, -22.940906 ], [ -43.916099, -22.942184 ], [ -43.918131, -22.943223 ], [ -43.919655, -22.944257 ], [ -43.920397, -22.944519 ], [ -43.920492, -22.943649 ], [ -43.920094, -22.941641 ], [ -43.919317, -22.941074 ], [ -43.918847, -22.940428 ], [ -43.917712, -22.939803 ], [ -43.916047, -22.939725 ], [ -43.915096, -22.938986 ], [ -43.914602, -22.938794 ] ] ], [ [ [ -43.563626, -23.082113 ], [ -43.561427, -23.078467 ], [ -43.560012, -23.080912 ], [ -43.563626, -23.082113 ] ] ], [ [ [ -43.5139, -23.066139 ], [ -43.511234, -23.060207 ], [ -43.507953, -23.064874 ], [ -43.5139, -23.066139 ] ] ], [ [ [ -43.50859, -23.052883 ], [ -43.507813, -23.052914 ], [ -43.507674, -23.05335 ], [ -43.507819, -23.053851 ], [ -43.509266, -23.054866 ], [ -43.509651, -23.054559 ], [ -43.50957, -23.054109 ], [ -43.5092, -23.053192 ], [ -43.50859, -23.052883 ] ] ], [ [ [ -43.307372, -23.038838 ], [ -43.304041, -23.036089 ], [ -43.302569, -23.037991 ], [ -43.307372, -23.038838 ] ] ], [ [ [ -43.298982, -23.030845 ], [ -43.298119, -23.033706 ], [ -43.301044, -23.033205 ], [ -43.298982, -23.030845 ] ] ], [ [ [ -43.275483, -23.030149 ], [ -43.275765, -23.030534 ], [ -43.276347, -23.030466 ], [ -43.276783, -23.030763 ], [ -43.277289, -23.03069 ], [ -43.277653, -23.030294 ], [ -43.278677, -23.030336 ], [ -43.278424, -23.029703 ], [ -43.277952, -23.029486 ], [ -43.276481, -23.029065 ], [ -43.276069, -23.028825 ], [ -43.275541, -23.029671 ], [ -43.275483, -23.030149 ] ] ], [ [ [ -43.704081, -22.987117 ], [ -43.703132, -22.986618 ], [ -43.702608, -22.986566 ], [ -43.702607, -22.987085 ], [ -43.702994, -22.987386 ], [ -43.706133, -22.988534 ], [ -43.706419, -22.988125 ], [ -43.70608, -22.987816 ], [ -43.704081, -22.987117 ] ] ], [ [ [ -43.859848, -22.946941 ], [ -43.855927, -22.949828 ], [ -43.857985, -22.954557 ], [ -43.863483, -22.955398 ], [ -43.860513, -22.95278 ], [ -43.86257, -22.946505 ], [ -43.856898, -22.944575 ], [ -43.859848, -22.946941 ] ] ], [ [ [ -43.866122, -22.945149 ], [ -43.865851, -22.944176 ], [ -43.865511, -22.943386 ], [ -43.864792, -22.943832 ], [ -43.864599, -22.944194 ], [ -43.863735, -22.944516 ], [ -43.864151, -22.945212 ], [ -43.864765, -22.945375 ], [ -43.865488, -22.945395 ], [ -43.866122, -22.945149 ] ] ], [ [ [ -43.864986, -22.924196 ], [ -43.864988, -22.924281 ], [ -43.865191, -22.924219 ], [ -43.864986, -22.924196 ] ] ], [ [ [ -43.221871, -22.86538 ], [ -43.232229, -22.865858 ], [ -43.233201, -22.861866 ], [ -43.237043, -22.861479 ], [ -43.235593, -22.857605 ], [ -43.242015, -22.836576 ], [ -43.235042, -22.839133 ], [ -43.228709, -22.836349 ], [ -43.221479, -22.841011 ], [ -43.221763, -22.848122 ], [ -43.22468, -22.841182 ], [ -43.232646, -22.846031 ], [ -43.224639, -22.856873 ], [ -43.208709, -22.858203 ], [ -43.219759, -22.860512 ], [ -43.214123, -22.866235 ], [ -43.215647, -22.870039 ], [ -43.220593, -22.869263 ], [ -43.221871, -22.86538 ] ] ], [ [ [ -43.191348, -22.820054 ], [ -43.204063, -22.819451 ], [ -43.208927, -22.814817 ], [ -43.226373, -22.820039 ], [ -43.241896, -22.832902 ], [ -43.248482, -22.829076 ], [ -43.247095, -22.825139 ], [ -43.25845, -22.819286 ], [ -43.263234, -22.808846 ], [ -43.259036, -22.803777 ], [ -43.251128, -22.807702 ], [ -43.243789, -22.807116 ], [ -43.243344, -22.800191 ], [ -43.229486, -22.787529 ], [ -43.228954, -22.782685 ], [ -43.217757, -22.78524 ], [ -43.207988, -22.794123 ], [ -43.189876, -22.795926 ], [ -43.189395, -22.786405 ], [ -43.182568, -22.781026 ], [ -43.178068, -22.782116 ], [ -43.174699, -22.776504 ], [ -43.172122, -22.775528 ], [ -43.170874, -22.782597 ], [ -43.165481, -22.776645 ], [ -43.157094, -22.778099 ], [ -43.156699, -22.786321 ], [ -43.181593, -22.803648 ], [ -43.177456, -22.806164 ], [ -43.175036, -22.819692 ], [ -43.165315, -22.820351 ], [ -43.16907, -22.825794 ], [ -43.172983, -22.830712 ], [ -43.175761, -22.823817 ], [ -43.184813, -22.833144 ], [ -43.191348, -22.820054 ] ] ], [ [ [ -43.198763, -23.074718 ], [ -43.199205, -23.074445 ], [ -43.199705, -23.073462 ], [ -43.199618, -23.072982 ], [ -43.199147, -23.072746 ], [ -43.19865, -23.072962 ], [ -43.198292, -23.073268 ], [ -43.198063, -23.073691 ], [ -43.197711, -23.074058 ], [ -43.197532, -23.074556 ], [ -43.197984, -23.074798 ], [ -43.198763, -23.074718 ] ] ], [ [ [ -43.192708, -23.073827 ], [ -43.198508, -23.071196 ], [ -43.193865, -23.067269 ], [ -43.190708, -23.07157 ], [ -43.192708, -23.073827 ] ] ], [ [ [ -43.149176, -23.059298 ], [ -43.142179, -23.065453 ], [ -43.147035, -23.06504 ], [ -43.149176, -23.059298 ] ] ], [ [ [ -43.208367, -23.040337 ], [ -43.208261, -23.039813 ], [ -43.207846, -23.039516 ], [ -43.207376, -23.038548 ], [ -43.20704, -23.038223 ], [ -43.206507, -23.038036 ], [ -43.205283, -23.038282 ], [ -43.204756, -23.038283 ], [ -43.204229, -23.038084 ], [ -43.203702, -23.037758 ], [ -43.202654, -23.03766 ], [ -43.201706, -23.037051 ], [ -43.201036, -23.036748 ], [ -43.200459, -23.036744 ], [ -43.199868, -23.036536 ], [ -43.199479, -23.036145 ], [ -43.199208, -23.035626 ], [ -43.198785, -23.035286 ], [ -43.198311, -23.035093 ], [ -43.19801, -23.034707 ], [ -43.197065, -23.034652 ], [ -43.197038, -23.035222 ], [ -43.197146, -23.035701 ], [ -43.197809, -23.036576 ], [ -43.19834, -23.036915 ], [ -43.200311, -23.037832 ], [ -43.200897, -23.037952 ], [ -43.201952, -23.037988 ], [ -43.203265, -23.038326 ], [ -43.203705, -23.03857 ], [ -43.204509, -23.0394 ], [ -43.205452, -23.040079 ], [ -43.206541, -23.040536 ], [ -43.207899, -23.040555 ], [ -43.208367, -23.040337 ] ] ], [ [ [ -43.192477, -23.028964 ], [ -43.191953, -23.028786 ], [ -43.191781, -23.029221 ], [ -43.19115, -23.029624 ], [ -43.191372, -23.030529 ], [ -43.191896, -23.030584 ], [ -43.192454, -23.030452 ], [ -43.192671, -23.029949 ], [ -43.192477, -23.028964 ] ] ], [ [ [ -43.192033, -23.025483 ], [ -43.191422, -23.025423 ], [ -43.190952, -23.025552 ], [ -43.19076, -23.026101 ], [ -43.190791, -23.026692 ], [ -43.190649, -23.027137 ], [ -43.190899, -23.027528 ], [ -43.191319, -23.027789 ], [ -43.191812, -23.027742 ], [ -43.192256, -23.027567 ], [ -43.192733, -23.027733 ], [ -43.193782, -23.027572 ], [ -43.194876, -23.027718 ], [ -43.195066, -23.027301 ], [ -43.194819, -23.026848 ], [ -43.194398, -23.026605 ], [ -43.193816, -23.026423 ], [ -43.193011, -23.02586 ], [ -43.192033, -23.025483 ] ] ], [ [ [ -43.20632, -23.026641 ], [ -43.206484, -23.026188 ], [ -43.206063, -23.02583 ], [ -43.205561, -23.025742 ], [ -43.204511, -23.025904 ], [ -43.203563, -23.025644 ], [ -43.202535, -23.025673 ], [ -43.201983, -23.025831 ], [ -43.201542, -23.026088 ], [ -43.201341, -23.026521 ], [ -43.201535, -23.027023 ], [ -43.201929, -23.027353 ], [ -43.202901, -23.027552 ], [ -43.203866, -23.027234 ], [ -43.205011, -23.027347 ], [ -43.205565, -23.027277 ], [ -43.20632, -23.026641 ] ] ], [ [ [ -43.111786, -22.753296 ], [ -43.108228, -22.747635 ], [ -43.104398, -22.748405 ], [ -43.102873, -22.752688 ], [ -43.107733, -22.758536 ], [ -43.10279, -22.764667 ], [ -43.108012, -22.769655 ], [ -43.113541, -22.76696 ], [ -43.10951, -22.758423 ], [ -43.111786, -22.753296 ] ] ], [ [ [ -41.705362, -22.410435 ], [ -41.705419, -22.407234 ], [ -41.697111, -22.402886 ], [ -41.693618, -22.407266 ], [ -41.698318, -22.410074 ], [ -41.694886, -22.416678 ], [ -41.702175, -22.416281 ], [ -41.705362, -22.410435 ] ] ], [ [ [ -41.691912, -22.39706 ], [ -41.685683, -22.396637 ], [ -41.68675, -22.401753 ], [ -41.691642, -22.40034 ], [ -41.691912, -22.39706 ] ] ] ] } }
]
}
