{
"type": "FeatureCollection",
"name": "geojs-32-macro_regions",
"crs": { "type": "name", "properties": { "name": "urn:ogc:def:crs:OGC:1.3:CRS84" } },
"features": [
{ "type": "Feature", "properties": { "MACRO_ID": "3205", "MACRO_NAME": "Sul", "id": "320020", "name": "Alegre", "description": "Alegre", "MUN_ID": "320020", "UF": "ES", "HREG_ID": "32004", "HREG_NAME": "Sul" }, "geometry": { "type": "Polygon", "coordinates": [ [ [ -41.662263, -21.124582 ], [ -41.671233, -21.126502 ], [ -41.676023, -21.133237 ], [ -41.678751, -21.131446 ], [ -41.67752, -21.125218 ], [ -41.681792, -21.120558 ], [ -41.687897, -21.121446 ], [ -41.69083, -21.116181 ], [ -41.695346, -21.114919 ], [ -41.705323, -21.120332 ], [ -41.704169, -21.126655 ], [ -41.718075, -21.123221 ], [ -41.717542, -21.115835 ], [ -41.704757, -21.110695 ], [ -41.707464, -21.106658 ], [ -41.716739, -21.104984 ], [ -41.722231, -21.103026 ], [ -41.728626, -21.10634 ], [ -41.735241, -21.102876 ], [ -41.734688, -21.09855 ], [ -41.731047, -21.086921 ], [ -41.721307, -21.073119 ], [ -41.723232, -21.067067 ], [ -41.732033, -21.066285 ], [ -41.728815, -21.049868 ], [ -41.723938, -21.055922 ], [ -41.719998, -21.054733 ], [ -41.716236, -21.046637 ], [ -41.720941, -21.04463 ], [ -41.72593, -21.03213 ], [ -41.723314, -21.024706 ], [ -41.71563, -21.022404 ], [ -41.715114, -21.016171 ], [ -41.722434, -21.010675 ], [ -41.715727, -20.991585 ], [ -41.710436, -20.989239 ], [ -41.711542, -20.980568 ], [ -41.715683, -20.9755 ], [ -41.717296, -20.954607 ], [ -41.733386, -20.943417 ], [ -41.737152, -20.930432 ], [ -41.73705, -20.927299 ], [ -41.722738, -20.922313 ], [ -41.719305, -20.896724 ], [ -41.724949, -20.896766 ], [ -41.726728, -20.892362 ], [ -41.718595, -20.875029 ], [ -41.712005, -20.871082 ], [ -41.726712, -20.864362 ], [ -41.728819, -20.869576 ], [ -41.741457, -20.872332 ], [ -41.739793, -20.865608 ], [ -41.742819, -20.858658 ], [ -41.745169, -20.852839 ], [ -41.736993, -20.836109 ], [ -41.740673, -20.829647 ], [ -41.738892, -20.827334 ], [ -41.742586, -20.825151 ], [ -41.740511, -20.817809 ], [ -41.747753, -20.81291 ], [ -41.749995, -20.817595 ], [ -41.755274, -20.807058 ], [ -41.763527, -20.806588 ], [ -41.767122, -20.80151 ], [ -41.775023, -20.799423 ], [ -41.781839, -20.797771 ], [ -41.794071, -20.798475 ], [ -41.800794, -20.805089 ], [ -41.813525, -20.804648 ], [ -41.806653, -20.79716 ], [ -41.816462, -20.800455 ], [ -41.828119, -20.796121 ], [ -41.825182, -20.788105 ], [ -41.837393, -20.780158 ], [ -41.847736, -20.77465 ], [ -41.853441, -20.763662 ], [ -41.861187, -20.763538 ], [ -41.874626, -20.765991 ], [ -41.879391, -20.759079 ], [ -41.873716, -20.743668 ], [ -41.863109, -20.741455 ], [ -41.859153, -20.74825 ], [ -41.856152, -20.747199 ], [ -41.859901, -20.729203 ], [ -41.864952, -20.721528 ], [ -41.860892, -20.72212 ], [ -41.855798, -20.713803 ], [ -41.862339, -20.711811 ], [ -41.860649, -20.70626 ], [ -41.85421, -20.704975 ], [ -41.851492, -20.696643 ], [ -41.850439, -20.694877 ], [ -41.84644, -20.685631 ], [ -41.838963, -20.682959 ], [ -41.832882, -20.670359 ], [ -41.823753, -20.662549 ], [ -41.827241, -20.655922 ], [ -41.819079, -20.65732 ], [ -41.812828, -20.652777 ], [ -41.816017, -20.646561 ], [ -41.808395, -20.643738 ], [ -41.81105, -20.637064 ], [ -41.814332, -20.640151 ], [ -41.820794, -20.636644 ], [ -41.81701, -20.624051 ], [ -41.828704, -20.624303 ], [ -41.838776, -20.624347 ], [ -41.852616, -20.6182 ], [ -41.855991, -20.616702 ], [ -41.85274, -20.60707 ], [ -41.84534, -20.606275 ], [ -41.840895, -20.599954 ], [ -41.840394, -20.586015 ], [ -41.834926, -20.570373 ], [ -41.827988, -20.556809 ], [ -41.819188, -20.553805 ], [ -41.816489, -20.551959 ], [ -41.807902, -20.55006 ], [ -41.804526, -20.544211 ], [ -41.803896, -20.537915 ], [ -41.811796, -20.518654 ], [ -41.809058, -20.512102 ], [ -41.80916, -20.511164 ], [ -41.807265, -20.494006 ], [ -41.799155, -20.477113 ], [ -41.799033, -20.476796 ], [ -41.802469, -20.442469 ], [ -41.797827, -20.434533 ], [ -41.803195, -20.429042 ], [ -41.802988, -20.421751 ], [ -41.836122, -20.408824 ], [ -41.845278, -20.381496 ], [ -41.847384, -20.374602 ], [ -41.858648, -20.37319 ], [ -41.8521, -20.356297 ], [ -41.852244, -20.347672 ], [ -41.843996, -20.340445 ], [ -41.843523, -20.333564 ], [ -41.847988, -20.329696 ], [ -41.841462, -20.326064 ], [ -41.836056, -20.329538 ], [ -41.834035, -20.325164 ], [ -41.825259, -20.31939 ], [ -41.822434, -20.310608 ], [ -41.818257, -20.310097 ], [ -41.806543, -20.307005 ], [ -41.802684, -20.298718 ], [ -41.797047, -20.296011 ], [ -41.781738, -20.29399 ], [ -41.777392, -20.288122 ], [ -41.778705, -20.277691 ], [ -41.777274, -20.270788 ], [ -41.775469, -20.262557 ], [ -41.774356, -20.259348 ], [ -41.770911, -20.256538 ], [ -41.766707, -20.228773 ], [ -41.763628, -20.227344 ], [ -41.765375, -20.223425 ], [ -41.759486, -20.212873 ], [ -41.756685, -20.21341 ], [ -41.756351, -20.20638 ], [ -41.665551, -20.20621 ], [ -41.671462, -20.217705 ], [ -41.667995, -20.228287 ], [ -41.675421, -20.241857 ], [ -41.674568, -20.251721 ], [ -41.68158, -20.256075 ], [ -41.683751, -20.264271 ], [ -41.676529, -20.264171 ], [ -41.666416, -20.2583 ], [ -41.677545, -20.279814 ], [ -41.673812, -20.285195 ], [ -41.684228, -20.288796 ], [ -41.685997, -20.296806 ], [ -41.684611, -20.301258 ], [ -41.679908, -20.300896 ], [ -41.677414, -20.307812 ], [ -41.680944, -20.31968 ], [ -41.690738, -20.325263 ], [ -41.68692, -20.328176 ], [ -41.687242, -20.337039 ], [ -41.679871, -20.322038 ], [ -41.658941, -20.31486 ], [ -41.637169, -20.293363 ], [ -41.628722, -20.289331 ], [ -41.621055, -20.270933 ], [ -41.621012, -20.270853 ], [ -41.616312, -20.267704 ], [ -41.607524, -20.269825 ], [ -41.597238, -20.264418 ], [ -41.594358, -20.267194 ], [ -41.569267, -20.264063 ], [ -41.564907, -20.272626 ], [ -41.56453, -20.275168 ], [ -41.558564, -20.281465 ], [ -41.553465, -20.298561 ], [ -41.538576, -20.290163 ], [ -41.537204, -20.286071 ], [ -41.528442, -20.287289 ], [ -41.522672, -20.294353 ], [ -41.513739, -20.283517 ], [ -41.503402, -20.277688 ], [ -41.495935, -20.279383 ], [ -41.490442, -20.289424 ], [ -41.489568, -20.301167 ], [ -41.478352, -20.314224 ], [ -41.482337, -20.322694 ], [ -41.475446, -20.326716 ], [ -41.457754, -20.30757 ], [ -41.452571, -20.306077 ], [ -41.443402, -20.296157 ], [ -41.43981, -20.285183 ], [ -41.439477, -20.282066 ], [ -41.448529, -20.275716 ], [ -41.444239, -20.26512 ], [ -41.431449, -20.249915 ], [ -41.424777, -20.246517 ], [ -41.421821, -20.238732 ], [ -41.415895, -20.239241 ], [ -41.41264, -20.232485 ], [ -41.410266, -20.230245 ], [ -41.399239, -20.234263 ], [ -41.392587, -20.226322 ], [ -41.395793, -20.220729 ], [ -41.380869, -20.222987 ], [ -41.375759, -20.21737 ], [ -41.375572, -20.204222 ], [ -41.354388, -20.198431 ], [ -41.349235, -20.198648 ], [ -41.344303, -20.200444 ], [ -41.347954, -20.205288 ], [ -41.339676, -20.215099 ], [ -41.343544, -20.221208 ], [ -41.338113, -20.224698 ], [ -41.34507, -20.227552 ], [ -41.350736, -20.23546 ], [ -41.347556, -20.242969 ], [ -41.334434, -20.243446 ], [ -41.329697, -20.247403 ], [ -41.323561, -20.249751 ], [ -41.312003, -20.267112 ], [ -41.304676, -20.269991 ], [ -41.319768, -20.273267 ], [ -41.316599, -20.281846 ], [ -41.320112, -20.286505 ], [ -41.316061, -20.287514 ], [ -41.314109, -20.295594 ], [ -41.317504, -20.300267 ], [ -41.323935, -20.300837 ], [ -41.33217, -20.302297 ], [ -41.339601, -20.296567 ], [ -41.353631, -20.304516 ], [ -41.35563, -20.31541 ], [ -41.361204, -20.320937 ], [ -41.362707, -20.326426 ], [ -41.359358, -20.325807 ], [ -41.357192, -20.332795 ], [ -41.357435, -20.348697 ], [ -41.353524, -20.350229 ], [ -41.352999, -20.360936 ], [ -41.349671, -20.36343 ], [ -41.350236, -20.373758 ], [ -41.345686, -20.375629 ], [ -41.343866, -20.391269 ], [ -41.336799, -20.38483 ], [ -41.320178, -20.400112 ], [ -41.317101, -20.408868 ], [ -41.320323, -20.411348 ], [ -41.319536, -20.418226 ], [ -41.310764, -20.42534 ], [ -41.315806, -20.428965 ], [ -41.314318, -20.439909 ], [ -41.319084, -20.451699 ], [ -41.316466, -20.458095 ], [ -41.320337, -20.474317 ], [ -41.323483, -20.478208 ], [ -41.317319, -20.490334 ], [ -41.328553, -20.497047 ], [ -41.320077, -20.496778 ], [ -41.310726, -20.514495 ], [ -41.300441, -20.521371 ], [ -41.286653, -20.511776 ], [ -41.286326, -20.506043 ], [ -41.279941, -20.507643 ], [ -41.2827, -20.488408 ], [ -41.276262, -20.486402 ], [ -41.270761, -20.492261 ], [ -41.262585, -20.486492 ], [ -41.258964, -20.490401 ], [ -41.253542, -20.488398 ], [ -41.249437, -20.490829 ], [ -41.247762, -20.49816 ], [ -41.241978, -20.499785 ], [ -41.23611, -20.487729 ], [ -41.225712, -20.490327 ], [ -41.220452, -20.486578 ], [ -41.208952, -20.487246 ], [ -41.206885, -20.481356 ], [ -41.224472, -20.461235 ], [ -41.2222, -20.451346 ], [ -41.217613, -20.443247 ], [ -41.212792, -20.442858 ], [ -41.208075, -20.446665 ], [ -41.205598, -20.456118 ], [ -41.201846, -20.455952 ], [ -41.192034, -20.444581 ], [ -41.171685, -20.44704 ], [ -41.171482, -20.446941 ], [ -41.165205, -20.443859 ], [ -41.166318, -20.428936 ], [ -41.161545, -20.422569 ], [ -41.141413, -20.430983 ], [ -41.127703, -20.424869 ], [ -41.1193, -20.424636 ], [ -41.119763, -20.421678 ], [ -41.109971, -20.40941 ], [ -41.110743, -20.404683 ], [ -41.105445, -20.402771 ], [ -41.097665, -20.410365 ], [ -41.103269, -20.421769 ], [ -41.099525, -20.426134 ], [ -41.101605, -20.430231 ], [ -41.088592, -20.441053 ], [ -41.075668, -20.44417 ], [ -41.075759, -20.4501 ], [ -41.070989, -20.450843 ], [ -41.066944, -20.459641 ], [ -41.052455, -20.459606 ], [ -41.055643, -20.467958 ], [ -41.050987, -20.480697 ], [ -41.045348, -20.476103 ], [ -41.039321, -20.483715 ], [ -41.018426, -20.483478 ], [ -41.019413, -20.478099 ], [ -41.005873, -20.470202 ], [ -41.006308, -20.465162 ], [ -41.01038, -20.457092 ], [ -41.007046, -20.449708 ], [ -41.008697, -20.438777 ], [ -41.009188, -20.433126 ], [ -41.00009, -20.425527 ], [ -40.996229, -20.427173 ], [ -40.993436, -20.428728 ], [ -40.987785, -20.436751 ], [ -40.980836, -20.43371 ], [ -40.961026, -20.435525 ], [ -40.961572, -20.42982 ], [ -40.944874, -20.440129 ], [ -40.938479, -20.436722 ], [ -40.929417, -20.437005 ], [ -40.925679, -20.441885 ], [ -40.919394, -20.442609 ], [ -40.919023, -20.446968 ], [ -40.911849, -20.449187 ], [ -40.904029, -20.458128 ], [ -40.904773, -20.46212 ], [ -40.869891, -20.464879 ], [ -40.865632, -20.479886 ], [ -40.860977, -20.48826 ], [ -40.855236, -20.491553 ], [ -40.842263, -20.485338 ], [ -40.835554, -20.487893 ], [ -40.831045, -20.484305 ], [ -40.818338, -20.488623 ], [ -40.813537, -20.482144 ], [ -40.807142, -20.491801 ], [ -40.810197, -20.501708 ], [ -40.821837, -20.517302 ], [ -40.815667, -20.5233 ], [ -40.798108, -20.514149 ], [ -40.792954, -20.507482 ], [ -40.786847, -20.509557 ], [ -40.77549, -20.496392 ], [ -40.769505, -20.496965 ], [ -40.763957, -20.497187 ], [ -40.761013, -20.504147 ], [ -40.748291, -20.492873 ], [ -40.751793, -20.48836 ], [ -40.74075, -20.480841 ], [ -40.743709, -20.475189 ], [ -40.736875, -20.474264 ], [ -40.736068, -20.466632 ], [ -40.728806, -20.462492 ], [ -40.72733, -20.46157 ], [ -40.723543, -20.45771 ], [ -40.719857, -20.460414 ], [ -40.709891, -20.459492 ], [ -40.710983, -20.450407 ], [ -40.707871, -20.447482 ], [ -40.715374, -20.441315 ], [ -40.702742, -20.432389 ], [ -40.689002, -20.433725 ], [ -40.683677, -20.440989 ], [ -40.674005, -20.44938 ], [ -40.660662, -20.449116 ], [ -40.657957, -20.460105 ], [ -40.658644, -20.465369 ], [ -40.66381, -20.462443 ], [ -40.669113, -20.466244 ], [ -40.675398, -20.46532 ], [ -40.679764, -20.473961 ], [ -40.673752, -20.479851 ], [ -40.678042, -20.481641 ], [ -40.676819, -20.48481 ], [ -40.67724, -20.488815 ], [ -40.68249, -20.487456 ], [ -40.684869, -20.499591 ], [ -40.691153, -20.498512 ], [ -40.695075, -20.504463 ], [ -40.692462, -20.511472 ], [ -40.695638, -20.520359 ], [ -40.691272, -20.524454 ], [ -40.701158, -20.525247 ], [ -40.702473, -20.536245 ], [ -40.672697, -20.544378 ], [ -40.670504, -20.551202 ], [ -40.672929, -20.557272 ], [ -40.675864, -20.554079 ], [ -40.681025, -20.556514 ], [ -40.684376, -20.566184 ], [ -40.681537, -20.578487 ], [ -40.672512, -20.573827 ], [ -40.676981, -20.566135 ], [ -40.666759, -20.558005 ], [ -40.647187, -20.546161 ], [ -40.639495, -20.546761 ], [ -40.637737, -20.550625 ], [ -40.642752, -20.558781 ], [ -40.644468, -20.584861 ], [ -40.644879, -20.585642 ], [ -40.647047, -20.61713 ], [ -40.647604, -20.627742 ], [ -40.635819, -20.650832 ], [ -40.584638, -20.741649 ], [ -40.5758, -20.756908 ], [ -40.57064, -20.765936 ], [ -40.576964, -20.778275 ], [ -40.576964, -20.790493 ], [ -40.58276, -20.798942 ], [ -40.580999, -20.802545 ], [ -40.586442, -20.806417 ], [ -40.589548, -20.801994 ], [ -40.607343, -20.805309 ], [ -40.619955, -20.832416 ], [ -40.627757, -20.841286 ], [ -40.631176, -20.840663 ], [ -40.633334, -20.828939 ], [ -40.628544, -20.818968 ], [ -40.635494, -20.812296 ], [ -40.648859, -20.80689 ], [ -40.66559, -20.811973 ], [ -40.665894, -20.816241 ], [ -40.671311, -20.817486 ], [ -40.672449, -20.82108 ], [ -40.682774, -20.82259 ], [ -40.682572, -20.826259 ], [ -40.690437, -20.827787 ], [ -40.693247, -20.834293 ], [ -40.700812, -20.834226 ], [ -40.714939, -20.843249 ], [ -40.720005, -20.841684 ], [ -40.719648, -20.83661 ], [ -40.727566, -20.836033 ], [ -40.728591, -20.83814 ], [ -40.720118, -20.838796 ], [ -40.723095, -20.841945 ], [ -40.718988, -20.846368 ], [ -40.724672, -20.846662 ], [ -40.724022, -20.842691 ], [ -40.729023, -20.842372 ], [ -40.744125, -20.848051 ], [ -40.748816, -20.853427 ], [ -40.75837, -20.863602 ], [ -40.758577, -20.86407 ], [ -40.761827, -20.876238 ], [ -40.758406, -20.879113 ], [ -40.764709, -20.889121 ], [ -40.772263, -20.891493 ], [ -40.776071, -20.904653 ], [ -40.795266, -20.925837 ], [ -40.803785, -20.943228 ], [ -40.809782, -20.966937 ], [ -40.810312, -20.994509 ], [ -40.805412, -21.00411 ], [ -40.800322, -21.003346 ], [ -40.806335, -21.007194 ], [ -40.81036, -21.02088 ], [ -40.812995, -21.035579 ], [ -40.827751, -21.046462 ], [ -40.855976, -21.127565 ], [ -40.880473, -21.143371 ], [ -40.890835, -21.156978 ], [ -40.907678, -21.167285 ], [ -40.92558, -21.191225 ], [ -40.934114, -21.204038 ], [ -40.953411, -21.237494 ], [ -40.96021, -21.257417 ], [ -40.961918, -21.269628 ], [ -40.9617, -21.279023 ], [ -40.957511, -21.301288 ], [ -40.965066, -21.299189 ], [ -40.965456, -21.295169 ], [ -40.972433, -21.293622 ], [ -40.97533, -21.288588 ], [ -40.980291, -21.288305 ], [ -40.976148, -21.286453 ], [ -40.977596, -21.280553 ], [ -40.985176, -21.286481 ], [ -40.994281, -21.285842 ], [ -40.998922, -21.277976 ], [ -40.998064, -21.265741 ], [ -41.006269, -21.251556 ], [ -41.011914, -21.250599 ], [ -41.024755, -21.245814 ], [ -41.040992, -21.25468 ], [ -41.055476, -21.237673 ], [ -41.070158, -21.228243 ], [ -41.072851, -21.230458 ], [ -41.081045, -21.221501 ], [ -41.088218, -21.219944 ], [ -41.090658, -21.221169 ], [ -41.092043, -21.218169 ], [ -41.102263, -21.221702 ], [ -41.103907, -21.219257 ], [ -41.11884, -21.229906 ], [ -41.134008, -21.226158 ], [ -41.137055, -21.227502 ], [ -41.140982, -21.238209 ], [ -41.155813, -21.239671 ], [ -41.155492, -21.244589 ], [ -41.157815, -21.240653 ], [ -41.160576, -21.245521 ], [ -41.163633, -21.242733 ], [ -41.176412, -21.244363 ], [ -41.17409, -21.240607 ], [ -41.180635, -21.241428 ], [ -41.17755, -21.238652 ], [ -41.180783, -21.2394 ], [ -41.182467, -21.235836 ], [ -41.185835, -21.240923 ], [ -41.183148, -21.24396 ], [ -41.187751, -21.243044 ], [ -41.190506, -21.248004 ], [ -41.192566, -21.241275 ], [ -41.193174, -21.243822 ], [ -41.19918, -21.243665 ], [ -41.203682, -21.239381 ], [ -41.204875, -21.243425 ], [ -41.211833, -21.235415 ], [ -41.221273, -21.232856 ], [ -41.220313, -21.229496 ], [ -41.22454, -21.230235 ], [ -41.223903, -21.226809 ], [ -41.227194, -21.230538 ], [ -41.22805, -21.225515 ], [ -41.240881, -21.220674 ], [ -41.246545, -21.220703 ], [ -41.249347, -21.221706 ], [ -41.256901, -21.2253 ], [ -41.261673, -21.23628 ], [ -41.265289, -21.232608 ], [ -41.271923, -21.232895 ], [ -41.271426, -21.236813 ], [ -41.275393, -21.235903 ], [ -41.276672, -21.239769 ], [ -41.283478, -21.23446 ], [ -41.285625, -21.23734 ], [ -41.288427, -21.233691 ], [ -41.2974, -21.233964 ], [ -41.31104, -21.218808 ], [ -41.317286, -21.221113 ], [ -41.31668, -21.213271 ], [ -41.325735, -21.212607 ], [ -41.325826, -21.218035 ], [ -41.332229, -21.214479 ], [ -41.333623, -21.209439 ], [ -41.337799, -21.206875 ], [ -41.343272, -21.208539 ], [ -41.363249, -21.202417 ], [ -41.370687, -21.203951 ], [ -41.376722, -21.200811 ], [ -41.377117, -21.195258 ], [ -41.381025, -21.195926 ], [ -41.381875, -21.199779 ], [ -41.387917, -21.198914 ], [ -41.392805, -21.2022 ], [ -41.394961, -21.201137 ], [ -41.402976, -21.198427 ], [ -41.406441, -21.202281 ], [ -41.410266, -21.198627 ], [ -41.412844, -21.201243 ], [ -41.4169, -21.199359 ], [ -41.43523, -21.215534 ], [ -41.447536, -21.213648 ], [ -41.453733, -21.20787 ], [ -41.459935, -21.206894 ], [ -41.466521, -21.204072 ], [ -41.469736, -21.202192 ], [ -41.47948, -21.193442 ], [ -41.479349, -21.181729 ], [ -41.482233, -21.183275 ], [ -41.488, -21.1798 ], [ -41.498201, -21.184828 ], [ -41.505319, -21.175702 ], [ -41.512065, -21.175216 ], [ -41.516845, -21.186512 ], [ -41.52084, -21.186672 ], [ -41.53051, -21.17934 ], [ -41.537728, -21.180698 ], [ -41.548035, -21.182373 ], [ -41.551706, -21.175554 ], [ -41.558184, -21.172381 ], [ -41.565317, -21.182248 ], [ -41.569519, -21.179079 ], [ -41.570313, -21.170845 ], [ -41.581971, -21.166097 ], [ -41.586911, -21.149056 ], [ -41.592032, -21.148874 ], [ -41.605639, -21.154117 ], [ -41.607516, -21.154512 ], [ -41.613131, -21.155068 ], [ -41.615855, -21.150926 ], [ -41.628501, -21.143973 ], [ -41.638548, -21.145883 ], [ -41.645541, -21.143055 ], [ -41.653715, -21.142484 ], [ -41.653058, -21.136891 ], [ -41.664527, -21.132193 ], [ -41.662263, -21.124582 ] ] ] } },
{ "type": "Feature", "properties": { "MACRO_ID": "3207", "MACRO_NAME": "Metropolitana", "id": "320010", "name": "Afonso Cláudio", "description": "Afonso Cláudio", "MUN_ID": "320010", "UF": "ES", "HREG_ID": "32002", "HREG_NAME": "Metropolitana" }, "geometry": { "type": "MultiPolygon", "coordinates": [ [ [ [ -40.400228, -20.576251 ], [ -40.403441, -20.598555 ], [ -40.419975, -20.621261 ], [ -40.425882, -20.63346 ], [ -40.422519, -20.634948 ], [ -40.424396, -20.637362 ], [ -40.427748, -20.635073 ], [ -40.432882, -20.642257 ], [ -40.437458, -20.63403 ], [ -40.449711, -20.637754 ], [ -40.445117, -20.631312 ], [ -40.448216, -20.626456 ], [ -40.463739, -20.623672 ], [ -40.464064, -20.630219 ], [ -40.46971, -20.63373 ], [ -40.465767, -20.635607 ], [ -40.469832, -20.638529 ], [ -40.463724, -20.64615 ], [ -40.467787, -20.645679 ], [ -40.472092, -20.650465 ], [ -40.471318, -20.653337 ], [ -40.46472, -20.652129 ], [ -40.467574, -20.659948 ], [ -40.475066, -20.661055 ], [ -40.473494, -20.65509 ], [ -40.482959, -20.653328 ], [ -40.494103, -20.660281 ], [ -40.496899, -20.665869 ], [ -40.502798, -20.66689 ], [ -40.504611, -20.668097 ], [ -40.505486, -20.66705 ], [ -40.504477, -20.666418 ], [ -40.520037, -20.66204 ], [ -40.524652, -20.663523 ], [ -40.526646, -20.655146 ], [ -40.529283, -20.676716 ], [ -40.536457, -20.67416 ], [ -40.53965, -20.676455 ], [ -40.540738, -20.672611 ], [ -40.544315, -20.673087 ], [ -40.538819, -20.677994 ], [ -40.534933, -20.675787 ], [ -40.529292, -20.677921 ], [ -40.536756, -20.68519 ], [ -40.522314, -20.690925 ], [ -40.516481, -20.685215 ], [ -40.530759, -20.684191 ], [ -40.527175, -20.678953 ], [ -40.527117, -20.668463 ], [ -40.523012, -20.667301 ], [ -40.526372, -20.666673 ], [ -40.517479, -20.664904 ], [ -40.504875, -20.670665 ], [ -40.493085, -20.664133 ], [ -40.490808, -20.6673 ], [ -40.496065, -20.671435 ], [ -40.495673, -20.676698 ], [ -40.501385, -20.676281 ], [ -40.511288, -20.69264 ], [ -40.523625, -20.723074 ], [ -40.520561, -20.730213 ], [ -40.526453, -20.728676 ], [ -40.525563, -20.734289 ], [ -40.533582, -20.735511 ], [ -40.532594, -20.740446 ], [ -40.537196, -20.744991 ], [ -40.537157, -20.738897 ], [ -40.549444, -20.740571 ], [ -40.570622, -20.765844 ], [ -40.5758, -20.756908 ], [ -40.584638, -20.741649 ], [ -40.635819, -20.650832 ], [ -40.647604, -20.627742 ], [ -40.647047, -20.61713 ], [ -40.644879, -20.585642 ], [ -40.644468, -20.584861 ], [ -40.642752, -20.558781 ], [ -40.637737, -20.550625 ], [ -40.639495, -20.546761 ], [ -40.647187, -20.546161 ], [ -40.666759, -20.558005 ], [ -40.676981, -20.566135 ], [ -40.672512, -20.573827 ], [ -40.681537, -20.578487 ], [ -40.684376, -20.566184 ], [ -40.681025, -20.556514 ], [ -40.675864, -20.554079 ], [ -40.672929, -20.557272 ], [ -40.670504, -20.551202 ], [ -40.672697, -20.544378 ], [ -40.702473, -20.536245 ], [ -40.701158, -20.525247 ], [ -40.691272, -20.524454 ], [ -40.695638, -20.520359 ], [ -40.692462, -20.511472 ], [ -40.695075, -20.504463 ], [ -40.691153, -20.498512 ], [ -40.684869, -20.499591 ], [ -40.68249, -20.487456 ], [ -40.67724, -20.488815 ], [ -40.676819, -20.48481 ], [ -40.678042, -20.481641 ], [ -40.673752, -20.479851 ], [ -40.679764, -20.473961 ], [ -40.675398, -20.46532 ], [ -40.669113, -20.466244 ], [ -40.66381, -20.462443 ], [ -40.658644, -20.465369 ], [ -40.657957, -20.460105 ], [ -40.660662, -20.449116 ], [ -40.674005, -20.44938 ], [ -40.683677, -20.440989 ], [ -40.689002, -20.433725 ], [ -40.702742, -20.432389 ], [ -40.715374, -20.441315 ], [ -40.707871, -20.447482 ], [ -40.710983, -20.450407 ], [ -40.709891, -20.459492 ], [ -40.719857, -20.460414 ], [ -40.723543, -20.45771 ], [ -40.72733, -20.46157 ], [ -40.728806, -20.462492 ], [ -40.736068, -20.466632 ], [ -40.736875, -20.474264 ], [ -40.743709, -20.475189 ], [ -40.74075, -20.480841 ], [ -40.751793, -20.48836 ], [ -40.748291, -20.492873 ], [ -40.761013, -20.504147 ], [ -40.763957, -20.497187 ], [ -40.769505, -20.496965 ], [ -40.77549, -20.496392 ], [ -40.786847, -20.509557 ], [ -40.792954, -20.507482 ], [ -40.798108, -20.514149 ], [ -40.815667, -20.5233 ], [ -40.821837, -20.517302 ], [ -40.810197, -20.501708 ], [ -40.807142, -20.491801 ], [ -40.813537, -20.482144 ], [ -40.818338, -20.488623 ], [ -40.831045, -20.484305 ], [ -40.835554, -20.487893 ], [ -40.842263, -20.485338 ], [ -40.855236, -20.491553 ], [ -40.860977, -20.48826 ], [ -40.865632, -20.479886 ], [ -40.869891, -20.464879 ], [ -40.904773, -20.46212 ], [ -40.904029, -20.458128 ], [ -40.911849, -20.449187 ], [ -40.919023, -20.446968 ], [ -40.919394, -20.442609 ], [ -40.925679, -20.441885 ], [ -40.929417, -20.437005 ], [ -40.938479, -20.436722 ], [ -40.944874, -20.440129 ], [ -40.961572, -20.42982 ], [ -40.961026, -20.435525 ], [ -40.980836, -20.43371 ], [ -40.987785, -20.436751 ], [ -40.993436, -20.428728 ], [ -40.996229, -20.427173 ], [ -41.00009, -20.425527 ], [ -41.009188, -20.433126 ], [ -41.008697, -20.438777 ], [ -41.007046, -20.449708 ], [ -41.01038, -20.457092 ], [ -41.006308, -20.465162 ], [ -41.005873, -20.470202 ], [ -41.019413, -20.478099 ], [ -41.018426, -20.483478 ], [ -41.039321, -20.483715 ], [ -41.045348, -20.476103 ], [ -41.050987, -20.480697 ], [ -41.055643, -20.467958 ], [ -41.052455, -20.459606 ], [ -41.066944, -20.459641 ], [ -41.070989, -20.450843 ], [ -41.075759, -20.4501 ], [ -41.075668, -20.44417 ], [ -41.088592, -20.441053 ], [ -41.101605, -20.430231 ], [ -41.099525, -20.426134 ], [ -41.103269, -20.421769 ], [ -41.097665, -20.410365 ], [ -41.105445, -20.402771 ], [ -41.110743, -20.404683 ], [ -41.109971, -20.40941 ], [ -41.119763, -20.421678 ], [ -41.1193, -20.424636 ], [ -41.127703, -20.424869 ], [ -41.141413, -20.430983 ], [ -41.161545, -20.422569 ], [ -41.166318, -20.428936 ], [ -41.165205, -20.443859 ], [ -41.171482, -20.446941 ], [ -41.171685, -20.44704 ], [ -41.192034, -20.444581 ], [ -41.201846, -20.455952 ], [ -41.205598, -20.456118 ], [ -41.208075, -20.446665 ], [ -41.212792, -20.442858 ], [ -41.217613, -20.443247 ], [ -41.2222, -20.451346 ], [ -41.224472, -20.461235 ], [ -41.206885, -20.481356 ], [ -41.208952, -20.487246 ], [ -41.220452, -20.486578 ], [ -41.225712, -20.490327 ], [ -41.23611, -20.487729 ], [ -41.241978, -20.499785 ], [ -41.247762, -20.49816 ], [ -41.249437, -20.490829 ], [ -41.253542, -20.488398 ], [ -41.258964, -20.490401 ], [ -41.262585, -20.486492 ], [ -41.270761, -20.492261 ], [ -41.276262, -20.486402 ], [ -41.2827, -20.488408 ], [ -41.279941, -20.507643 ], [ -41.286326, -20.506043 ], [ -41.286653, -20.511776 ], [ -41.300441, -20.521371 ], [ -41.310726, -20.514495 ], [ -41.320077, -20.496778 ], [ -41.328553, -20.497047 ], [ -41.317319, -20.490334 ], [ -41.323483, -20.478208 ], [ -41.320337, -20.474317 ], [ -41.316466, -20.458095 ], [ -41.319084, -20.451699 ], [ -41.314318, -20.439909 ], [ -41.315806, -20.428965 ], [ -41.310764, -20.42534 ], [ -41.319536, -20.418226 ], [ -41.320323, -20.411348 ], [ -41.317101, -20.408868 ], [ -41.320178, -20.400112 ], [ -41.336799, -20.38483 ], [ -41.343866, -20.391269 ], [ -41.345686, -20.375629 ], [ -41.350236, -20.373758 ], [ -41.349671, -20.36343 ], [ -41.352999, -20.360936 ], [ -41.353524, -20.350229 ], [ -41.357435, -20.348697 ], [ -41.357192, -20.332795 ], [ -41.359358, -20.325807 ], [ -41.362707, -20.326426 ], [ -41.361204, -20.320937 ], [ -41.35563, -20.31541 ], [ -41.353631, -20.304516 ], [ -41.339601, -20.296567 ], [ -41.33217, -20.302297 ], [ -41.323935, -20.300837 ], [ -41.317504, -20.300267 ], [ -41.314109, -20.295594 ], [ -41.316061, -20.287514 ], [ -41.320112, -20.286505 ], [ -41.316599, -20.281846 ], [ -41.319768, -20.273267 ], [ -41.304676, -20.269991 ], [ -41.312003, -20.267112 ], [ -41.323561, -20.249751 ], [ -41.329697, -20.247403 ], [ -41.334434, -20.243446 ], [ -41.347556, -20.242969 ], [ -41.350736, -20.23546 ], [ -41.34507, -20.227552 ], [ -41.338113, -20.224698 ], [ -41.343544, -20.221208 ], [ -41.339676, -20.215099 ], [ -41.347954, -20.205288 ], [ -41.344303, -20.200444 ], [ -41.349235, -20.198648 ], [ -41.354388, -20.198431 ], [ -41.375572, -20.204222 ], [ -41.375759, -20.21737 ], [ -41.380869, -20.222987 ], [ -41.395793, -20.220729 ], [ -41.392587, -20.226322 ], [ -41.399239, -20.234263 ], [ -41.410266, -20.230245 ], [ -41.41264, -20.232485 ], [ -41.415895, -20.239241 ], [ -41.421821, -20.238732 ], [ -41.424777, -20.246517 ], [ -41.431449, -20.249915 ], [ -41.444239, -20.26512 ], [ -41.448529, -20.275716 ], [ -41.439477, -20.282066 ], [ -41.43981, -20.285183 ], [ -41.443402, -20.296157 ], [ -41.452571, -20.306077 ], [ -41.457754, -20.30757 ], [ -41.475446, -20.326716 ], [ -41.482337, -20.322694 ], [ -41.478352, -20.314224 ], [ -41.489568, -20.301167 ], [ -41.490442, -20.289424 ], [ -41.495935, -20.279383 ], [ -41.503402, -20.277688 ], [ -41.513739, -20.283517 ], [ -41.522672, -20.294353 ], [ -41.528442, -20.287289 ], [ -41.537204, -20.286071 ], [ -41.538576, -20.290163 ], [ -41.553465, -20.298561 ], [ -41.558564, -20.281465 ], [ -41.56453, -20.275168 ], [ -41.564907, -20.272626 ], [ -41.569267, -20.264063 ], [ -41.594358, -20.267194 ], [ -41.597238, -20.264418 ], [ -41.607524, -20.269825 ], [ -41.616312, -20.267704 ], [ -41.621012, -20.270853 ], [ -41.621055, -20.270933 ], [ -41.628722, -20.289331 ], [ -41.637169, -20.293363 ], [ -41.658941, -20.31486 ], [ -41.679871, -20.322038 ], [ -41.687242, -20.337039 ], [ -41.68692, -20.328176 ], [ -41.690738, -20.325263 ], [ -41.680944, -20.31968 ], [ -41.677414, -20.307812 ], [ -41.679908, -20.300896 ], [ -41.684611, -20.301258 ], [ -41.685997, -20.296806 ], [ -41.684228, -20.288796 ], [ -41.673812, -20.285195 ], [ -41.677545, -20.279814 ], [ -41.666416, -20.2583 ], [ -41.676529, -20.264171 ], [ -41.683751, -20.264271 ], [ -41.68158, -20.256075 ], [ -41.674568, -20.251721 ], [ -41.675421, -20.241857 ], [ -41.667995, -20.228287 ], [ -41.671462, -20.217705 ], [ -41.665551, -20.20621 ], [ -41.659882, -20.206229 ], [ -41.601898, -20.206412 ], [ -41.596756, -20.206427 ], [ -41.595961, -20.20643 ], [ -41.576716, -20.206486 ], [ -41.532107, -20.206608 ], [ -41.472166, -20.206754 ], [ -41.451214, -20.206801 ], [ -41.410741, -20.206883 ], [ -41.4109, -20.199845 ], [ -41.4073, -20.196888 ], [ -41.401268, -20.198743 ], [ -41.381716, -20.188327 ], [ -41.377001, -20.175155 ], [ -41.373693, -20.167673 ], [ -41.375534, -20.161463 ], [ -41.367435, -20.156366 ], [ -41.361493, -20.141592 ], [ -41.355415, -20.138612 ], [ -41.356123, -20.132982 ], [ -41.34712, -20.123422 ], [ -41.350489, -20.118673 ], [ -41.348672, -20.112582 ], [ -41.343577, -20.099644 ], [ -41.344767, -20.089626 ], [ -41.337135, -20.086493 ], [ -41.335214, -20.064986 ], [ -41.331491, -20.062734 ], [ -41.333158, -20.058354 ], [ -41.323786, -20.051874 ], [ -41.319547, -20.043854 ], [ -41.319504, -20.043772 ], [ -41.316859, -20.026479 ], [ -41.308709, -20.015885 ], [ -41.307265, -20.008204 ], [ -41.308396, -19.996581 ], [ -41.31345, -19.989374 ], [ -41.3195, -19.978144 ], [ -41.311239, -19.971235 ], [ -41.307518, -19.947855 ], [ -41.298992, -19.936586 ], [ -41.271037, -19.941723 ], [ -41.254213, -19.931659 ], [ -41.248527, -19.937463 ], [ -41.2431, -19.936246 ], [ -41.232183, -19.918502 ], [ -41.228489, -19.905268 ], [ -41.210958, -19.900701 ], [ -41.204657, -19.902625 ], [ -41.187249, -19.891196 ], [ -41.184485, -19.888477 ], [ -41.183608, -19.848339 ], [ -41.17875, -19.846538 ], [ -41.175301, -19.838865 ], [ -41.185899, -19.827182 ], [ -41.175078, -19.825253 ], [ -41.165787, -19.8101 ], [ -41.165552, -19.791974 ], [ -41.173664, -19.783521 ], [ -41.171295, -19.777853 ], [ -41.174498, -19.766567 ], [ -41.173545, -19.762014 ], [ -41.166671, -19.76242 ], [ -41.158947, -19.764039 ], [ -41.154478, -19.759111 ], [ -41.148338, -19.766374 ], [ -41.134212, -19.773154 ], [ -41.126403, -19.771457 ], [ -41.122151, -19.779643 ], [ -41.124574, -19.788138 ], [ -41.115183, -19.793965 ], [ -41.111399, -19.793232 ], [ -41.110094, -19.784761 ], [ -41.101391, -19.78266 ], [ -41.096342, -19.786632 ], [ -41.074058, -19.77323 ], [ -41.06857, -19.775796 ], [ -41.053909, -19.761636 ], [ -41.053729, -19.761512 ], [ -41.042296, -19.763094 ], [ -41.047171, -19.768824 ], [ -41.052471, -19.768773 ], [ -41.054407, -19.775832 ], [ -41.045714, -19.777142 ], [ -41.036027, -19.791267 ], [ -41.022085, -19.781303 ], [ -41.017265, -19.785235 ], [ -41.010643, -19.804398 ], [ -40.992252, -19.80345 ], [ -40.996584, -19.789658 ], [ -40.992844, -19.785626 ], [ -40.990825, -19.759168 ], [ -40.98154, -19.755753 ], [ -40.980144, -19.744175 ], [ -40.980264, -19.734776 ], [ -40.974121, -19.72747 ], [ -40.968812, -19.724829 ], [ -40.959647, -19.729229 ], [ -40.94614, -19.72831 ], [ -40.943156, -19.710004 ], [ -40.936152, -19.706808 ], [ -40.929231, -19.695201 ], [ -40.920838, -19.694827 ], [ -40.926638, -19.687887 ], [ -40.924956, -19.676068 ], [ -40.928596, -19.671853 ], [ -40.934671, -19.652559 ], [ -40.936339, -19.64094 ], [ -40.927709, -19.631332 ], [ -40.933968, -19.625724 ], [ -40.931975, -19.62161 ], [ -40.938138, -19.617037 ], [ -40.930117, -19.616564 ], [ -40.929021, -19.611097 ], [ -40.921084, -19.606841 ], [ -40.921335, -19.602974 ], [ -40.911882, -19.598842 ], [ -40.89829, -19.598637 ], [ -40.89164, -19.592867 ], [ -40.882784, -19.590893 ], [ -40.875936, -19.573712 ], [ -40.865699, -19.571162 ], [ -40.849546, -19.558264 ], [ -40.840751, -19.560549 ], [ -40.845523, -19.564783 ], [ -40.844136, -19.566915 ], [ -40.833105, -19.56744 ], [ -40.852465, -19.577619 ], [ -40.855941, -19.587467 ], [ -40.851689, -19.597019 ], [ -40.860464, -19.603085 ], [ -40.854542, -19.609729 ], [ -40.850822, -19.616175 ], [ -40.834937, -19.615883 ], [ -40.824873, -19.605269 ], [ -40.825414, -19.597239 ], [ -40.816214, -19.594482 ], [ -40.806783, -19.597676 ], [ -40.789353, -19.580112 ], [ -40.783465, -19.579335 ], [ -40.777629, -19.582795 ], [ -40.784363, -19.586471 ], [ -40.78688, -19.595216 ], [ -40.773505, -19.614136 ], [ -40.77984, -19.634475 ], [ -40.768136, -19.635217 ], [ -40.770299, -19.650409 ], [ -40.756483, -19.652467 ], [ -40.759363, -19.669037 ], [ -40.765524, -19.680452 ], [ -40.772756, -19.69683 ], [ -40.771387, -19.707646 ], [ -40.775757, -19.712273 ], [ -40.772822, -19.739417 ], [ -40.780991, -19.760125 ], [ -40.776196, -19.772459 ], [ -40.777518, -19.780176 ], [ -40.773249, -19.787284 ], [ -40.776414, -19.796553 ], [ -40.771257, -19.803668 ], [ -40.77434, -19.812772 ], [ -40.763579, -19.829653 ], [ -40.757423, -19.824232 ], [ -40.747279, -19.829547 ], [ -40.740308, -19.826622 ], [ -40.730671, -19.829204 ], [ -40.727203, -19.826449 ], [ -40.707024, -19.814674 ], [ -40.709985, -19.788634 ], [ -40.69544, -19.782834 ], [ -40.693725, -19.772537 ], [ -40.689458, -19.770895 ], [ -40.681738, -19.769921 ], [ -40.676881, -19.775883 ], [ -40.658377, -19.771853 ], [ -40.633001, -19.773754 ], [ -40.63235, -19.773577 ], [ -40.610194, -19.758544 ], [ -40.583834, -19.749503 ], [ -40.572332, -19.740631 ], [ -40.560383, -19.741712 ], [ -40.555569, -19.733587 ], [ -40.551436, -19.733163 ], [ -40.544895, -19.7411 ], [ -40.535341, -19.738708 ], [ -40.526834, -19.744592 ], [ -40.51833, -19.745175 ], [ -40.519509, -19.727149 ], [ -40.526972, -19.715096 ], [ -40.510948, -19.669166 ], [ -40.502388, -19.658398 ], [ -40.497693, -19.65887 ], [ -40.497142, -19.652952 ], [ -40.48861, -19.64981 ], [ -40.489488, -19.644748 ], [ -40.485503, -19.639959 ], [ -40.475263, -19.641257 ], [ -40.469513, -19.632191 ], [ -40.463248, -19.630761 ], [ -40.421058, -19.640534 ], [ -40.375673, -19.622269 ], [ -40.370205, -19.623745 ], [ -40.373494, -19.641882 ], [ -40.369901, -19.653013 ], [ -40.363872, -19.656427 ], [ -40.357149, -19.670554 ], [ -40.348651, -19.666434 ], [ -40.344246, -19.652129 ], [ -40.332879, -19.641674 ], [ -40.304299, -19.661339 ], [ -40.308625, -19.647862 ], [ -40.288149, -19.63479 ], [ -40.289434, -19.624216 ], [ -40.272439, -19.622659 ], [ -40.266681, -19.609753 ], [ -40.257821, -19.605806 ], [ -40.255239, -19.597724 ], [ -40.239068, -19.593538 ], [ -40.227129, -19.583925 ], [ -40.214916, -19.583616 ], [ -40.208893, -19.585099 ], [ -40.200401, -19.577159 ], [ -40.198838, -19.571109 ], [ -40.192002, -19.570362 ], [ -40.191094, -19.56598 ], [ -40.184071, -19.561524 ], [ -40.175576, -19.560021 ], [ -40.16925, -19.558076 ], [ -40.16638, -19.55289 ], [ -40.145029, -19.556428 ], [ -40.140589, -19.555493 ], [ -40.138407, -19.550874 ], [ -40.123571, -19.550553 ], [ -40.111353, -19.552807 ], [ -40.08614, -19.564462 ], [ -40.075228, -19.578261 ], [ -40.064828, -19.584826 ], [ -40.049165, -19.584061 ], [ -40.031181, -19.60577 ], [ -39.935086, -19.67052 ], [ -39.915606, -19.683626 ], [ -39.911261, -19.68655 ], [ -39.930149, -19.698681 ], [ -39.972961, -19.730641 ], [ -40.003921, -19.757359 ], [ -40.045774, -19.801952 ], [ -40.055848, -19.817395 ], [ -40.05739, -19.833242 ], [ -40.063074, -19.852484 ], [ -40.078571, -19.873466 ], [ -40.085817, -19.882609 ], [ -40.086911, -19.893001 ], [ -40.091526, -19.89448 ], [ -40.090042, -19.900275 ], [ -40.097205, -19.904437 ], [ -40.098699, -19.918438 ], [ -40.117953, -19.931499 ], [ -40.130764, -19.935751 ], [ -40.139281, -19.948678 ], [ -40.139289, -19.955555 ], [ -40.130144, -19.968558 ], [ -40.136473, -19.969667 ], [ -40.141491, -19.985488 ], [ -40.146674, -19.989694 ], [ -40.147438, -20.006351 ], [ -40.153661, -20.013164 ], [ -40.158583, -20.038096 ], [ -40.181592, -20.041352 ], [ -40.190346, -20.05608 ], [ -40.178978, -20.065963 ], [ -40.172442, -20.074263 ], [ -40.171626, -20.102933 ], [ -40.170969, -20.109886 ], [ -40.183644, -20.154229 ], [ -40.184308, -20.174405 ], [ -40.190061, -20.183567 ], [ -40.192352, -20.2018 ], [ -40.197403, -20.216351 ], [ -40.212787, -20.2393 ], [ -40.229404, -20.258177 ], [ -40.238476, -20.280195 ], [ -40.237093, -20.289009 ], [ -40.250086, -20.294595 ], [ -40.253552, -20.288975 ], [ -40.250457, -20.27952 ], [ -40.256065, -20.267888 ], [ -40.261282, -20.265909 ], [ -40.285542, -20.276859 ], [ -40.291648, -20.285259 ], [ -40.289191, -20.293462 ], [ -40.284214, -20.29405 ], [ -40.291278, -20.301264 ], [ -40.278673, -20.298083 ], [ -40.276932, -20.300334 ], [ -40.282931, -20.304682 ], [ -40.29177, -20.305355 ], [ -40.290898, -20.308021 ], [ -40.279887, -20.306878 ], [ -40.276812, -20.31055 ], [ -40.288284, -20.313847 ], [ -40.289191, -20.323266 ], [ -40.283615, -20.324589 ], [ -40.275874, -20.319764 ], [ -40.273692, -20.324873 ], [ -40.268741, -20.324484 ], [ -40.270459, -20.329909 ], [ -40.274909, -20.329877 ], [ -40.274542, -20.333766 ], [ -40.276987, -20.33218 ], [ -40.281934, -20.335906 ], [ -40.284794, -20.352345 ], [ -40.296292, -20.360724 ], [ -40.309466, -20.380978 ], [ -40.322255, -20.410142 ], [ -40.323112, -20.422148 ], [ -40.320164, -20.426051 ], [ -40.34859, -20.476738 ], [ -40.35641, -20.498013 ], [ -40.358322, -20.51853 ], [ -40.365821, -20.520447 ], [ -40.376271, -20.536412 ], [ -40.400228, -20.576251 ] ] ], [ [ [ -40.396082, -20.621736 ], [ -40.396081, -20.621366 ], [ -40.395277, -20.621301 ], [ -40.395248, -20.621684 ], [ -40.396082, -20.621736 ] ] ], [ [ [ -40.382508, -20.615097 ], [ -40.382344, -20.61324 ], [ -40.379769, -20.612834 ], [ -40.379337, -20.614436 ], [ -40.382508, -20.615097 ] ] ], [ [ [ -40.377596, -20.611986 ], [ -40.375473, -20.611754 ], [ -40.375139, -20.6136 ], [ -40.377684, -20.613852 ], [ -40.377596, -20.611986 ] ] ], [ [ [ -40.374598, -20.611741 ], [ -40.372506, -20.611497 ], [ -40.372461, -20.612659 ], [ -40.374205, -20.612918 ], [ -40.374598, -20.611741 ] ] ], [ [ [ -40.382133, -20.612544 ], [ -40.382469, -20.611482 ], [ -40.3808, -20.61105 ], [ -40.380307, -20.612252 ], [ -40.382133, -20.612544 ] ] ], [ [ [ -40.388304, -20.609842 ], [ -40.387198, -20.609737 ], [ -40.38706, -20.610302 ], [ -40.388169, -20.610387 ], [ -40.388304, -20.609842 ] ] ], [ [ [ -40.375525, -20.610511 ], [ -40.373545, -20.608138 ], [ -40.373188, -20.611339 ], [ -40.375525, -20.610511 ] ] ], [ [ [ -40.391772, -20.597922 ], [ -40.391665, -20.597002 ], [ -40.390267, -20.596907 ], [ -40.390145, -20.59783 ], [ -40.391772, -20.597922 ] ] ], [ [ [ -40.356501, -20.52411 ], [ -40.357548, -20.524174 ], [ -40.357689, -20.523687 ], [ -40.356358, -20.523633 ], [ -40.356501, -20.52411 ] ] ], [ [ [ -40.310168, -20.420189 ], [ -40.309967, -20.421014 ], [ -40.31188, -20.421192 ], [ -40.311794, -20.420325 ], [ -40.310168, -20.420189 ] ] ], [ [ [ -40.29702, -20.379451 ], [ -40.295273, -20.379791 ], [ -40.294961, -20.380957 ], [ -40.297893, -20.381432 ], [ -40.29702, -20.379451 ] ] ], [ [ [ -40.277509, -20.363591 ], [ -40.277441, -20.36468 ], [ -40.27903, -20.364843 ], [ -40.279265, -20.363679 ], [ -40.277509, -20.363591 ] ] ], [ [ [ -40.280829, -20.362111 ], [ -40.279274, -20.362112 ], [ -40.279139, -20.362941 ], [ -40.280425, -20.363071 ], [ -40.280829, -20.362111 ] ] ], [ [ [ -40.281609, -20.353384 ], [ -40.280384, -20.35332 ], [ -40.28012, -20.354273 ], [ -40.281835, -20.354433 ], [ -40.281609, -20.353384 ] ] ], [ [ [ -40.25281, -20.352173 ], [ -40.252481, -20.353146 ], [ -40.253733, -20.353512 ], [ -40.254225, -20.352405 ], [ -40.25281, -20.352173 ] ] ], [ [ [ -40.250306, -20.350825 ], [ -40.250227, -20.351707 ], [ -40.251915, -20.352008 ], [ -40.251657, -20.350939 ], [ -40.250306, -20.350825 ] ] ], [ [ [ -40.271238, -20.333368 ], [ -40.2709, -20.334213 ], [ -40.272104, -20.335221 ], [ -40.272435, -20.333727 ], [ -40.271238, -20.333368 ] ] ], [ [ [ -40.270988, -20.331743 ], [ -40.270172, -20.332536 ], [ -40.271125, -20.332913 ], [ -40.271768, -20.332112 ], [ -40.270988, -20.331743 ] ] ], [ [ [ -40.269423, -20.330771 ], [ -40.267763, -20.330479 ], [ -40.267484, -20.331925 ], [ -40.269247, -20.332215 ], [ -40.269423, -20.330771 ] ] ], [ [ [ -40.270961, -20.319908 ], [ -40.270819, -20.321784 ], [ -40.272315, -20.321918 ], [ -40.272834, -20.320298 ], [ -40.270961, -20.319908 ] ] ], [ [ [ -40.268712, -20.319378 ], [ -40.26815, -20.32025 ], [ -40.269354, -20.321257 ], [ -40.270202, -20.320056 ], [ -40.268712, -20.319378 ] ] ], [ [ [ -40.241835, -20.293899 ], [ -40.241957, -20.294573 ], [ -40.242908, -20.294522 ], [ -40.242695, -20.293913 ], [ -40.241835, -20.293899 ] ] ] ] } },
{ "type": "Feature", "properties": { "MACRO_ID": "3209", "MACRO_NAME": "Central Norte", "id": "320013", "name": "Águia Branca", "description": "Águia Branca", "MUN_ID": "320013", "UF": "ES", "HREG_ID": "32001", "HREG_NAME": "Central" }, "geometry": { "type": "Polygon", "coordinates": [ [ [ -40.535341, -19.738708 ], [ -40.544895, -19.7411 ], [ -40.551436, -19.733163 ], [ -40.555569, -19.733587 ], [ -40.560383, -19.741712 ], [ -40.572332, -19.740631 ], [ -40.583834, -19.749503 ], [ -40.610194, -19.758544 ], [ -40.63235, -19.773577 ], [ -40.633001, -19.773754 ], [ -40.658377, -19.771853 ], [ -40.676881, -19.775883 ], [ -40.681738, -19.769921 ], [ -40.689458, -19.770895 ], [ -40.693725, -19.772537 ], [ -40.69544, -19.782834 ], [ -40.709985, -19.788634 ], [ -40.707024, -19.814674 ], [ -40.727203, -19.826449 ], [ -40.730671, -19.829204 ], [ -40.740308, -19.826622 ], [ -40.747279, -19.829547 ], [ -40.757423, -19.824232 ], [ -40.763579, -19.829653 ], [ -40.77434, -19.812772 ], [ -40.771257, -19.803668 ], [ -40.776414, -19.796553 ], [ -40.773249, -19.787284 ], [ -40.777518, -19.780176 ], [ -40.776196, -19.772459 ], [ -40.780991, -19.760125 ], [ -40.772822, -19.739417 ], [ -40.775757, -19.712273 ], [ -40.771387, -19.707646 ], [ -40.772756, -19.69683 ], [ -40.765524, -19.680452 ], [ -40.759363, -19.669037 ], [ -40.756483, -19.652467 ], [ -40.770299, -19.650409 ], [ -40.768136, -19.635217 ], [ -40.77984, -19.634475 ], [ -40.773505, -19.614136 ], [ -40.78688, -19.595216 ], [ -40.784363, -19.586471 ], [ -40.777629, -19.582795 ], [ -40.783465, -19.579335 ], [ -40.789353, -19.580112 ], [ -40.806783, -19.597676 ], [ -40.816214, -19.594482 ], [ -40.825414, -19.597239 ], [ -40.824873, -19.605269 ], [ -40.834937, -19.615883 ], [ -40.850822, -19.616175 ], [ -40.854542, -19.609729 ], [ -40.860464, -19.603085 ], [ -40.851689, -19.597019 ], [ -40.855941, -19.587467 ], [ -40.852465, -19.577619 ], [ -40.833105, -19.56744 ], [ -40.844136, -19.566915 ], [ -40.845523, -19.564783 ], [ -40.840751, -19.560549 ], [ -40.849546, -19.558264 ], [ -40.865699, -19.571162 ], [ -40.875936, -19.573712 ], [ -40.882784, -19.590893 ], [ -40.89164, -19.592867 ], [ -40.89829, -19.598637 ], [ -40.911882, -19.598842 ], [ -40.921335, -19.602974 ], [ -40.921084, -19.606841 ], [ -40.929021, -19.611097 ], [ -40.930117, -19.616564 ], [ -40.938138, -19.617037 ], [ -40.931975, -19.62161 ], [ -40.933968, -19.625724 ], [ -40.927709, -19.631332 ], [ -40.936339, -19.64094 ], [ -40.934671, -19.652559 ], [ -40.928596, -19.671853 ], [ -40.924956, -19.676068 ], [ -40.926638, -19.687887 ], [ -40.920838, -19.694827 ], [ -40.929231, -19.695201 ], [ -40.936152, -19.706808 ], [ -40.943156, -19.710004 ], [ -40.94614, -19.72831 ], [ -40.959647, -19.729229 ], [ -40.968812, -19.724829 ], [ -40.974121, -19.72747 ], [ -40.980264, -19.734776 ], [ -40.980144, -19.744175 ], [ -40.98154, -19.755753 ], [ -40.990825, -19.759168 ], [ -40.992844, -19.785626 ], [ -40.996584, -19.789658 ], [ -40.992252, -19.80345 ], [ -41.010643, -19.804398 ], [ -41.017265, -19.785235 ], [ -41.022085, -19.781303 ], [ -41.036027, -19.791267 ], [ -41.045714, -19.777142 ], [ -41.054407, -19.775832 ], [ -41.052471, -19.768773 ], [ -41.047171, -19.768824 ], [ -41.042296, -19.763094 ], [ -41.053729, -19.761512 ], [ -41.053909, -19.761636 ], [ -41.06857, -19.775796 ], [ -41.074058, -19.77323 ], [ -41.096342, -19.786632 ], [ -41.101391, -19.78266 ], [ -41.110094, -19.784761 ], [ -41.111399, -19.793232 ], [ -41.115183, -19.793965 ], [ -41.124574, -19.788138 ], [ -41.122151, -19.779643 ], [ -41.126403, -19.771457 ], [ -41.134212, -19.773154 ], [ -41.148338, -19.766374 ], [ -41.154478, -19.759111 ], [ -41.158947, -19.764039 ], [ -41.166671, -19.76242 ], [ -41.173545, -19.762014 ], [ -41.174498, -19.766567 ], [ -41.187371, -19.757625 ], [ -41.19049, -19.746389 ], [ -41.17911, -19.739613 ], [ -41.181619, -19.731691 ], [ -41.178631, -19.719533 ], [ -41.17391, -19.715153 ], [ -41.17733, -19.702808 ], [ -41.171293, -19.692426 ], [ -41.173519, -19.687623 ], [ -41.168077, -19.671739 ], [ -41.158583, -19.660893 ], [ -41.148569, -19.663364 ], [ -41.138231, -19.658241 ], [ -41.1291, -19.642257 ], [ -41.123598, -19.639787 ], [ -41.119184, -19.639103 ], [ -41.114131, -19.641364 ], [ -41.108207, -19.638983 ], [ -41.098916, -19.603722 ], [ -41.092261, -19.601361 ], [ -41.090487, -19.595859 ], [ -41.078723, -19.597812 ], [ -41.072886, -19.597484 ], [ -41.071523, -19.583924 ], [ -41.055855, -19.584328 ], [ -41.057056, -19.577779 ], [ -41.03586, -19.568043 ], [ -41.036236, -19.556223 ], [ -41.044573, -19.538079 ], [ -41.040848, -19.52417 ], [ -41.040508, -19.515438 ], [ -41.049269, -19.502537 ], [ -41.045356, -19.487412 ], [ -41.02797, -19.498164 ], [ -41.019886, -19.503565 ], [ -41.008979, -19.506782 ], [ -41.004668, -19.506979 ], [ -41.004622, -19.506981 ], [ -40.987885, -19.507457 ], [ -40.970948, -19.503336 ], [ -40.9708, -19.494118 ], [ -40.962914, -19.482848 ], [ -40.953179, -19.472958 ], [ -40.948936, -19.472673 ], [ -40.950996, -19.465178 ], [ -40.944479, -19.459634 ], [ -40.957445, -19.449442 ], [ -40.958439, -19.439469 ], [ -40.967584, -19.424858 ], [ -40.960082, -19.418833 ], [ -40.961822, -19.407946 ], [ -40.956776, -19.398362 ], [ -40.928051, -19.381402 ], [ -40.931399, -19.372854 ], [ -40.927715, -19.368182 ], [ -40.939244, -19.358151 ], [ -40.938493, -19.34773 ], [ -40.928132, -19.329262 ], [ -40.921653, -19.328452 ], [ -40.919945, -19.318695 ], [ -40.914293, -19.317701 ], [ -40.907887, -19.306037 ], [ -40.914108, -19.300258 ], [ -40.924157, -19.301974 ], [ -40.930935, -19.299359 ], [ -40.932384, -19.295571 ], [ -40.927666, -19.285629 ], [ -40.937991, -19.285917 ], [ -40.944106, -19.279064 ], [ -40.934539, -19.271271 ], [ -40.919562, -19.270948 ], [ -40.916764, -19.256377 ], [ -40.919804, -19.251339 ], [ -40.930659, -19.25074 ], [ -40.938256, -19.2489 ], [ -40.932634, -19.242149 ], [ -40.941771, -19.23333 ], [ -40.941158, -19.229649 ], [ -40.934998, -19.222212 ], [ -40.93063, -19.22194 ], [ -40.92719, -19.208394 ], [ -40.922276, -19.203608 ], [ -40.929155, -19.197378 ], [ -40.926107, -19.188066 ], [ -40.932191, -19.185805 ], [ -40.93327, -19.179969 ], [ -40.937962, -19.18289 ], [ -40.940694, -19.180092 ], [ -40.940716, -19.167849 ], [ -40.942519, -19.15818 ], [ -40.948469, -19.152801 ], [ -40.943608, -19.143523 ], [ -40.947687, -19.141125 ], [ -40.957796, -19.145441 ], [ -40.961556, -19.14358 ], [ -40.955723, -19.128632 ], [ -40.962499, -19.121077 ], [ -40.969176, -19.12241 ], [ -40.973136, -19.115016 ], [ -40.984251, -19.107373 ], [ -40.984368, -19.100237 ], [ -40.998558, -19.10051 ], [ -41.009315, -19.097437 ], [ -41.004074, -19.083183 ], [ -41.014602, -19.091266 ], [ -41.012212, -19.075321 ], [ -41.018883, -19.074903 ], [ -41.025017, -19.079496 ], [ -41.035096, -19.071078 ], [ -41.053459, -19.068383 ], [ -41.052844, -19.058695 ], [ -41.060529, -19.055631 ], [ -41.065164, -19.050851 ], [ -41.062747, -19.038823 ], [ -41.071398, -19.023367 ], [ -41.065536, -19.015901 ], [ -41.066281, -19.00601 ], [ -41.052519, -19.000127 ], [ -41.031828, -18.990367 ], [ -41.021784, -18.981853 ], [ -41.016936, -18.978783 ], [ -41.017636, -18.973034 ], [ -41.030662, -18.974317 ], [ -41.033606, -18.979271 ], [ -41.040248, -18.98019 ], [ -41.051356, -18.973571 ], [ -41.050965, -18.965737 ], [ -41.061103, -18.96721 ], [ -41.064457, -18.950604 ], [ -41.064469, -18.94456 ], [ -41.069667, -18.941246 ], [ -41.078227, -18.94721 ], [ -41.078849, -18.938058 ], [ -41.091789, -18.933984 ], [ -41.103281, -18.933581 ], [ -41.103224, -18.929943 ], [ -41.109473, -18.927668 ], [ -41.112366, -18.922062 ], [ -41.117779, -18.921291 ], [ -41.113975, -18.912185 ], [ -41.120102, -18.907541 ], [ -41.119192, -18.90297 ], [ -41.126454, -18.894027 ], [ -41.130882, -18.89393 ], [ -41.143404, -18.884432 ], [ -41.14868, -18.885324 ], [ -41.152565, -18.88613 ], [ -41.155253, -18.875541 ], [ -41.158817, -18.863881 ], [ -41.165673, -18.857883 ], [ -41.189021, -18.863738 ], [ -41.198614, -18.862855 ], [ -41.208031, -18.854568 ], [ -41.211933, -18.868407 ], [ -41.209377, -18.873956 ], [ -41.21439, -18.87716 ], [ -41.22971, -18.857891 ], [ -41.238962, -18.858167 ], [ -41.242574, -18.854057 ], [ -41.239329, -18.846391 ], [ -41.243484, -18.843087 ], [ -41.237428, -18.834286 ], [ -41.245083, -18.82148 ], [ -41.232151, -18.7968 ], [ -41.167238, -18.796984 ], [ -41.156788, -18.797011 ], [ -41.148606, -18.797032 ], [ -41.133737, -18.795562 ], [ -41.129633, -18.80696 ], [ -41.118811, -18.809649 ], [ -41.119599, -18.817181 ], [ -41.110114, -18.838458 ], [ -41.097081, -18.841832 ], [ -41.083315, -18.836104 ], [ -41.069863, -18.835864 ], [ -41.048771, -18.836261 ], [ -41.047408, -18.836287 ], [ -41.025039, -18.836705 ], [ -41.018739, -18.836822 ], [ -40.963522, -18.84069 ], [ -40.962688, -18.835666 ], [ -40.950686, -18.834231 ], [ -40.946558, -18.825523 ], [ -40.941469, -18.825577 ], [ -40.937636, -18.831219 ], [ -40.929911, -18.824032 ], [ -40.927521, -18.819227 ], [ -40.916382, -18.815064 ], [ -40.916294, -18.809485 ], [ -40.921555, -18.796776 ], [ -40.928242, -18.792458 ], [ -40.92622, -18.787701 ], [ -40.938208, -18.77197 ], [ -40.939613, -18.769807 ], [ -40.939868, -18.735082 ], [ -40.941107, -18.688816 ], [ -40.95167, -18.680351 ], [ -40.98743, -18.677657 ], [ -40.988474, -18.672738 ], [ -40.993858, -18.670715 ], [ -41.004835, -18.666798 ], [ -41.019821, -18.654475 ], [ -41.031832, -18.65216 ], [ -41.028356, -18.646251 ], [ -41.03199, -18.644105 ], [ -41.044027, -18.647801 ], [ -41.041167, -18.639275 ], [ -41.0505, -18.633676 ], [ -41.052715, -18.628245 ], [ -41.043585, -18.626203 ], [ -41.039004, -18.619446 ], [ -41.032573, -18.618284 ], [ -41.032623, -18.61512 ], [ -41.033325, -18.606135 ], [ -41.041597, -18.604925 ], [ -41.030086, -18.549479 ], [ -41.029638, -18.547325 ], [ -41.02556, -18.527692 ], [ -41.016825, -18.483598 ], [ -41.015488, -18.476277 ], [ -41.015342, -18.473506 ], [ -41.01526, -18.471946 ], [ -41.019867, -18.458926 ], [ -41.020019, -18.458614 ], [ -41.023547, -18.456697 ], [ -41.063432, -18.452865 ], [ -41.088609, -18.450441 ], [ -41.173855, -18.444221 ], [ -41.1817, -18.438778 ], [ -41.180409, -18.43533 ], [ -41.166277, -18.414741 ], [ -41.154354, -18.413948 ], [ -41.146834, -18.410971 ], [ -41.143862, -18.404765 ], [ -41.160056, -18.402322 ], [ -41.162148, -18.390287 ], [ -41.159207, -18.380982 ], [ -41.14771, -18.378674 ], [ -41.145493, -18.373386 ], [ -41.148969, -18.360257 ], [ -41.149768, -18.335877 ], [ -41.154269, -18.334228 ], [ -41.158408, -18.308277 ], [ -41.146035, -18.298981 ], [ -41.142532, -18.297707 ], [ -41.140837, -18.293341 ], [ -41.140872, -18.292833 ], [ -41.127107, -18.276443 ], [ -41.096082, -18.255102 ], [ -41.10041, -18.243267 ], [ -41.098664, -18.23863 ], [ -41.102353, -18.23649 ], [ -41.098848, -18.231895 ], [ -41.091605, -18.230828 ], [ -41.091333, -18.227569 ], [ -41.101805, -18.218729 ], [ -41.104056, -18.212801 ], [ -41.093722, -18.208209 ], [ -41.092362, -18.195085 ], [ -41.092343, -18.194926 ], [ -41.066507, -18.180599 ], [ -41.056063, -18.178365 ], [ -41.05305, -18.172197 ], [ -41.055694, -18.166146 ], [ -41.051796, -18.164811 ], [ -41.034944, -18.16232 ], [ -41.037748, -18.170613 ], [ -41.033423, -18.171636 ], [ -41.027714, -18.157197 ], [ -41.014199, -18.157104 ], [ -41.010204, -18.166924 ], [ -41.005168, -18.167121 ], [ -40.992827, -18.165759 ], [ -40.988003, -18.169319 ], [ -40.988417, -18.152468 ], [ -40.986644, -18.146298 ], [ -40.980522, -18.144191 ], [ -40.979934, -18.140889 ], [ -40.976436, -18.140886 ], [ -40.967127, -18.144739 ], [ -40.961782, -18.153695 ], [ -40.954147, -18.154019 ], [ -40.948469, -18.145224 ], [ -40.951161, -18.141979 ], [ -40.949614, -18.128811 ], [ -40.943664, -18.129888 ], [ -40.940123, -18.135978 ], [ -40.93182, -18.136008 ], [ -40.91691, -18.120268 ], [ -40.908894, -18.114355 ], [ -40.904158, -18.115454 ], [ -40.903842, -18.109707 ], [ -40.898609, -18.112036 ], [ -40.89272, -18.107403 ], [ -40.893521, -18.118412 ], [ -40.888622, -18.12354 ], [ -40.880301, -18.123664 ], [ -40.877166, -18.118954 ], [ -40.866039, -18.129441 ], [ -40.862916, -18.138656 ], [ -40.855638, -18.139343 ], [ -40.85188, -18.145767 ], [ -40.849151, -18.14627 ], [ -40.844687, -18.149337 ], [ -40.84351, -18.146097 ], [ -40.832116, -18.150677 ], [ -40.823799, -18.148813 ], [ -40.804828, -18.152494 ], [ -40.793324, -18.159678 ], [ -40.786362, -18.158156 ], [ -40.771103, -18.155447 ], [ -40.772915, -18.107087 ], [ -40.902416, -17.986803 ], [ -40.896717, -17.981253 ], [ -40.890779, -17.982558 ], [ -40.882328, -17.970076 ], [ -40.877475, -17.981251 ], [ -40.87253, -17.980326 ], [ -40.869914, -17.985619 ], [ -40.862743, -17.987842 ], [ -40.858551, -17.978917 ], [ -40.852554, -17.976856 ], [ -40.836651, -17.956713 ], [ -40.830164, -17.953705 ], [ -40.829224, -17.957149 ], [ -40.824583, -17.963223 ], [ -40.813773, -17.958434 ], [ -40.808858, -17.951847 ], [ -40.802236, -17.95802 ], [ -40.798081, -17.956472 ], [ -40.791489, -17.971008 ], [ -40.794615, -17.981265 ], [ -40.781732, -17.974772 ], [ -40.777798, -17.975699 ], [ -40.777338, -17.981832 ], [ -40.770812, -17.980587 ], [ -40.77446, -17.99614 ], [ -40.77138, -18.002913 ], [ -40.759923, -18.003486 ], [ -40.75038, -18.009434 ], [ -40.735339, -18.003726 ], [ -40.725381, -18.000742 ], [ -40.72054, -18.002456 ], [ -40.715779, -18.004142 ], [ -40.709222, -18.020514 ], [ -40.703296, -18.023252 ], [ -40.683836, -18.009701 ], [ -40.677441, -18.012764 ], [ -40.672799, -18.010566 ], [ -40.661388, -18.012436 ], [ -40.651107, -18.00639 ], [ -40.645644, -17.993086 ], [ -40.624388, -17.988613 ], [ -40.623904, -17.975444 ], [ -40.613886, -17.967021 ], [ -40.621497, -17.960091 ], [ -40.616763, -17.954893 ], [ -40.612226, -17.949032 ], [ -40.613062, -17.939256 ], [ -40.596806, -17.93556 ], [ -40.586775, -17.938546 ], [ -40.584026, -17.935287 ], [ -40.584326, -17.917692 ], [ -40.567544, -17.915554 ], [ -40.547354, -17.907047 ], [ -40.538577, -17.900316 ], [ -40.526652, -17.89147 ], [ -40.517664, -17.893479 ], [ -40.502947, -17.910204 ], [ -40.483744, -17.90817 ], [ -40.463802, -17.927728 ], [ -40.458936, -17.919976 ], [ -40.453487, -17.918335 ], [ -40.432192, -17.920858 ], [ -40.417034, -17.926559 ], [ -40.402855, -17.923053 ], [ -40.391563, -17.923627 ], [ -40.386067, -17.927963 ], [ -40.372761, -17.927167 ], [ -40.367444, -17.922157 ], [ -40.355228, -17.929979 ], [ -40.347345, -17.923107 ], [ -40.333572, -17.926884 ], [ -40.323052, -17.938469 ], [ -40.311883, -17.939166 ], [ -40.305808, -17.946884 ], [ -40.290725, -17.946412 ], [ -40.290611, -17.951374 ], [ -40.27529, -17.962086 ], [ -40.265917, -17.961546 ], [ -40.254971, -17.971323 ], [ -40.22158, -17.980181 ], [ -40.068786, -18.078289 ], [ -40.061101, -18.083129 ], [ -40.019685, -18.109205 ], [ -39.946737, -18.155951 ], [ -39.918528, -18.173964 ], [ -39.911705, -18.178358 ], [ -39.865291, -18.207945 ], [ -39.83343, -18.228257 ], [ -39.782651, -18.260577 ], [ -39.688568, -18.320352 ], [ -39.673848, -18.324263 ], [ -39.669285, -18.330787 ], [ -39.665636, -18.332739 ], [ -39.671131, -18.347885 ], [ -39.668889, -18.350152 ], [ -39.699554, -18.414726 ], [ -39.701958, -18.42655 ], [ -39.728181, -18.499905 ], [ -39.728024, -18.551478 ], [ -39.731614, -18.555133 ], [ -39.728149, -18.558916 ], [ -39.728295, -18.585568 ], [ -39.723901, -18.599473 ], [ -39.736361, -18.643841 ], [ -39.746586, -18.705683 ], [ -39.748052, -18.785931 ], [ -39.74994, -18.841242 ], [ -39.738638, -18.951504 ], [ -39.736683, -18.968129 ], [ -39.718584, -19.09654 ], [ -39.707944, -19.179742 ], [ -39.702905, -19.210976 ], [ -39.697099, -19.242918 ], [ -39.688655, -19.295836 ], [ -39.696141, -19.367184 ], [ -39.729068, -19.465415 ], [ -39.770843, -19.559787 ], [ -39.806293, -19.631005 ], [ -39.807031, -19.64775 ], [ -39.812256, -19.651669 ], [ -39.816439, -19.65464 ], [ -39.82507, -19.653053 ], [ -39.836387, -19.656009 ], [ -39.841434, -19.657636 ], [ -39.873397, -19.668146 ], [ -39.911261, -19.68655 ], [ -39.915606, -19.683626 ], [ -39.935086, -19.67052 ], [ -40.031181, -19.60577 ], [ -40.049165, -19.584061 ], [ -40.064828, -19.584826 ], [ -40.075228, -19.578261 ], [ -40.08614, -19.564462 ], [ -40.111353, -19.552807 ], [ -40.123571, -19.550553 ], [ -40.138407, -19.550874 ], [ -40.140589, -19.555493 ], [ -40.145029, -19.556428 ], [ -40.16638, -19.55289 ], [ -40.16925, -19.558076 ], [ -40.175576, -19.560021 ], [ -40.184071, -19.561524 ], [ -40.191094, -19.56598 ], [ -40.192002, -19.570362 ], [ -40.198838, -19.571109 ], [ -40.200401, -19.577159 ], [ -40.208893, -19.585099 ], [ -40.214916, -19.583616 ], [ -40.227129, -19.583925 ], [ -40.239068, -19.593538 ], [ -40.255239, -19.597724 ], [ -40.257821, -19.605806 ], [ -40.266681, -19.609753 ], [ -40.272439, -19.622659 ], [ -40.289434, -19.624216 ], [ -40.288149, -19.63479 ], [ -40.308625, -19.647862 ], [ -40.304299, -19.661339 ], [ -40.332879, -19.641674 ], [ -40.344246, -19.652129 ], [ -40.348651, -19.666434 ], [ -40.357149, -19.670554 ], [ -40.363872, -19.656427 ], [ -40.369901, -19.653013 ], [ -40.373494, -19.641882 ], [ -40.370205, -19.623745 ], [ -40.375673, -19.622269 ], [ -40.421058, -19.640534 ], [ -40.463248, -19.630761 ], [ -40.469513, -19.632191 ], [ -40.475263, -19.641257 ], [ -40.485503, -19.639959 ], [ -40.489488, -19.644748 ], [ -40.48861, -19.64981 ], [ -40.497142, -19.652952 ], [ -40.497693, -19.65887 ], [ -40.502388, -19.658398 ], [ -40.510948, -19.669166 ], [ -40.526972, -19.715096 ], [ -40.519509, -19.727149 ], [ -40.51833, -19.745175 ], [ -40.526834, -19.744592 ], [ -40.535341, -19.738708 ] ] ] } }
]
}
