{
"type": "FeatureCollection",
"name": "geojs-28-macro_regions",
"crs": { "type": "name", "properties": { "name": "urn:ogc:def:crs:OGC:1.3:CRS84" } },
"features": [
{ "type": "Feature", "properties": { "MACRO_ID": "2801", "MACRO_NAME": "Macro Única", "id": "280010", "name": "Amparo de São Francisco", "description": "Amparo de São Francisco", "MUN_ID": "280010", "UF": "SE", "HREG_ID": "28007", "HREG_NAME": "Propria" }, "geometry": { "type": "Polygon", "coordinates": [ [ [ -37.402729, -11.487986 ], [ -37.411556, -11.494668 ], [ -37.449825, -11.519947 ], [ -37.463337, -11.523052 ], [ -37.503239, -11.524013 ], [ -37.509349, -11.529968 ], [ -37.515739, -11.535412 ], [ -37.519548, -11.548407 ], [ -37.552527, -11.547086 ], [ -37.558174, -11.550396 ], [ -37.561931, -11.542784 ], [ -37.5685, -11.539421 ], [ -37.573401, -11.542156 ], [ -37.572198, -11.548312 ], [ -37.578506, -11.551552 ], [ -37.585312, -11.541895 ], [ -37.57878, -11.533936 ], [ -37.581099, -11.53069 ], [ -37.589026, -11.527706 ], [ -37.602975, -11.539863 ], [ -37.608235, -11.535906 ], [ -37.616283, -11.537626 ], [ -37.627817, -11.529255 ], [ -37.631578, -11.518347 ], [ -37.636734, -11.51752 ], [ -37.643532, -11.523786 ], [ -37.65135, -11.517848 ], [ -37.653465, -11.528798 ], [ -37.657117, -11.53279 ], [ -37.664556, -11.532786 ], [ -37.661505, -11.543006 ], [ -37.672222, -11.559001 ], [ -37.669812, -11.56358 ], [ -37.67317, -11.568202 ], [ -37.684344, -11.561566 ], [ -37.687822, -11.565764 ], [ -37.700053, -11.561898 ], [ -37.69545, -11.54898 ], [ -37.696159, -11.544591 ], [ -37.702486, -11.539914 ], [ -37.711913, -11.552243 ], [ -37.71904, -11.549621 ], [ -37.727629, -11.552311 ], [ -37.730702, -11.537079 ], [ -37.748182, -11.537991 ], [ -37.759246, -11.524529 ], [ -37.762988, -11.524231 ], [ -37.762865, -11.528047 ], [ -37.770323, -11.531006 ], [ -37.774644, -11.524019 ], [ -37.790786, -11.523302 ], [ -37.794729, -11.518142 ], [ -37.800434, -11.520026 ], [ -37.811958, -11.515598 ], [ -37.819202, -11.501229 ], [ -37.818152, -11.498872 ], [ -37.812846, -11.500889 ], [ -37.808626, -11.496496 ], [ -37.815905, -11.491558 ], [ -37.82452, -11.491248 ], [ -37.832714, -11.482604 ], [ -37.839766, -11.481218 ], [ -37.848067, -11.469471 ], [ -37.86275, -11.466969 ], [ -37.863331, -11.455004 ], [ -37.862772, -11.452226 ], [ -37.853097, -11.4515 ], [ -37.852199, -11.445894 ], [ -37.84808, -11.443565 ], [ -37.850478, -11.439788 ], [ -37.867423, -11.442044 ], [ -37.86976, -11.435352 ], [ -37.880702, -11.432971 ], [ -37.873861, -11.427851 ], [ -37.865744, -11.428233 ], [ -37.867567, -11.425817 ], [ -37.882782, -11.424444 ], [ -37.891637, -11.435968 ], [ -37.893373, -11.433295 ], [ -37.89996, -11.436615 ], [ -37.901941, -11.427639 ], [ -37.90705, -11.426281 ], [ -37.903579, -11.422565 ], [ -37.906127, -11.419739 ], [ -37.904799, -11.409897 ], [ -37.906982, -11.40773 ], [ -37.914004, -11.407696 ], [ -37.916667, -11.402562 ], [ -37.928669, -11.401492 ], [ -37.928003, -11.40946 ], [ -37.934919, -11.413154 ], [ -37.936336, -11.422135 ], [ -37.941675, -11.422793 ], [ -37.944757, -11.422551 ], [ -37.942487, -11.418165 ], [ -37.945566, -11.412849 ], [ -37.955571, -11.407084 ], [ -37.950814, -11.403996 ], [ -37.952211, -11.395439 ], [ -37.957647, -11.396045 ], [ -37.960657, -11.401306 ], [ -37.965243, -11.402313 ], [ -37.964776, -11.392689 ], [ -37.967546, -11.390083 ], [ -37.977575, -11.393119 ], [ -37.980727, -11.384884 ], [ -37.968386, -11.381399 ], [ -37.969394, -11.372504 ], [ -37.97257, -11.37334 ], [ -37.978412, -11.365328 ], [ -37.982133, -11.347742 ], [ -37.989655, -11.341319 ], [ -37.993247, -11.342954 ], [ -37.999759, -11.33888 ], [ -37.997934, -11.335379 ], [ -37.987516, -11.331137 ], [ -37.998312, -11.321899 ], [ -37.99055, -11.320445 ], [ -37.991961, -11.312325 ], [ -37.995415, -11.311911 ], [ -38.00103, -11.302629 ], [ -38.00311, -11.292308 ], [ -38.010405, -11.293611 ], [ -38.014542, -11.285221 ], [ -38.003987, -11.285723 ], [ -37.992537, -11.279013 ], [ -37.992972, -11.272501 ], [ -37.986972, -11.271499 ], [ -37.985939, -11.266708 ], [ -37.990556, -11.26578 ], [ -37.995615, -11.259054 ], [ -37.986703, -11.25327 ], [ -37.983884, -11.247352 ], [ -37.987092, -11.245484 ], [ -37.989738, -11.248228 ], [ -37.993307, -11.24003 ], [ -37.986274, -11.237067 ], [ -37.990561, -11.228154 ], [ -37.977468, -11.221479 ], [ -37.977099, -11.214256 ], [ -37.981558, -11.209888 ], [ -37.97894, -11.204756 ], [ -37.980882, -11.198431 ], [ -37.97375, -11.194887 ], [ -37.979739, -11.191437 ], [ -37.984549, -11.195445 ], [ -37.986969, -11.19557 ], [ -37.996037, -11.190644 ], [ -38.000474, -11.194647 ], [ -38.013573, -11.184324 ], [ -38.022845, -11.177504 ], [ -38.046435, -11.178237 ], [ -38.061384, -11.171655 ], [ -38.062054, -11.163626 ], [ -38.066399, -11.160447 ], [ -38.065975, -11.148654 ], [ -38.070397, -11.141869 ], [ -38.064772, -11.131 ], [ -38.065101, -11.122609 ], [ -38.068781, -11.118614 ], [ -38.083461, -11.119275 ], [ -38.088766, -11.114795 ], [ -38.088572, -11.105867 ], [ -38.093623, -11.101364 ], [ -38.091849, -11.097923 ], [ -38.086038, -11.097292 ], [ -38.074534, -11.0761 ], [ -38.08099, -11.063948 ], [ -38.08413, -11.064772 ], [ -38.084915, -11.059794 ], [ -38.090542, -11.057613 ], [ -38.090723, -11.051154 ], [ -38.095959, -11.049084 ], [ -38.099935, -11.041032 ], [ -38.097674, -11.038317 ], [ -38.105516, -11.025401 ], [ -38.100607, -11.020211 ], [ -38.101374, -11.014621 ], [ -38.120725, -11.006924 ], [ -38.124592, -11.009734 ], [ -38.12348, -11.01789 ], [ -38.128994, -11.018433 ], [ -38.139548, -11.008563 ], [ -38.143737, -11.001845 ], [ -38.149068, -11.001064 ], [ -38.180177, -10.974297 ], [ -38.179531, -10.969281 ], [ -38.187018, -10.962188 ], [ -38.179959, -10.949831 ], [ -38.180562, -10.943759 ], [ -38.200665, -10.93795 ], [ -38.202447, -10.934889 ], [ -38.198798, -10.926944 ], [ -38.205192, -10.921553 ], [ -38.210777, -10.930796 ], [ -38.214788, -10.92309 ], [ -38.22599, -10.916142 ], [ -38.229764, -10.89381 ], [ -38.236105, -10.881203 ], [ -38.237424, -10.859069 ], [ -38.231841, -10.839472 ], [ -38.239217, -10.82594 ], [ -38.242563, -10.827526 ], [ -38.244693, -10.822537 ], [ -38.234605, -10.811664 ], [ -38.236296, -10.807558 ], [ -38.235996, -10.795798 ], [ -38.232723, -10.792694 ], [ -38.218091, -10.782098 ], [ -38.209992, -10.756184 ], [ -38.210008, -10.756144 ], [ -38.217075, -10.737774 ], [ -38.217771, -10.735797 ], [ -38.215072, -10.724614 ], [ -38.210449, -10.716798 ], [ -38.198635, -10.710553 ], [ -38.185948, -10.707049 ], [ -38.175003, -10.705825 ], [ -38.170011, -10.711893 ], [ -38.15638, -10.712085 ], [ -38.144754, -10.717465 ], [ -38.122551, -10.717915 ], [ -38.112078, -10.712814 ], [ -38.10038, -10.712418 ], [ -38.067274, -10.715228 ], [ -38.048908, -10.705505 ], [ -38.046736, -10.693068 ], [ -38.041742, -10.700355 ], [ -38.040319, -10.702432 ], [ -38.033706, -10.71208 ], [ -38.021078, -10.730497 ], [ -38.012255, -10.734802 ], [ -37.990478, -10.756502 ], [ -37.984839, -10.758645 ], [ -37.974135, -10.754777 ], [ -37.97226, -10.754099 ], [ -37.939187, -10.740868 ], [ -37.91989, -10.733148 ], [ -37.908917, -10.728759 ], [ -37.900657, -10.725454 ], [ -37.897844, -10.724328 ], [ -37.881824, -10.717919 ], [ -37.866646, -10.711846 ], [ -37.844561, -10.703011 ], [ -37.84415, -10.702847 ], [ -37.828481, -10.696578 ], [ -37.813583, -10.690617 ], [ -37.814515, -10.684639 ], [ -37.820832, -10.644081 ], [ -37.830121, -10.58432 ], [ -37.83013, -10.584265 ], [ -37.825534, -10.579921 ], [ -37.831179, -10.578539 ], [ -37.830294, -10.572591 ], [ -37.834984, -10.570697 ], [ -37.832767, -10.560166 ], [ -37.839316, -10.555643 ], [ -37.840226, -10.549133 ], [ -37.831441, -10.550893 ], [ -37.827597, -10.547198 ], [ -37.82906, -10.54082 ], [ -37.823441, -10.538095 ], [ -37.819176, -10.539008 ], [ -37.82196, -10.530538 ], [ -37.815294, -10.516964 ], [ -37.816681, -10.51266 ], [ -37.812703, -10.508054 ], [ -37.816965, -10.503514 ], [ -37.820713, -10.484224 ], [ -37.849006, -10.442656 ], [ -37.858547, -10.429775 ], [ -37.850825, -10.415663 ], [ -37.852862, -10.406061 ], [ -37.836939, -10.4006 ], [ -37.842183, -10.398073 ], [ -37.840281, -10.389471 ], [ -37.833247, -10.384916 ], [ -37.838642, -10.378782 ], [ -37.833729, -10.379689 ], [ -37.83035, -10.374542 ], [ -37.823738, -10.37757 ], [ -37.821711, -10.371889 ], [ -37.81268, -10.365779 ], [ -37.807355, -10.366225 ], [ -37.787268, -10.354055 ], [ -37.785326, -10.348304 ], [ -37.776238, -10.343812 ], [ -37.762184, -10.344 ], [ -37.743231, -10.337322 ], [ -37.734527, -10.332379 ], [ -37.740997, -10.317503 ], [ -37.741177, -10.316917 ], [ -37.765354, -10.19579 ], [ -37.779816, -10.187446 ], [ -37.782585, -10.180213 ], [ -37.774031, -10.144369 ], [ -37.776803, -10.133371 ], [ -37.780848, -10.127744 ], [ -37.797934, -10.108606 ], [ -37.809391, -10.082484 ], [ -37.820624, -10.056865 ], [ -37.823549, -10.03538 ], [ -37.823581, -10.034108 ], [ -37.82295, -10.015235 ], [ -37.832873, -9.997922 ], [ -37.849251, -9.992686 ], [ -37.875102, -9.978347 ], [ -37.881059, -9.980304 ], [ -37.915172, -9.975433 ], [ -37.921808, -9.972793 ], [ -37.926988, -9.965159 ], [ -37.936329, -9.965594 ], [ -37.949196, -9.971032 ], [ -37.957115, -9.970858 ], [ -37.967985, -9.96236 ], [ -37.987572, -9.921412 ], [ -37.997305, -9.916288 ], [ -37.997418, -9.91038 ], [ -37.991469, -9.902202 ], [ -37.985356, -9.889437 ], [ -37.982193, -9.868372 ], [ -37.976364, -9.860092 ], [ -37.972584, -9.847704 ], [ -37.976237, -9.841673 ], [ -37.974252, -9.829616 ], [ -37.966078, -9.819467 ], [ -37.966322, -9.815628 ], [ -37.973038, -9.814042 ], [ -37.997384, -9.802925 ], [ -38.016798, -9.786995 ], [ -38.019767, -9.777545 ], [ -38.027852, -9.775654 ], [ -38.031214, -9.770612 ], [ -38.029497, -9.765078 ], [ -38.03326, -9.759702 ], [ -38.03874, -9.734075 ], [ -38.039404, -9.732946 ], [ -38.043005, -9.71181 ], [ -38.041471, -9.690962 ], [ -38.03955, -9.686169 ], [ -38.024636, -9.682456 ], [ -38.021822, -9.666372 ], [ -38.006659, -9.651306 ], [ -37.996725, -9.649971 ], [ -37.992671, -9.656396 ], [ -37.990016, -9.655539 ], [ -37.99017, -9.649965 ], [ -37.987527, -9.646969 ], [ -37.989762, -9.641241 ], [ -38.00774, -9.635996 ], [ -38.008395, -9.631357 ], [ -38.015564, -9.628963 ], [ -38.018354, -9.623132 ], [ -38.034939, -9.612222 ], [ -38.040156, -9.602161 ], [ -38.038729, -9.583055 ], [ -38.036489, -9.580697 ], [ -38.040751, -9.575764 ], [ -38.039924, -9.572026 ], [ -38.031374, -9.567638 ], [ -38.029649, -9.574049 ], [ -38.026437, -9.574455 ], [ -38.019794, -9.56143 ], [ -38.017696, -9.551957 ], [ -38.022694, -9.548646 ], [ -38.021506, -9.540582 ], [ -38.013538, -9.534544 ], [ -38.012797, -9.527927 ], [ -38.00294, -9.514608 ], [ -37.98898, -9.526936 ], [ -37.955945, -9.53366 ], [ -37.916794, -9.548532 ], [ -37.893792, -9.539105 ], [ -37.885821, -9.549744 ], [ -37.841877, -9.578994 ], [ -37.837188, -9.58286 ], [ -37.832762, -9.594464 ], [ -37.823426, -9.590874 ], [ -37.8179, -9.592471 ], [ -37.806719, -9.609682 ], [ -37.792752, -9.620185 ], [ -37.787337, -9.632619 ], [ -37.78474, -9.638197 ], [ -37.778328, -9.638296 ], [ -37.746527, -9.625324 ], [ -37.736702, -9.626567 ], [ -37.71142, -9.630876 ], [ -37.686531, -9.644159 ], [ -37.680466, -9.647614 ], [ -37.670504, -9.656219 ], [ -37.666131, -9.66562 ], [ -37.659981, -9.676842 ], [ -37.656489, -9.683214 ], [ -37.64474, -9.691266 ], [ -37.603437, -9.717806 ], [ -37.601578, -9.718791 ], [ -37.581345, -9.733658 ], [ -37.571554, -9.7383 ], [ -37.553189, -9.740229 ], [ -37.527267, -9.743695 ], [ -37.523871, -9.744473 ], [ -37.473358, -9.746413 ], [ -37.466512, -9.7491 ], [ -37.449946, -9.75292 ], [ -37.417413, -9.762532 ], [ -37.408546, -9.768105 ], [ -37.397258, -9.777117 ], [ -37.372645, -9.783733 ], [ -37.362471, -9.78646 ], [ -37.347968, -9.792696 ], [ -37.339724, -9.800108 ], [ -37.320778, -9.820037 ], [ -37.311339, -9.824069 ], [ -37.296855, -9.827174 ], [ -37.285077, -9.830538 ], [ -37.263857, -9.850009 ], [ -37.256594, -9.859843 ], [ -37.24685, -9.884219 ], [ -37.235199, -9.895612 ], [ -37.226249, -9.89905 ], [ -37.194953, -9.897629 ], [ -37.152623, -9.900427 ], [ -37.132302, -9.913374 ], [ -37.080333, -9.960858 ], [ -37.074736, -9.966262 ], [ -37.064904, -9.975297 ], [ -37.062203, -9.977445 ], [ -37.061463, -9.978033 ], [ -37.043869, -9.988266 ], [ -37.029576, -9.985865 ], [ -37.005177, -9.975801 ], [ -36.99454, -9.974946 ], [ -36.967263, -9.992456 ], [ -36.958744, -10.010698 ], [ -36.958099, -10.012504 ], [ -36.957533, -10.014088 ], [ -36.957502, -10.014174 ], [ -36.957172, -10.015099 ], [ -36.956071, -10.023191 ], [ -36.956071, -10.023271 ], [ -36.958759, -10.050103 ], [ -36.953563, -10.071222 ], [ -36.951919, -10.074362 ], [ -36.950476, -10.077114 ], [ -36.946758, -10.086122 ], [ -36.930233, -10.105343 ], [ -36.921221, -10.127886 ], [ -36.918185, -10.131725 ], [ -36.918081, -10.131823 ], [ -36.910553, -10.137515 ], [ -36.887264, -10.142594 ], [ -36.880256, -10.144641 ], [ -36.867033, -10.157124 ], [ -36.848266, -10.162359 ], [ -36.846924, -10.175844 ], [ -36.846778, -10.179712 ], [ -36.846244, -10.186089 ], [ -36.845311, -10.188972 ], [ -36.835316, -10.203648 ], [ -36.819312, -10.21492 ], [ -36.818559, -10.215413 ], [ -36.808073, -10.220448 ], [ -36.776528, -10.225503 ], [ -36.755837, -10.231308 ], [ -36.750404, -10.237039 ], [ -36.755816, -10.245917 ], [ -36.744219, -10.251734 ], [ -36.736235, -10.251638 ], [ -36.720055, -10.264515 ], [ -36.701651, -10.270546 ], [ -36.684766, -10.27483 ], [ -36.681324, -10.273034 ], [ -36.679033, -10.269383 ], [ -36.657601, -10.264905 ], [ -36.64413, -10.252113 ], [ -36.632245, -10.253139 ], [ -36.630634, -10.253579 ], [ -36.625069, -10.255949 ], [ -36.621601, -10.258781 ], [ -36.611895, -10.27058 ], [ -36.599218, -10.281447 ], [ -36.595166, -10.283693 ], [ -36.590843, -10.286956 ], [ -36.58861, -10.3014 ], [ -36.573791, -10.314803 ], [ -36.565586, -10.329051 ], [ -36.565563, -10.329091 ], [ -36.568154, -10.362149 ], [ -36.564037, -10.3797 ], [ -36.561261, -10.385267 ], [ -36.56163, -10.403986 ], [ -36.565243, -10.411442 ], [ -36.562688, -10.419269 ], [ -36.544306, -10.429602 ], [ -36.538237, -10.421933 ], [ -36.510202, -10.420976 ], [ -36.51897, -10.424273 ], [ -36.521891, -10.432667 ], [ -36.509691, -10.432385 ], [ -36.489275, -10.423569 ], [ -36.487076, -10.42249 ], [ -36.487055, -10.422477 ], [ -36.463192, -10.406307 ], [ -36.456518, -10.406922 ], [ -36.443268, -10.417591 ], [ -36.437591, -10.417999 ], [ -36.430121, -10.424881 ], [ -36.417044, -10.453611 ], [ -36.40491, -10.481267 ], [ -36.404761, -10.481825 ], [ -36.39354, -10.499912 ], [ -36.393531, -10.503625 ], [ -36.399545, -10.511353 ], [ -36.399614, -10.519497 ], [ -36.405905, -10.517268 ], [ -36.43528, -10.520751 ], [ -36.497339, -10.538034 ], [ -36.599944, -10.57959 ], [ -36.620096, -10.589013 ], [ -36.673312, -10.628341 ], [ -36.703499, -10.641688 ], [ -36.733579, -10.65521 ], [ -36.80795, -10.704172 ], [ -36.843821, -10.734852 ], [ -36.853723, -10.743161 ], [ -36.912705, -10.805355 ], [ -36.932655, -10.826396 ], [ -36.935941, -10.829963 ], [ -36.956523, -10.855122 ], [ -36.991277, -10.899709 ], [ -37.011976, -10.927152 ], [ -37.019711, -10.939586 ], [ -37.021584, -10.942602 ], [ -37.026292, -10.951061 ], [ -37.025853, -10.963676 ], [ -37.055725, -10.997688 ], [ -37.130552, -11.104867 ], [ -37.154073, -11.151579 ], [ -37.157096, -11.157403 ], [ -37.15151, -11.162258 ], [ -37.197381, -11.21244 ], [ -37.204551, -11.220173 ], [ -37.260883, -11.288405 ], [ -37.280609, -11.319559 ], [ -37.292782, -11.344591 ], [ -37.318934, -11.426502 ], [ -37.32531, -11.431403 ], [ -37.32961, -11.444666 ], [ -37.3408, -11.441899 ], [ -37.352382, -11.441983 ], [ -37.372907, -11.454191 ], [ -37.392182, -11.478471 ], [ -37.402729, -11.487986 ] ], [ [ -37.663871, -10.716439 ], [ -37.653682, -10.709239 ], [ -37.663871, -10.716438 ], [ -37.663871, -10.716439 ] ] ] } }
]
}
