{
"type": "FeatureCollection",
"name": "geojs-11-macro_regions",
"crs": { "type": "name", "properties": { "name": "urn:ogc:def:crs:OGC:1.3:CRS84" } },
"features": [
{ "type": "Feature", "properties": { "MACRO_ID": "1101", "MACRO_NAME": "Macrorregião II (Cacoal)", "id": "110001", "name": "Alta Floresta D'Oeste", "description": "Alta Floresta D'Oeste", "MUN_ID": "110001", "UF": "RO", "HREG_ID": "11005", "HREG_NAME": "Zona da Mata" }, "geometry": { "type": "Polygon", "coordinates": [ [ [ -62.119176, -13.153127 ], [ -62.128178, -13.147972 ], [ -62.134292, -13.148981 ], [ -62.142372, -13.160758 ], [ -62.149482, -13.162818 ], [ -62.150539, -13.150808 ], [ -62.159562, -13.146072 ], [ -62.169038, -13.133799 ], [ -62.165536, -13.118672 ], [ -62.169952, -13.113517 ], [ -62.180929, -13.117356 ], [ -62.183204, -13.127468 ], [ -62.177233, -13.136586 ], [ -62.177674, -13.142611 ], [ -62.190401, -13.153424 ], [ -62.199678, -13.150182 ], [ -62.200505, -13.124137 ], [ -62.214256, -13.110939 ], [ -62.222592, -13.11331 ], [ -62.229037, -13.121158 ], [ -62.235234, -13.116644 ], [ -62.242866, -13.116931 ], [ -62.245397, -13.144757 ], [ -62.264013, -13.145652 ], [ -62.26534, -13.147561 ], [ -62.261124, -13.150328 ], [ -62.264124, -13.152831 ], [ -62.276123, -13.145776 ], [ -62.271651, -13.155447 ], [ -62.278006, -13.155075 ], [ -62.28687, -13.140159 ], [ -62.294511, -13.149505 ], [ -62.298816, -13.150147 ], [ -62.305317, -13.139096 ], [ -62.316237, -13.134063 ], [ -62.320896, -13.151669 ], [ -62.32587, -13.148636 ], [ -62.329982, -13.139576 ], [ -62.340478, -13.14951 ], [ -62.341899, -13.145425 ], [ -62.336873, -13.140081 ], [ -62.345008, -13.13673 ], [ -62.351428, -13.142889 ], [ -62.363006, -13.139169 ], [ -62.372039, -13.1403 ], [ -62.38201, -13.130427 ], [ -62.391509, -13.134345 ], [ -62.396841, -13.129697 ], [ -62.395594, -13.114017 ], [ -62.398844, -13.112981 ], [ -62.413457, -13.127977 ], [ -62.417177, -13.118537 ], [ -62.433923, -13.10156 ], [ -62.432871, -13.085409 ], [ -62.436455, -13.080164 ], [ -62.442375, -13.079506 ], [ -62.451344, -13.087371 ], [ -62.456923, -13.086268 ], [ -62.458567, -13.080702 ], [ -62.451877, -13.069836 ], [ -62.45348, -13.064387 ], [ -62.45987, -13.065119 ], [ -62.465013, -13.076793 ], [ -62.471511, -13.078481 ], [ -62.47304, -13.059948 ], [ -62.478403, -13.057044 ], [ -62.482981, -13.061746 ], [ -62.482513, -13.075717 ], [ -62.502096, -13.082758 ], [ -62.523284, -13.065098 ], [ -62.534431, -13.072878 ], [ -62.546625, -13.073589 ], [ -62.557505, -13.065214 ], [ -62.612037, -13.040891 ], [ -62.613597, -13.025834 ], [ -62.599676, -13.016345 ], [ -62.606289, -13.01063 ], [ -62.620985, -13.017304 ], [ -62.628701, -13.015851 ], [ -62.632489, -13.010233 ], [ -62.628643, -12.995408 ], [ -62.630928, -12.989811 ], [ -62.638372, -12.988753 ], [ -62.645955, -12.992745 ], [ -62.651649, -12.988931 ], [ -62.644735, -12.974191 ], [ -62.644928, -12.967314 ], [ -62.650288, -12.965177 ], [ -62.660153, -12.969068 ], [ -62.66401, -12.980259 ], [ -62.674375, -12.990547 ], [ -62.693843, -12.991828 ], [ -62.698042, -13.002412 ], [ -62.706398, -12.999487 ], [ -62.712677, -13.003922 ], [ -62.724624, -13.000851 ], [ -62.728399, -13.008258 ], [ -62.728623, -13.020362 ], [ -62.733485, -13.021463 ], [ -62.74368, -13.008456 ], [ -62.743314, -12.999916 ], [ -62.746373, -12.998506 ], [ -62.751675, -13.001642 ], [ -62.755873, -13.016787 ], [ -62.778561, -13.00917 ], [ -62.793815, -12.994814 ], [ -62.806333, -12.967699 ], [ -62.808366, -12.961734 ], [ -62.802765, -12.944676 ], [ -62.805428, -12.940223 ], [ -62.822455, -12.933366 ], [ -62.831562, -12.937418 ], [ -62.838374, -12.946937 ], [ -62.845311, -12.948314 ], [ -62.849728, -12.940529 ], [ -62.84259, -12.926718 ], [ -62.860367, -12.912494 ], [ -62.869673, -12.910214 ], [ -62.880007, -12.886806 ], [ -62.892619, -12.876716 ], [ -62.89162, -12.858438 ], [ -62.909758, -12.850482 ], [ -62.920818, -12.840458 ], [ -62.931393, -12.841578 ], [ -62.941289, -12.846601 ], [ -62.942455, -12.854207 ], [ -62.946957, -12.858221 ], [ -62.951064, -12.849588 ], [ -62.958897, -12.846695 ], [ -62.962677, -12.846978 ], [ -62.970373, -12.858503 ], [ -62.975726, -12.859476 ], [ -62.981508, -12.853344 ], [ -62.982895, -12.843732 ], [ -63.008695, -12.83738 ], [ -63.01301, -12.828578 ], [ -63.00798, -12.810396 ], [ -63.020784, -12.805036 ], [ -63.019619, -12.789521 ], [ -63.033289, -12.780313 ], [ -63.046681, -12.740284 ], [ -63.05973, -12.72749 ], [ -63.069615, -12.730792 ], [ -63.077709, -12.728347 ], [ -63.081902, -12.720144 ], [ -63.080005, -12.703443 ], [ -63.061007, -12.692856 ], [ -63.060843, -12.686137 ], [ -63.067204, -12.682188 ], [ -63.077121, -12.685371 ], [ -63.095202, -12.683264 ], [ -63.098346, -12.676723 ], [ -63.091477, -12.668259 ], [ -63.092927, -12.657557 ], [ -63.102197, -12.654955 ], [ -63.114953, -12.658627 ], [ -63.121233, -12.655071 ], [ -63.126653, -12.645326 ], [ -63.136359, -12.647526 ], [ -63.139618, -12.645234 ], [ -63.13693, -12.639329 ], [ -63.151343, -12.633452 ], [ -63.153204, -12.619075 ], [ -63.157847, -12.613734 ], [ -63.163942, -12.615319 ], [ -63.166954, -12.620887 ], [ -63.161288, -12.635457 ], [ -63.166845, -12.641648 ], [ -63.172936, -12.64058 ], [ -63.185285, -12.624572 ], [ -63.194358, -12.623893 ], [ -63.196953, -12.629915 ], [ -63.189311, -12.64661 ], [ -63.195622, -12.654072 ], [ -63.217702, -12.655336 ], [ -63.229105, -12.664374 ], [ -63.244951, -12.661792 ], [ -63.239167, -12.677024 ], [ -63.231147, -12.682412 ], [ -63.238483, -12.690603 ], [ -63.261742, -12.683053 ], [ -63.295006, -12.681455 ], [ -63.32582, -12.670644 ], [ -63.34976, -12.6563 ], [ -63.356519, -12.656578 ], [ -63.368814, -12.659185 ], [ -63.38548, -12.650307 ], [ -63.400409, -12.635809 ], [ -63.411561, -12.609285 ], [ -63.421591, -12.606311 ], [ -63.433066, -12.609009 ], [ -63.439845, -12.605809 ], [ -63.440786, -12.600631 ], [ -63.425374, -12.596204 ], [ -63.436763, -12.584257 ], [ -63.434148, -12.56544 ], [ -63.473458, -12.561169 ], [ -63.501199, -12.566923 ], [ -63.529999, -12.541299 ], [ -63.552393, -12.50661 ], [ -63.575626, -12.500806 ], [ -63.593091, -12.489258 ], [ -63.613437, -12.484873 ], [ -63.621575, -12.472477 ], [ -63.656249, -12.461424 ], [ -63.672519, -12.462785 ], [ -63.684218, -12.452657 ], [ -63.733177, -12.438222 ], [ -63.763756, -12.441676 ], [ -63.785763, -12.427545 ], [ -63.790035, -12.429105 ], [ -63.802592, -12.446848 ], [ -63.817511, -12.44661 ], [ -63.83343, -12.46303 ], [ -63.849793, -12.459989 ], [ -63.872563, -12.446683 ], [ -63.884622, -12.445981 ], [ -63.890094, -12.45431 ], [ -63.888813, -12.465309 ], [ -63.900177, -12.481521 ], [ -63.897261, -12.499292 ], [ -63.900172, -12.50562 ], [ -63.906654, -12.509889 ], [ -63.921286, -12.511398 ], [ -63.94049, -12.526625 ], [ -63.957161, -12.530829 ], [ -63.968306, -12.52561 ], [ -63.995341, -12.502838 ], [ -64.00001, -12.502625 ], [ -64.002525, -12.513296 ], [ -64.008758, -12.517568 ], [ -64.020619, -12.507718 ], [ -64.031739, -12.515002 ], [ -64.03962, -12.51474 ], [ -64.050371, -12.497013 ], [ -64.059455, -12.490557 ], [ -64.065227, -12.491287 ], [ -64.073676, -12.500009 ], [ -64.081485, -12.500922 ], [ -64.087917, -12.49666 ], [ -64.088734, -12.485736 ], [ -64.09165, -12.483577 ], [ -64.098345, -12.485144 ], [ -64.101981, -12.492553 ], [ -64.114953, -12.503563 ], [ -64.122039, -12.505351 ], [ -64.122042, -12.485751 ], [ -64.128089, -12.477756 ], [ -64.134501, -12.476069 ], [ -64.143233, -12.481286 ], [ -64.146065, -12.501366 ], [ -64.151347, -12.509174 ], [ -64.164065, -12.513969 ], [ -64.172839, -12.506626 ], [ -64.171649, -12.466749 ], [ -64.183602, -12.465517 ], [ -64.189654, -12.471612 ], [ -64.196231, -12.472445 ], [ -64.208341, -12.462186 ], [ -64.219178, -12.461924 ], [ -64.231092, -12.454687 ], [ -64.251701, -12.475046 ], [ -64.269432, -12.487655 ], [ -64.278842, -12.50039 ], [ -64.283901, -12.502776 ], [ -64.290348, -12.501008 ], [ -64.298281, -12.490394 ], [ -64.290231, -12.468522 ], [ -64.292196, -12.458836 ], [ -64.322676, -12.456248 ], [ -64.34862, -12.459537 ], [ -64.363736, -12.456153 ], [ -64.400375, -12.448622 ], [ -64.415668, -12.441065 ], [ -64.423185, -12.431514 ], [ -64.447126, -12.408763 ], [ -64.459483, -12.386752 ], [ -64.478476, -12.379178 ], [ -64.500251, -12.365129 ], [ -64.512457, -12.347408 ], [ -64.511341, -12.340293 ], [ -64.499994, -12.329616 ], [ -64.492316, -12.293862 ], [ -64.495817, -12.262543 ], [ -64.50576, -12.2273 ], [ -64.512246, -12.222475 ], [ -64.523095, -12.225438 ], [ -64.546556, -12.242313 ], [ -64.556786, -12.237895 ], [ -64.568065, -12.219415 ], [ -64.575271, -12.214916 ], [ -64.59401, -12.215302 ], [ -64.586203, -12.184632 ], [ -64.577952, -12.178357 ], [ -64.552468, -12.1806 ], [ -64.542902, -12.190953 ], [ -64.543284, -12.201372 ], [ -64.538623, -12.214999 ], [ -64.524574, -12.2108 ], [ -64.516596, -12.212615 ], [ -64.51287, -12.200165 ], [ -64.503702, -12.194601 ], [ -64.498025, -12.195953 ], [ -64.484398, -12.208891 ], [ -64.48038, -12.203106 ], [ -64.469033, -12.199297 ], [ -64.466343, -12.196605 ], [ -64.468569, -12.188721 ], [ -64.47404, -12.190563 ], [ -64.47557, -12.186233 ], [ -64.472119, -12.182292 ], [ -64.453291, -12.182346 ], [ -64.4464, -12.172238 ], [ -64.447201, -12.163456 ], [ -64.44298, -12.157582 ], [ -64.438618, -12.160104 ], [ -64.43676, -12.156561 ], [ -64.448296, -12.149926 ], [ -64.44723, -12.143635 ], [ -64.440263, -12.140463 ], [ -64.431836, -12.130307 ], [ -64.426068, -12.13531 ], [ -64.421536, -12.12667 ], [ -64.424759, -12.119356 ], [ -64.42134, -12.108084 ], [ -64.418292, -12.113787 ], [ -64.410653, -12.107943 ], [ -64.399174, -12.111511 ], [ -64.397705, -12.104948 ], [ -64.386618, -12.106185 ], [ -64.388069, -12.111101 ], [ -64.384372, -12.110801 ], [ -64.379289, -12.100213 ], [ -64.381457, -12.092411 ], [ -64.376288, -12.089031 ], [ -64.377811, -12.08241 ], [ -64.374536, -12.079217 ], [ -64.37957, -12.079156 ], [ -64.375512, -12.071212 ], [ -64.375284, -12.058958 ], [ -64.364671, -12.052415 ], [ -64.35306, -12.036 ], [ -64.348342, -12.037764 ], [ -64.322509, -12.009635 ], [ -64.315709, -12.008772 ], [ -64.304675, -12.016411 ], [ -64.300066, -12.01557 ], [ -64.300927, -12.009989 ], [ -64.294672, -12.007641 ], [ -64.291564, -12.009991 ], [ -64.286621, -12.004246 ], [ -64.285288, -11.996107 ], [ -64.27757, -11.995345 ], [ -64.276537, -11.99864 ], [ -64.273839, -11.99514 ], [ -64.259674, -11.992356 ], [ -64.253706, -11.980659 ], [ -64.244759, -11.980028 ], [ -64.239115, -11.973209 ], [ -64.244987, -11.971013 ], [ -64.241903, -11.966018 ], [ -64.2579, -11.960061 ], [ -64.257034, -11.954445 ], [ -64.244681, -11.946997 ], [ -64.23673, -11.935067 ], [ -64.225263, -11.932608 ], [ -64.218679, -11.922203 ], [ -64.215094, -11.925033 ], [ -64.215707, -11.917197 ], [ -64.212367, -11.922894 ], [ -64.207846, -11.916301 ], [ -64.202174, -11.918857 ], [ -64.206423, -11.911718 ], [ -64.19965, -11.907951 ], [ -64.175265, -11.911698 ], [ -64.173979, -11.917312 ], [ -64.168733, -11.91192 ], [ -64.168645, -11.916423 ], [ -64.164537, -11.916588 ], [ -64.166006, -11.911474 ], [ -64.163287, -11.909735 ], [ -64.160513, -11.912667 ], [ -64.157397, -11.909684 ], [ -64.155334, -11.912717 ], [ -64.154069, -11.90271 ], [ -64.15004, -11.902559 ], [ -64.144091, -11.895524 ], [ -64.139987, -11.88526 ], [ -64.144424, -11.882884 ], [ -64.130258, -11.871935 ], [ -64.130203, -11.867266 ], [ -64.135147, -11.864394 ], [ -64.130676, -11.860746 ], [ -64.127924, -11.863042 ], [ -64.121339, -11.848258 ], [ -64.120785, -11.840007 ], [ -64.123651, -11.841021 ], [ -64.127366, -11.836236 ], [ -64.126875, -11.828938 ], [ -64.120647, -11.831143 ], [ -64.116678, -11.827112 ], [ -64.106875, -11.813562 ], [ -64.109709, -11.807321 ], [ -64.097173, -11.793323 ], [ -64.103226, -11.787958 ], [ -64.101175, -11.782603 ], [ -64.088424, -11.783398 ], [ -64.078424, -11.775098 ], [ -64.076792, -11.769925 ], [ -64.064311, -11.770572 ], [ -64.053113, -11.764634 ], [ -64.049881, -11.76633 ], [ -64.045817, -11.757721 ], [ -64.039837, -11.763697 ], [ -64.035682, -11.752769 ], [ -64.043426, -11.75127 ], [ -64.04193, -11.745785 ], [ -64.0309, -11.74336 ], [ -64.024509, -11.745346 ], [ -64.024259, -11.759341 ], [ -64.018844, -11.763389 ], [ -64.001456, -11.752306 ], [ -63.993951, -11.752429 ], [ -63.990649, -11.747175 ], [ -63.979623, -11.747386 ], [ -63.973927, -11.753638 ], [ -63.966148, -11.744925 ], [ -63.965881, -11.740266 ], [ -63.965763, -11.735078 ], [ -63.963476, -11.737574 ], [ -63.948504, -11.7287 ], [ -63.934644, -11.725894 ], [ -63.923483, -11.729983 ], [ -63.902231, -11.718431 ], [ -63.895638, -11.722101 ], [ -63.879148, -11.727928 ], [ -63.868898, -11.709309 ], [ -63.858836, -11.703907 ], [ -63.844393, -11.684677 ], [ -63.838227, -11.680097 ], [ -63.831538, -11.683935 ], [ -63.821034, -11.673857 ], [ -63.810727, -11.670625 ], [ -63.805838, -11.674026 ], [ -63.798618, -11.667912 ], [ -63.785748, -11.666509 ], [ -63.775765, -11.660951 ], [ -63.770448, -11.665617 ], [ -63.744476, -11.661873 ], [ -63.741341, -11.648787 ], [ -63.727218, -11.645506 ], [ -63.727304, -11.640351 ], [ -63.722819, -11.640326 ], [ -63.716314, -11.649155 ], [ -63.705593, -11.650441 ], [ -63.696874, -11.641388 ], [ -63.690651, -11.642198 ], [ -63.688041, -11.650545 ], [ -63.679382, -11.644018 ], [ -63.675341, -11.640162 ], [ -63.679218, -11.623954 ], [ -63.66642, -11.6301 ], [ -63.66561, -11.619033 ], [ -63.658682, -11.608335 ], [ -63.646481, -11.626209 ], [ -63.635982, -11.607194 ], [ -63.619528, -11.605436 ], [ -63.61674, -11.599432 ], [ -63.604298, -11.601661 ], [ -63.598123, -11.593294 ], [ -63.604477, -11.5839 ], [ -63.607808, -11.56985 ], [ -63.604094, -11.563137 ], [ -63.608313, -11.556465 ], [ -63.614982, -11.554072 ], [ -63.612504, -11.548664 ], [ -63.615538, -11.54195 ], [ -63.620759, -11.541727 ], [ -63.622734, -11.537825 ], [ -63.611837, -11.53678 ], [ -63.615786, -11.531289 ], [ -63.610364, -11.528568 ], [ -63.61217, -11.519741 ], [ -63.60255, -11.506407 ], [ -63.59398, -11.504073 ], [ -63.605623, -11.490819 ], [ -63.616512, -11.489285 ], [ -63.613976, -11.481666 ], [ -63.60687, -11.48087 ], [ -63.60659, -11.470822 ], [ -63.603424, -11.466971 ], [ -63.604813, -11.456619 ], [ -63.598176, -11.441574 ], [ -63.591064, -11.444952 ], [ -63.599293, -11.43662 ], [ -63.595207, -11.423813 ], [ -63.601199, -11.413131 ], [ -63.597815, -11.411526 ], [ -63.593367, -11.415784 ], [ -63.581728, -11.411056 ], [ -63.57953, -11.416284 ], [ -63.564984, -11.41203 ], [ -63.558345, -11.417976 ], [ -63.552505, -11.417127 ], [ -63.548316, -11.413094 ], [ -63.556952, -11.402776 ], [ -63.551647, -11.3931 ], [ -63.548188, -11.392117 ], [ -63.548231, -11.387998 ], [ -63.543646, -11.390689 ], [ -63.538677, -11.388482 ], [ -63.540175, -11.379874 ], [ -63.519009, -11.371125 ], [ -63.521442, -11.368699 ], [ -63.52112, -11.357601 ], [ -63.528774, -11.337664 ], [ -63.542536, -11.325932 ], [ -63.536783, -11.315872 ], [ -63.537368, -11.308111 ], [ -63.541369, -11.305571 ], [ -63.552097, -11.306573 ], [ -63.574969, -11.282421 ], [ -63.587896, -11.282534 ], [ -63.58563, -11.273232 ], [ -63.58977, -11.265198 ], [ -63.587992, -11.260034 ], [ -63.593472, -11.260366 ], [ -63.592968, -11.254466 ], [ -63.589863, -11.247665 ], [ -63.585015, -11.247049 ], [ -63.589986, -11.239399 ], [ -63.583992, -11.227047 ], [ -63.576542, -11.224747 ], [ -63.582415, -11.21191 ], [ -63.587484, -11.208993 ], [ -63.587331, -11.182959 ], [ -63.597269, -11.162685 ], [ -63.596115, -11.149397 ], [ -63.602137, -11.138705 ], [ -63.592621, -11.094846 ], [ -63.593393, -11.080098 ], [ -63.581735, -11.068781 ], [ -63.585065, -11.059483 ], [ -63.581133, -11.054263 ], [ -63.584542, -11.044773 ], [ -63.580027, -11.030757 ], [ -63.594381, -11.017822 ], [ -63.616808, -11.015488 ], [ -63.623282, -11.011871 ], [ -63.629595, -11.005144 ], [ -63.62648, -11.004623 ], [ -63.581954, -11.010242 ], [ -63.569059, -11.022471 ], [ -63.566031, -11.033507 ], [ -63.55745, -11.031461 ], [ -63.552899, -11.03901 ], [ -63.541795, -11.034415 ], [ -63.527623, -11.045331 ], [ -63.499754, -11.042276 ], [ -63.480566, -11.026803 ], [ -63.466255, -11.031286 ], [ -63.432562, -11.029557 ], [ -63.419229, -11.039243 ], [ -63.413337, -11.048698 ], [ -63.402006, -11.048556 ], [ -63.38364, -11.056871 ], [ -63.383484, -11.071651 ], [ -63.377007, -11.074995 ], [ -63.363699, -11.074376 ], [ -63.352787, -11.065511 ], [ -63.340815, -11.063395 ], [ -63.327478, -11.075598 ], [ -63.334864, -11.08871 ], [ -63.330782, -11.099628 ], [ -63.319285, -11.108892 ], [ -63.319512, -11.115432 ], [ -63.303967, -11.127956 ], [ -63.301921, -11.132142 ], [ -63.304268, -11.137363 ], [ -63.304411, -11.141816 ], [ -63.28818, -11.152836 ], [ -63.253505, -11.151512 ], [ -63.244871, -11.146746 ], [ -63.232738, -11.126874 ], [ -63.220009, -11.120604 ], [ -63.20461, -11.105237 ], [ -63.194927, -11.102993 ], [ -63.189473, -11.091241 ], [ -63.195883, -11.08217 ], [ -63.182035, -11.066424 ], [ -63.164376, -11.066699 ], [ -63.14818, -11.074227 ], [ -63.142096, -11.071001 ], [ -63.132619, -11.074345 ], [ -63.117163, -11.070247 ], [ -63.092006, -11.053302 ], [ -63.075099, -11.059479 ], [ -63.065755, -11.059204 ], [ -63.052012, -11.05119 ], [ -63.040648, -11.037229 ], [ -63.006341, -11.03958 ], [ -62.990314, -11.035804 ], [ -62.984149, -11.031204 ], [ -62.979535, -11.033922 ], [ -62.968703, -11.030297 ], [ -62.954448, -11.03598 ], [ -62.948196, -11.029789 ], [ -62.931421, -11.03347 ], [ -62.922683, -11.031191 ], [ -62.911072, -11.033507 ], [ -62.905313, -11.027551 ], [ -62.899983, -11.031094 ], [ -62.896676, -11.02865 ], [ -62.890864, -11.030214 ], [ -62.854992, -10.999475 ], [ -62.830072, -10.977592 ], [ -62.802289, -10.953186 ], [ -62.79849, -10.949845 ], [ -62.775731, -10.929842 ], [ -62.746608, -10.904235 ], [ -62.740276, -10.898664 ], [ -62.716617, -10.877849 ], [ -62.706525, -10.868986 ], [ -62.689998, -10.85447 ], [ -62.663846, -10.831488 ], [ -62.638765, -10.80944 ], [ -62.612632, -10.786458 ], [ -62.582353, -10.759816 ], [ -62.55401, -10.734866 ], [ -62.524729, -10.709077 ], [ -62.499448, -10.686931 ], [ -62.487924, -10.676833 ], [ -62.473883, -10.664568 ], [ -62.44687, -10.640966 ], [ -62.413097, -10.611441 ], [ -62.385219, -10.587059 ], [ -62.367904, -10.571899 ], [ -62.353982, -10.559726 ], [ -62.327547, -10.536584 ], [ -62.293203, -10.506404 ], [ -62.259133, -10.476453 ], [ -62.130881, -10.362939 ], [ -62.121477, -10.354606 ], [ -62.135092, -10.339449 ], [ -62.139668, -10.326959 ], [ -62.134838, -10.321393 ], [ -62.137948, -10.315215 ], [ -62.141231, -10.304468 ], [ -62.139275, -10.290047 ], [ -62.133195, -10.274397 ], [ -62.141562, -10.273079 ], [ -62.145475, -10.265089 ], [ -62.139614, -10.260176 ], [ -62.136758, -10.235109 ], [ -62.134112, -10.224335 ], [ -62.132377, -10.219881 ], [ -62.120865, -10.209311 ], [ -62.125582, -10.191381 ], [ -62.114314, -10.195921 ], [ -62.110276, -10.193656 ], [ -62.105203, -10.178017 ], [ -62.095861, -10.1843 ], [ -62.090834, -10.179398 ], [ -62.083062, -10.18285 ], [ -62.078001, -10.178004 ], [ -62.061341, -10.172838 ], [ -62.051752, -10.156087 ], [ -62.038038, -10.153051 ], [ -62.029636, -10.146628 ], [ -62.025254, -10.135705 ], [ -62.028448, -10.132835 ], [ -62.019979, -10.121885 ], [ -62.005281, -10.132336 ], [ -61.993584, -10.133129 ], [ -61.989369, -10.129664 ], [ -61.992894, -10.12062 ], [ -61.990448, -10.117991 ], [ -61.997615, -10.105257 ], [ -61.988785, -10.098052 ], [ -61.986509, -10.08801 ], [ -61.984889, -10.091534 ], [ -61.978056, -10.092765 ], [ -61.982808, -10.066094 ], [ -61.972141, -10.067134 ], [ -61.969888, -10.058798 ], [ -61.971948, -10.049322 ], [ -61.981612, -10.031675 ], [ -61.992796, -10.021608 ], [ -61.994339, -10.014215 ], [ -61.992585, -10.009215 ], [ -61.981327, -10.004613 ], [ -61.963908, -9.986469 ], [ -61.953892, -9.949286 ], [ -61.949981, -9.954854 ], [ -61.942204, -9.947771 ], [ -61.936618, -9.947453 ], [ -61.924756, -9.969818 ], [ -61.911119, -9.984852 ], [ -61.910741, -9.985227 ], [ -61.908529, -9.988776 ], [ -61.898548, -9.977922 ], [ -61.873775, -9.987701 ], [ -61.865042, -9.987757 ], [ -61.859682, -9.98239 ], [ -61.857769, -9.971682 ], [ -61.860768, -9.949725 ], [ -61.876519, -9.907365 ], [ -61.859664, -9.882543 ], [ -61.850167, -9.878004 ], [ -61.839093, -9.859825 ], [ -61.836774, -9.848915 ], [ -61.844185, -9.832866 ], [ -61.840726, -9.814814 ], [ -61.836298, -9.809499 ], [ -61.806143, -9.799443 ], [ -61.807301, -9.779445 ], [ -61.799533, -9.771948 ], [ -61.793591, -9.758605 ], [ -61.794608, -9.743139 ], [ -61.797865, -9.737954 ], [ -61.791641, -9.719291 ], [ -61.774034, -9.716694 ], [ -61.759836, -9.728272 ], [ -61.733279, -9.725316 ], [ -61.71103, -9.730935 ], [ -61.689728, -9.719058 ], [ -61.685145, -9.720415 ], [ -61.661531, -9.712123 ], [ -61.656478, -9.708134 ], [ -61.644144, -9.706279 ], [ -61.631779, -9.695573 ], [ -61.609561, -9.683946 ], [ -61.604809, -9.684598 ], [ -61.603116, -9.693182 ], [ -61.574114, -9.7174 ], [ -61.572479, -9.723598 ], [ -61.566253, -9.72899 ], [ -61.554726, -9.728686 ], [ -61.530978, -9.739519 ], [ -61.532088, -9.757591 ], [ -61.546833, -9.787148 ], [ -61.537868, -9.79304 ], [ -61.52439, -9.795337 ], [ -61.524751, -9.80724 ], [ -61.531591, -9.819365 ], [ -61.517721, -9.822629 ], [ -61.514979, -9.843022 ], [ -61.50739, -9.860688 ], [ -61.507953, -9.872574 ], [ -61.510553, -9.895168 ], [ -61.524446, -9.906183 ], [ -61.522619, -9.927639 ], [ -61.528245, -9.934499 ], [ -61.523172, -9.940946 ], [ -61.522807, -9.948093 ], [ -61.531887, -9.952238 ], [ -61.538892, -9.963706 ], [ -61.527449, -9.970037 ], [ -61.530679, -9.989456 ], [ -61.54107, -9.99525 ], [ -61.539598, -9.999131 ], [ -61.539875, -10.00096 ], [ -61.555337, -10.038558 ], [ -61.571203, -10.046129 ], [ -61.583838, -10.059216 ], [ -61.578174, -10.078851 ], [ -61.582565, -10.082078 ], [ -61.582761, -10.095282 ], [ -61.590566, -10.110811 ], [ -61.589643, -10.121067 ], [ -61.601068, -10.156251 ], [ -61.599299, -10.158779 ], [ -61.59628, -10.161982 ], [ -61.578036, -10.162806 ], [ -61.558153, -10.176103 ], [ -61.559254, -10.192687 ], [ -61.551195, -10.197381 ], [ -61.573481, -10.208564 ], [ -61.57307, -10.218896 ], [ -61.577086, -10.226184 ], [ -61.576214, -10.24818 ], [ -61.561665, -10.271598 ], [ -61.554068, -10.279161 ], [ -61.543563, -10.300599 ], [ -61.552811, -10.30661 ], [ -61.547584, -10.315994 ], [ -61.540361, -10.319828 ], [ -61.533213, -10.331488 ], [ -61.520955, -10.330386 ], [ -61.515641, -10.334041 ], [ -61.511365, -10.350008 ], [ -61.501198, -10.353381 ], [ -61.502587, -10.37553 ], [ -61.49653, -10.389186 ], [ -61.489028, -10.389869 ], [ -61.483529, -10.399755 ], [ -61.470979, -10.404746 ], [ -61.476402, -10.410234 ], [ -61.475659, -10.418035 ], [ -61.468828, -10.414704 ], [ -61.463838, -10.416209 ], [ -61.461257, -10.41951 ], [ -61.466555, -10.448099 ], [ -61.47553, -10.454332 ], [ -61.469671, -10.461023 ], [ -61.480279, -10.487352 ], [ -61.478546, -10.529475 ], [ -61.465785, -10.540816 ], [ -61.469585, -10.556135 ], [ -61.479424, -10.568758 ], [ -61.476926, -10.589288 ], [ -61.480973, -10.596368 ], [ -61.4757, -10.607268 ], [ -61.489058, -10.629408 ], [ -61.478421, -10.642648 ], [ -61.481835, -10.652943 ], [ -61.481174, -10.668747 ], [ -61.483947, -10.673371 ], [ -61.492392, -10.675338 ], [ -61.495331, -10.682941 ], [ -61.498293, -10.699542 ], [ -61.480423, -10.714382 ], [ -61.471869, -10.714576 ], [ -61.475843, -10.722107 ], [ -61.485814, -10.726775 ], [ -61.487863, -10.73608 ], [ -61.480337, -10.743802 ], [ -61.480928, -10.759776 ], [ -61.475892, -10.767397 ], [ -61.479753, -10.785183 ], [ -61.473309, -10.797115 ], [ -61.485505, -10.800214 ], [ -61.491235, -10.795493 ], [ -61.49498, -10.78211 ], [ -61.504757, -10.78436 ], [ -61.504857, -10.789037 ], [ -61.510559, -10.794418 ], [ -61.506814, -10.796428 ], [ -61.502897, -10.808048 ], [ -61.511998, -10.821805 ], [ -61.509004, -10.830383 ], [ -61.509687, -10.836614 ], [ -61.520845, -10.842132 ], [ -61.524611, -10.855407 ], [ -61.523263, -10.88138 ], [ -61.526333, -10.885296 ], [ -61.518591, -10.894116 ], [ -61.523779, -10.90435 ], [ -61.513781, -10.906989 ], [ -61.518337, -10.916838 ], [ -61.52273, -10.939857 ], [ -61.518983, -10.9493 ], [ -61.524138, -10.953931 ], [ -61.527083, -10.956791 ], [ -61.529562, -10.978621 ], [ -61.538056, -10.975463 ], [ -61.546273, -10.977199 ], [ -61.550167, -10.980576 ], [ -61.549733, -10.985696 ], [ -61.513545, -10.986131 ], [ -61.4833, -10.986489 ], [ -61.428478, -10.987136 ], [ -61.426351, -10.987159 ], [ -61.000073, -10.99184 ], [ -61.000071, -10.987952 ], [ -60.949322, -10.988154 ], [ -60.947748, -10.988162 ], [ -60.831507, -10.988597 ], [ -60.828476, -10.988608 ], [ -60.805847, -10.988687 ], [ -60.459531, -10.989456 ], [ -60.451946, -10.992878 ], [ -60.449664, -11.008062 ], [ -60.441175, -11.016393 ], [ -60.437419, -11.016285 ], [ -60.446077, -11.041754 ], [ -60.435166, -11.041399 ], [ -60.42918, -11.037094 ], [ -60.413592, -11.043085 ], [ -60.410977, -11.046374 ], [ -60.413867, -11.06707 ], [ -60.407808, -11.07083 ], [ -60.40362, -11.068975 ], [ -60.395338, -11.080043 ], [ -60.391035, -11.093392 ], [ -60.38323, -11.095822 ], [ -60.372722, -11.093724 ], [ -60.369807, -11.098612 ], [ -60.347449, -11.108637 ], [ -60.34367, -11.104481 ], [ -60.346365, -11.098781 ], [ -60.341448, -11.082233 ], [ -60.347916, -11.073642 ], [ -60.334028, -11.082489 ], [ -60.317003, -11.064694 ], [ -60.308695, -11.063625 ], [ -60.30073, -11.056751 ], [ -60.290921, -11.065088 ], [ -60.281836, -11.063615 ], [ -60.277505, -11.079176 ], [ -60.28031, -11.091131 ], [ -60.270476, -11.098293 ], [ -60.264646, -11.093261 ], [ -60.248282, -11.096468 ], [ -60.238334, -11.094541 ], [ -60.226977, -11.105034 ], [ -60.210032, -11.106407 ], [ -60.206731, -11.111355 ], [ -60.198482, -11.113692 ], [ -60.187096, -11.111237 ], [ -60.188485, -11.107701 ], [ -60.177087, -11.098853 ], [ -60.158755, -11.095252 ], [ -60.151945, -11.100478 ], [ -60.147507, -11.098861 ], [ -60.141976, -11.10534 ], [ -60.130119, -11.100471 ], [ -60.119891, -11.106498 ], [ -60.112174, -11.102139 ], [ -60.104338, -11.10878 ], [ -60.095674, -11.110387 ], [ -60.088841, -11.108501 ], [ -60.089334, -11.100061 ], [ -60.083729, -11.096443 ], [ -60.074506, -11.104623 ], [ -60.066197, -11.125107 ], [ -60.043537, -11.12387 ], [ -60.036922, -11.116952 ], [ -60.030068, -11.127958 ], [ -60.018872, -11.128698 ], [ -60.015229, -11.115879 ], [ -60.012619, -11.122121 ], [ -59.994829, -11.124773 ], [ -59.990695, -11.123186 ], [ -59.986333, -11.114116 ], [ -59.983386, -11.115876 ], [ -59.97626, -11.121987 ], [ -59.979426, -11.139401 ], [ -59.988593, -11.137638 ], [ -59.984419, -11.146635 ], [ -59.994506, -11.147802 ], [ -59.997255, -11.150958 ], [ -59.995391, -11.156581 ], [ -59.988473, -11.16083 ], [ -59.987065, -11.170706 ], [ -59.979895, -11.179188 ], [ -59.970695, -11.179801 ], [ -59.96928, -11.184948 ], [ -59.963506, -11.188714 ], [ -59.96734, -11.197463 ], [ -59.975369, -11.198186 ], [ -59.976473, -11.202886 ], [ -59.980613, -11.20336 ], [ -59.983889, -11.214797 ], [ -59.981516, -11.233098 ], [ -59.967395, -11.252532 ], [ -59.968003, -11.266003 ], [ -59.959922, -11.276997 ], [ -59.958951, -11.294332 ], [ -59.949506, -11.304002 ], [ -59.927257, -11.310032 ], [ -59.916677, -11.338032 ], [ -59.917342, -11.345953 ], [ -59.924008, -11.351865 ], [ -59.921925, -11.355254 ], [ -59.92492, -11.361374 ], [ -59.919388, -11.381059 ], [ -59.922393, -11.393764 ], [ -59.920118, -11.397605 ], [ -59.927225, -11.412361 ], [ -59.925397, -11.415078 ], [ -59.933896, -11.423264 ], [ -59.941504, -11.422396 ], [ -59.94425, -11.431916 ], [ -59.951835, -11.436019 ], [ -59.975724, -11.438819 ], [ -59.984891, -11.468938 ], [ -60.001896, -11.47826 ], [ -60.007396, -11.486098 ], [ -60.01512, -11.488198 ], [ -60.017452, -11.495632 ], [ -60.027085, -11.495947 ], [ -60.030721, -11.492769 ], [ -60.031276, -11.497473 ], [ -60.031224, -11.503049 ], [ -60.026202, -11.505273 ], [ -60.041008, -11.516204 ], [ -60.053158, -11.533045 ], [ -60.056947, -11.541694 ], [ -60.079195, -11.552492 ], [ -60.078179, -11.555914 ], [ -60.086175, -11.560541 ], [ -60.090262, -11.554476 ], [ -60.093643, -11.562444 ], [ -60.086697, -11.567724 ], [ -60.097869, -11.567491 ], [ -60.098757, -11.570423 ], [ -60.091142, -11.57565 ], [ -60.101092, -11.576957 ], [ -60.093923, -11.585479 ], [ -60.110392, -11.582085 ], [ -60.114366, -11.591059 ], [ -60.11009, -11.595077 ], [ -60.113556, -11.603045 ], [ -60.10939, -11.615137 ], [ -60.114784, -11.618872 ], [ -60.110538, -11.620428 ], [ -60.113675, -11.635354 ], [ -60.111118, -11.642513 ], [ -60.116952, -11.642921 ], [ -60.115204, -11.668733 ], [ -60.118485, -11.671559 ], [ -60.118227, -11.679973 ], [ -60.121893, -11.681998 ], [ -60.116974, -11.688632 ], [ -60.118169, -11.701674 ], [ -60.115676, -11.706303 ], [ -60.121143, -11.7117 ], [ -60.111972, -11.721851 ], [ -60.116174, -11.728893 ], [ -60.110704, -11.747858 ], [ -60.106866, -11.74857 ], [ -60.111864, -11.758851 ], [ -60.110808, -11.762569 ], [ -60.105062, -11.763305 ], [ -60.10659, -11.769675 ], [ -60.102477, -11.77211 ], [ -60.108341, -11.775348 ], [ -60.108637, -11.780153 ], [ -60.103979, -11.777824 ], [ -60.100565, -11.780217 ], [ -60.104983, -11.782095 ], [ -60.102371, -11.78964 ], [ -60.10798, -11.792714 ], [ -60.096337, -11.79492 ], [ -60.096177, -11.800519 ], [ -60.100261, -11.797607 ], [ -60.104149, -11.802453 ], [ -60.0984, -11.803475 ], [ -60.101086, -11.814164 ], [ -60.095153, -11.817818 ], [ -60.102842, -11.818767 ], [ -60.09876, -11.829619 ], [ -60.101889, -11.831755 ], [ -60.108253, -11.839175 ], [ -60.100614, -11.835003 ], [ -60.09739, -11.839452 ], [ -60.098343, -11.845151 ], [ -60.093366, -11.848757 ], [ -60.095731, -11.858446 ], [ -60.092087, -11.852742 ], [ -60.088918, -11.854751 ], [ -60.090619, -11.860722 ], [ -60.087983, -11.862209 ], [ -60.082804, -11.858083 ], [ -60.079429, -11.86186 ], [ -60.084919, -11.867276 ], [ -60.078008, -11.869816 ], [ -60.074391, -11.879299 ], [ -60.076111, -11.884885 ], [ -60.072868, -11.884082 ], [ -60.060009, -11.8946 ], [ -60.046524, -11.896707 ], [ -60.041533, -11.892153 ], [ -60.03292, -11.89829 ], [ -60.029369, -11.894578 ], [ -60.024199, -11.897124 ], [ -60.011559, -11.892635 ], [ -60.006372, -11.894278 ], [ -59.994923, -11.908908 ], [ -59.985279, -11.911675 ], [ -59.982949, -11.920135 ], [ -59.988223, -11.929082 ], [ -59.979865, -11.946071 ], [ -59.986473, -11.959685 ], [ -59.97084, -11.96954 ], [ -59.97381, -11.97591 ], [ -59.968954, -11.982266 ], [ -59.969865, -11.988615 ], [ -59.979063, -11.990881 ], [ -59.970089, -11.997444 ], [ -59.966061, -12.006757 ], [ -59.974144, -12.014701 ], [ -59.978836, -12.029144 ], [ -59.969062, -12.03207 ], [ -59.965198, -12.045835 ], [ -59.960955, -12.050036 ], [ -59.961479, -12.055961 ], [ -59.956392, -12.056051 ], [ -59.951287, -12.065205 ], [ -59.946673, -12.065345 ], [ -59.928758, -12.078049 ], [ -59.923253, -12.093359 ], [ -59.914801, -12.097564 ], [ -59.899286, -12.116817 ], [ -59.899649, -12.170469 ], [ -59.910297, -12.18605 ], [ -59.908167, -12.194229 ], [ -59.900756, -12.214828 ], [ -59.901197, -12.223473 ], [ -59.893084, -12.232354 ], [ -59.891817, -12.245047 ], [ -59.885827, -12.245065 ], [ -59.773835, -12.340548 ], [ -59.792424, -12.345375 ], [ -59.801595, -12.356987 ], [ -59.804978, -12.368215 ], [ -59.818738, -12.378341 ], [ -59.818253, -12.389481 ], [ -59.823316, -12.390075 ], [ -59.832032, -12.400991 ], [ -59.834599, -12.41279 ], [ -59.842031, -12.424441 ], [ -59.840834, -12.458963 ], [ -59.843647, -12.466765 ], [ -59.855339, -12.478197 ], [ -59.867969, -12.481957 ], [ -59.887491, -12.474606 ], [ -59.896379, -12.475768 ], [ -59.896743, -12.470782 ], [ -59.904001, -12.472407 ], [ -59.907148, -12.479812 ], [ -59.913337, -12.479393 ], [ -59.925146, -12.481417 ], [ -59.934707, -12.486676 ], [ -59.935864, -12.494658 ], [ -59.956955, -12.501804 ], [ -59.972886, -12.529958 ], [ -60.000421, -12.535818 ], [ -60.006424, -12.545309 ], [ -60.026122, -12.561221 ], [ -60.027587, -12.578935 ], [ -60.034037, -12.594566 ], [ -60.062784, -12.607158 ], [ -60.068217, -12.615589 ], [ -60.063283, -12.628297 ], [ -60.062533, -12.641423 ], [ -60.077562, -12.664143 ], [ -60.075672, -12.688055 ], [ -60.086992, -12.715985 ], [ -60.09017, -12.736246 ], [ -60.074117, -12.772948 ], [ -60.077265, -12.803651 ], [ -60.084176, -12.836896 ], [ -60.078592, -12.880733 ], [ -60.087586, -12.902021 ], [ -60.10462, -12.919056 ], [ -60.116645, -12.959146 ], [ -60.130339, -12.961261 ], [ -60.139274, -12.969797 ], [ -60.150111, -12.963649 ], [ -60.156033, -12.968339 ], [ -60.166895, -12.970234 ], [ -60.182823, -12.96722 ], [ -60.188756, -12.970734 ], [ -60.191544, -12.981647 ], [ -60.200895, -12.987711 ], [ -60.204052, -12.995204 ], [ -60.213135, -13.006644 ], [ -60.214771, -13.026571 ], [ -60.219699, -13.027304 ], [ -60.224172, -13.033131 ], [ -60.236977, -13.034498 ], [ -60.240816, -13.038048 ], [ -60.247822, -13.054704 ], [ -60.252846, -13.055948 ], [ -60.267094, -13.076875 ], [ -60.28247, -13.080143 ], [ -60.282003, -13.092981 ], [ -60.283774, -13.098495 ], [ -60.278653, -13.102159 ], [ -60.281846, -13.105753 ], [ -60.276598, -13.112269 ], [ -60.280487, -13.119537 ], [ -60.275625, -13.126417 ], [ -60.280094, -13.135209 ], [ -60.267983, -13.144561 ], [ -60.295645, -13.176755 ], [ -60.299119, -13.175019 ], [ -60.303859, -13.178979 ], [ -60.308814, -13.191903 ], [ -60.307701, -13.199078 ], [ -60.31988, -13.216026 ], [ -60.323837, -13.228921 ], [ -60.327928, -13.229877 ], [ -60.329267, -13.235058 ], [ -60.324295, -13.250078 ], [ -60.326197, -13.25491 ], [ -60.332648, -13.257569 ], [ -60.338509, -13.271924 ], [ -60.351282, -13.272596 ], [ -60.351597, -13.28442 ], [ -60.353452, -13.294191 ], [ -60.360229, -13.298065 ], [ -60.362707, -13.296125 ], [ -60.364448, -13.299533 ], [ -60.361476, -13.300578 ], [ -60.361094, -13.308157 ], [ -60.371088, -13.31818 ], [ -60.37295, -13.324033 ], [ -60.365563, -13.331822 ], [ -60.36476, -13.340538 ], [ -60.370642, -13.347967 ], [ -60.369732, -13.356895 ], [ -60.370814, -13.367138 ], [ -60.37609, -13.368273 ], [ -60.375585, -13.373625 ], [ -60.379063, -13.374824 ], [ -60.378761, -13.39001 ], [ -60.371344, -13.408456 ], [ -60.378783, -13.414913 ], [ -60.378816, -13.422043 ], [ -60.383539, -13.440799 ], [ -60.381064, -13.441724 ], [ -60.387396, -13.454284 ], [ -60.399398, -13.455842 ], [ -60.401949, -13.462466 ], [ -60.411006, -13.461247 ], [ -60.429871, -13.48155 ], [ -60.431478, -13.488025 ], [ -60.455839, -13.493111 ], [ -60.465062, -13.488704 ], [ -60.47848, -13.492585 ], [ -60.481216, -13.496441 ], [ -60.485895, -13.49377 ], [ -60.495091, -13.499311 ], [ -60.500702, -13.498071 ], [ -60.529845, -13.516631 ], [ -60.532533, -13.535839 ], [ -60.543518, -13.536091 ], [ -60.547847, -13.547986 ], [ -60.55431, -13.547772 ], [ -60.555508, -13.552951 ], [ -60.577119, -13.564817 ], [ -60.587157, -13.564642 ], [ -60.591979, -13.57114 ], [ -60.599784, -13.57231 ], [ -60.610728, -13.565938 ], [ -60.631674, -13.57129 ], [ -60.635174, -13.57756 ], [ -60.632871, -13.578822 ], [ -60.640872, -13.58465 ], [ -60.637785, -13.591559 ], [ -60.640649, -13.596129 ], [ -60.644981, -13.592411 ], [ -60.654929, -13.602032 ], [ -60.663648, -13.60445 ], [ -60.665425, -13.611077 ], [ -60.668756, -13.607917 ], [ -60.669052, -13.613082 ], [ -60.6722, -13.612047 ], [ -60.673738, -13.616681 ], [ -60.685504, -13.624818 ], [ -60.688539, -13.633086 ], [ -60.685843, -13.638753 ], [ -60.69126, -13.644306 ], [ -60.690071, -13.648545 ], [ -60.692976, -13.652894 ], [ -60.699063, -13.653773 ], [ -60.697205, -13.657353 ], [ -60.701565, -13.659859 ], [ -60.696485, -13.66609 ], [ -60.699148, -13.670426 ], [ -60.709122, -13.67131 ], [ -60.70909, -13.675712 ], [ -60.713421, -13.675587 ], [ -60.713123, -13.682225 ], [ -60.716281, -13.681806 ], [ -60.716494, -13.684703 ], [ -60.709455, -13.686914 ], [ -60.708782, -13.692592 ], [ -60.717007, -13.693289 ], [ -60.73912, -13.684882 ], [ -60.754676, -13.686905 ], [ -60.769012, -13.683795 ], [ -60.770008, -13.664696 ], [ -60.773623, -13.660843 ], [ -60.785846, -13.655956 ], [ -60.81021, -13.653325 ], [ -60.818534, -13.636517 ], [ -60.828064, -13.629091 ], [ -60.840569, -13.627313 ], [ -60.844451, -13.631149 ], [ -60.879314, -13.617118 ], [ -60.88659, -13.601523 ], [ -60.908399, -13.584408 ], [ -60.92023, -13.568536 ], [ -60.924237, -13.556608 ], [ -60.918457, -13.547916 ], [ -60.91598, -13.546274 ], [ -60.92251, -13.540447 ], [ -60.933364, -13.5403 ], [ -60.950511, -13.551474 ], [ -60.957511, -13.548488 ], [ -60.966893, -13.536485 ], [ -60.971617, -13.536558 ], [ -60.978367, -13.539768 ], [ -60.985504, -13.538295 ], [ -60.986511, -13.54773 ], [ -61.005095, -13.549871 ], [ -61.011894, -13.527773 ], [ -61.008205, -13.522928 ], [ -61.000396, -13.53058 ], [ -60.997174, -13.527195 ], [ -61.006228, -13.518009 ], [ -61.008482, -13.505995 ], [ -60.999187, -13.499544 ], [ -60.992727, -13.504762 ], [ -60.987808, -13.499915 ], [ -61.014397, -13.487127 ], [ -61.024982, -13.490121 ], [ -61.04062, -13.484647 ], [ -61.046457, -13.484269 ], [ -61.050423, -13.488389 ], [ -61.050451, -13.494977 ], [ -61.035071, -13.496663 ], [ -61.034983, -13.500615 ], [ -61.040624, -13.507301 ], [ -61.05354, -13.511034 ], [ -61.059845, -13.511441 ], [ -61.065542, -13.500338 ], [ -61.075283, -13.499122 ], [ -61.08978, -13.49173 ], [ -61.097313, -13.495424 ], [ -61.094475, -13.505685 ], [ -61.102874, -13.515345 ], [ -61.1004, -13.528061 ], [ -61.105652, -13.531254 ], [ -61.125429, -13.519492 ], [ -61.139091, -13.528575 ], [ -61.137928, -13.511948 ], [ -61.143615, -13.513025 ], [ -61.146871, -13.518641 ], [ -61.143784, -13.528192 ], [ -61.146426, -13.531554 ], [ -61.152673, -13.526897 ], [ -61.156202, -13.516708 ], [ -61.170764, -13.510199 ], [ -61.181955, -13.513892 ], [ -61.180004, -13.508358 ], [ -61.18354, -13.507487 ], [ -61.187291, -13.516462 ], [ -61.182283, -13.527249 ], [ -61.19376, -13.536039 ], [ -61.2074, -13.525025 ], [ -61.221202, -13.529746 ], [ -61.233004, -13.524614 ], [ -61.236698, -13.516557 ], [ -61.243262, -13.512403 ], [ -61.241402, -13.500708 ], [ -61.247816, -13.495865 ], [ -61.261816, -13.497044 ], [ -61.27468, -13.505647 ], [ -61.279841, -13.50522 ], [ -61.285067, -13.501705 ], [ -61.287788, -13.482449 ], [ -61.295782, -13.477417 ], [ -61.304809, -13.481607 ], [ -61.30059, -13.497802 ], [ -61.308369, -13.503638 ], [ -61.335839, -13.505161 ], [ -61.341677, -13.517967 ], [ -61.349986, -13.520748 ], [ -61.389259, -13.51936 ], [ -61.404432, -13.527932 ], [ -61.401927, -13.537462 ], [ -61.404478, -13.53929 ], [ -61.412649, -13.537479 ], [ -61.429038, -13.544999 ], [ -61.469394, -13.554841 ], [ -61.491422, -13.546033 ], [ -61.507727, -13.54753 ], [ -61.521206, -13.535065 ], [ -61.532367, -13.532612 ], [ -61.534812, -13.527481 ], [ -61.555845, -13.517804 ], [ -61.562676, -13.521015 ], [ -61.5719, -13.518164 ], [ -61.578399, -13.509493 ], [ -61.572837, -13.494212 ], [ -61.576198, -13.488214 ], [ -61.583737, -13.490213 ], [ -61.585091, -13.500217 ], [ -61.598978, -13.501307 ], [ -61.607483, -13.511283 ], [ -61.615348, -13.510992 ], [ -61.61846, -13.498776 ], [ -61.622651, -13.496307 ], [ -61.62568, -13.499444 ], [ -61.62229, -13.51421 ], [ -61.628456, -13.51509 ], [ -61.644535, -13.506407 ], [ -61.645399, -13.516112 ], [ -61.650921, -13.518303 ], [ -61.668426, -13.509414 ], [ -61.668264, -13.504649 ], [ -61.68565, -13.508766 ], [ -61.692901, -13.499515 ], [ -61.695313, -13.500034 ], [ -61.693313, -13.507672 ], [ -61.703784, -13.511426 ], [ -61.702514, -13.514709 ], [ -61.724623, -13.521905 ], [ -61.734179, -13.518215 ], [ -61.730285, -13.526136 ], [ -61.737357, -13.526818 ], [ -61.751176, -13.520007 ], [ -61.757262, -13.523791 ], [ -61.753149, -13.531162 ], [ -61.753957, -13.536642 ], [ -61.756816, -13.540167 ], [ -61.763981, -13.5388 ], [ -61.768701, -13.518904 ], [ -61.776063, -13.51735 ], [ -61.777622, -13.532579 ], [ -61.784336, -13.536685 ], [ -61.789456, -13.537458 ], [ -61.816592, -13.527029 ], [ -61.810726, -13.539824 ], [ -61.817927, -13.538944 ], [ -61.820646, -13.53341 ], [ -61.83312, -13.538884 ], [ -61.840562, -13.548506 ], [ -61.842903, -13.540958 ], [ -61.83821, -13.5343 ], [ -61.839812, -13.526559 ], [ -61.846622, -13.527082 ], [ -61.852374, -13.538082 ], [ -61.865589, -13.531304 ], [ -61.871564, -13.51296 ], [ -61.882678, -13.496892 ], [ -61.880539, -13.479192 ], [ -61.882811, -13.456419 ], [ -61.892455, -13.43052 ], [ -61.898731, -13.426428 ], [ -61.907065, -13.433733 ], [ -61.913814, -13.433325 ], [ -61.928292, -13.425166 ], [ -61.930424, -13.417008 ], [ -61.939845, -13.407447 ], [ -61.947457, -13.414979 ], [ -61.955757, -13.407846 ], [ -61.97009, -13.405768 ], [ -61.961813, -13.390738 ], [ -61.966982, -13.386418 ], [ -61.976786, -13.387672 ], [ -61.970844, -13.373842 ], [ -61.979956, -13.365087 ], [ -61.997234, -13.362826 ], [ -61.999096, -13.364633 ], [ -61.993839, -13.370397 ], [ -61.996201, -13.373981 ], [ -62.000013, -13.370563 ], [ -62.013647, -13.351944 ], [ -62.013151, -13.330054 ], [ -62.016675, -13.326877 ], [ -62.024534, -13.327171 ], [ -62.032179, -13.333229 ], [ -62.045703, -13.315844 ], [ -62.056376, -13.311369 ], [ -62.056425, -13.287794 ], [ -62.070732, -13.295731 ], [ -62.074412, -13.291777 ], [ -62.083761, -13.289901 ], [ -62.084621, -13.281677 ], [ -62.092256, -13.28131 ], [ -62.097653, -13.272307 ], [ -62.113454, -13.260593 ], [ -62.108696, -13.23381 ], [ -62.108538, -13.218633 ], [ -62.112985, -13.211283 ], [ -62.117154, -13.176743 ], [ -62.114676, -13.163275 ], [ -62.119176, -13.153127 ] ] ] } },
{ "type": "Feature", "properties": { "MACRO_ID": "1102", "MACRO_NAME": "Macrorregião I - Porto Velho", "id": "110002", "name": "Ariquemes", "description": "Ariquemes", "MUN_ID": "110002", "UF": "RO", "HREG_ID": "11001", "HREG_NAME": "Vale do Jamari" }, "geometry": { "type": "Polygon", "coordinates": [ [ [ -63.14818, -11.074227 ], [ -63.164376, -11.066699 ], [ -63.182035, -11.066424 ], [ -63.195883, -11.08217 ], [ -63.189473, -11.091241 ], [ -63.194927, -11.102993 ], [ -63.20461, -11.105237 ], [ -63.220009, -11.120604 ], [ -63.232738, -11.126874 ], [ -63.244871, -11.146746 ], [ -63.253505, -11.151512 ], [ -63.28818, -11.152836 ], [ -63.304411, -11.141816 ], [ -63.304268, -11.137363 ], [ -63.301921, -11.132142 ], [ -63.303967, -11.127956 ], [ -63.319512, -11.115432 ], [ -63.319285, -11.108892 ], [ -63.330782, -11.099628 ], [ -63.334864, -11.08871 ], [ -63.327478, -11.075598 ], [ -63.340815, -11.063395 ], [ -63.352787, -11.065511 ], [ -63.363699, -11.074376 ], [ -63.377007, -11.074995 ], [ -63.383484, -11.071651 ], [ -63.38364, -11.056871 ], [ -63.402006, -11.048556 ], [ -63.413337, -11.048698 ], [ -63.419229, -11.039243 ], [ -63.432562, -11.029557 ], [ -63.466255, -11.031286 ], [ -63.480566, -11.026803 ], [ -63.499754, -11.042276 ], [ -63.527623, -11.045331 ], [ -63.541795, -11.034415 ], [ -63.552899, -11.03901 ], [ -63.55745, -11.031461 ], [ -63.566031, -11.033507 ], [ -63.569059, -11.022471 ], [ -63.581954, -11.010242 ], [ -63.62648, -11.004623 ], [ -63.629595, -11.005144 ], [ -63.623282, -11.011871 ], [ -63.616808, -11.015488 ], [ -63.594381, -11.017822 ], [ -63.580027, -11.030757 ], [ -63.584542, -11.044773 ], [ -63.581133, -11.054263 ], [ -63.585065, -11.059483 ], [ -63.581735, -11.068781 ], [ -63.593393, -11.080098 ], [ -63.592621, -11.094846 ], [ -63.602137, -11.138705 ], [ -63.596115, -11.149397 ], [ -63.597269, -11.162685 ], [ -63.587331, -11.182959 ], [ -63.587484, -11.208993 ], [ -63.582415, -11.21191 ], [ -63.576542, -11.224747 ], [ -63.583992, -11.227047 ], [ -63.589986, -11.239399 ], [ -63.585015, -11.247049 ], [ -63.589863, -11.247665 ], [ -63.592968, -11.254466 ], [ -63.593472, -11.260366 ], [ -63.587992, -11.260034 ], [ -63.58977, -11.265198 ], [ -63.58563, -11.273232 ], [ -63.587896, -11.282534 ], [ -63.574969, -11.282421 ], [ -63.552097, -11.306573 ], [ -63.541369, -11.305571 ], [ -63.537368, -11.308111 ], [ -63.536783, -11.315872 ], [ -63.542536, -11.325932 ], [ -63.528774, -11.337664 ], [ -63.52112, -11.357601 ], [ -63.521442, -11.368699 ], [ -63.519009, -11.371125 ], [ -63.540175, -11.379874 ], [ -63.538677, -11.388482 ], [ -63.543646, -11.390689 ], [ -63.548231, -11.387998 ], [ -63.548188, -11.392117 ], [ -63.551647, -11.3931 ], [ -63.556952, -11.402776 ], [ -63.548316, -11.413094 ], [ -63.552505, -11.417127 ], [ -63.558345, -11.417976 ], [ -63.564984, -11.41203 ], [ -63.57953, -11.416284 ], [ -63.581728, -11.411056 ], [ -63.593367, -11.415784 ], [ -63.597815, -11.411526 ], [ -63.601199, -11.413131 ], [ -63.595207, -11.423813 ], [ -63.599293, -11.43662 ], [ -63.591064, -11.444952 ], [ -63.598176, -11.441574 ], [ -63.604813, -11.456619 ], [ -63.603424, -11.466971 ], [ -63.60659, -11.470822 ], [ -63.60687, -11.48087 ], [ -63.613976, -11.481666 ], [ -63.616512, -11.489285 ], [ -63.605623, -11.490819 ], [ -63.59398, -11.504073 ], [ -63.60255, -11.506407 ], [ -63.61217, -11.519741 ], [ -63.610364, -11.528568 ], [ -63.615786, -11.531289 ], [ -63.611837, -11.53678 ], [ -63.622734, -11.537825 ], [ -63.620759, -11.541727 ], [ -63.615538, -11.54195 ], [ -63.612504, -11.548664 ], [ -63.614982, -11.554072 ], [ -63.608313, -11.556465 ], [ -63.604094, -11.563137 ], [ -63.607808, -11.56985 ], [ -63.604477, -11.5839 ], [ -63.598123, -11.593294 ], [ -63.604298, -11.601661 ], [ -63.61674, -11.599432 ], [ -63.619528, -11.605436 ], [ -63.635982, -11.607194 ], [ -63.646481, -11.626209 ], [ -63.658682, -11.608335 ], [ -63.66561, -11.619033 ], [ -63.66642, -11.6301 ], [ -63.679218, -11.623954 ], [ -63.675341, -11.640162 ], [ -63.679382, -11.644018 ], [ -63.688041, -11.650545 ], [ -63.690651, -11.642198 ], [ -63.696874, -11.641388 ], [ -63.705593, -11.650441 ], [ -63.716314, -11.649155 ], [ -63.722819, -11.640326 ], [ -63.727304, -11.640351 ], [ -63.727218, -11.645506 ], [ -63.741341, -11.648787 ], [ -63.744476, -11.661873 ], [ -63.770448, -11.665617 ], [ -63.775765, -11.660951 ], [ -63.785748, -11.666509 ], [ -63.798618, -11.667912 ], [ -63.805838, -11.674026 ], [ -63.810727, -11.670625 ], [ -63.821034, -11.673857 ], [ -63.831538, -11.683935 ], [ -63.838227, -11.680097 ], [ -63.844393, -11.684677 ], [ -63.858836, -11.703907 ], [ -63.868898, -11.709309 ], [ -63.879148, -11.727928 ], [ -63.895638, -11.722101 ], [ -63.902231, -11.718431 ], [ -63.923483, -11.729983 ], [ -63.934644, -11.725894 ], [ -63.948504, -11.7287 ], [ -63.963476, -11.737574 ], [ -63.965763, -11.735078 ], [ -63.965881, -11.740266 ], [ -63.966148, -11.744925 ], [ -63.973927, -11.753638 ], [ -63.979623, -11.747386 ], [ -63.990649, -11.747175 ], [ -63.993951, -11.752429 ], [ -64.001456, -11.752306 ], [ -64.018844, -11.763389 ], [ -64.024259, -11.759341 ], [ -64.024509, -11.745346 ], [ -64.0309, -11.74336 ], [ -64.04193, -11.745785 ], [ -64.043426, -11.75127 ], [ -64.035682, -11.752769 ], [ -64.039837, -11.763697 ], [ -64.045817, -11.757721 ], [ -64.049881, -11.76633 ], [ -64.053113, -11.764634 ], [ -64.064311, -11.770572 ], [ -64.076792, -11.769925 ], [ -64.078424, -11.775098 ], [ -64.088424, -11.783398 ], [ -64.101175, -11.782603 ], [ -64.103226, -11.787958 ], [ -64.097173, -11.793323 ], [ -64.109709, -11.807321 ], [ -64.106875, -11.813562 ], [ -64.116678, -11.827112 ], [ -64.120647, -11.831143 ], [ -64.126875, -11.828938 ], [ -64.127366, -11.836236 ], [ -64.123651, -11.841021 ], [ -64.120785, -11.840007 ], [ -64.121339, -11.848258 ], [ -64.127924, -11.863042 ], [ -64.130676, -11.860746 ], [ -64.135147, -11.864394 ], [ -64.130203, -11.867266 ], [ -64.130258, -11.871935 ], [ -64.144424, -11.882884 ], [ -64.139987, -11.88526 ], [ -64.144091, -11.895524 ], [ -64.15004, -11.902559 ], [ -64.154069, -11.90271 ], [ -64.155334, -11.912717 ], [ -64.157397, -11.909684 ], [ -64.160513, -11.912667 ], [ -64.163287, -11.909735 ], [ -64.166006, -11.911474 ], [ -64.164537, -11.916588 ], [ -64.168645, -11.916423 ], [ -64.168733, -11.91192 ], [ -64.173979, -11.917312 ], [ -64.175265, -11.911698 ], [ -64.19965, -11.907951 ], [ -64.206423, -11.911718 ], [ -64.202174, -11.918857 ], [ -64.207846, -11.916301 ], [ -64.212367, -11.922894 ], [ -64.215707, -11.917197 ], [ -64.215094, -11.925033 ], [ -64.218679, -11.922203 ], [ -64.225263, -11.932608 ], [ -64.23673, -11.935067 ], [ -64.244681, -11.946997 ], [ -64.257034, -11.954445 ], [ -64.2579, -11.960061 ], [ -64.241903, -11.966018 ], [ -64.244987, -11.971013 ], [ -64.239115, -11.973209 ], [ -64.244759, -11.980028 ], [ -64.253706, -11.980659 ], [ -64.259674, -11.992356 ], [ -64.273839, -11.99514 ], [ -64.276537, -11.99864 ], [ -64.27757, -11.995345 ], [ -64.285288, -11.996107 ], [ -64.286621, -12.004246 ], [ -64.291564, -12.009991 ], [ -64.294672, -12.007641 ], [ -64.300927, -12.009989 ], [ -64.300066, -12.01557 ], [ -64.304675, -12.016411 ], [ -64.315709, -12.008772 ], [ -64.322509, -12.009635 ], [ -64.348342, -12.037764 ], [ -64.35306, -12.036 ], [ -64.364671, -12.052415 ], [ -64.375284, -12.058958 ], [ -64.375512, -12.071212 ], [ -64.37957, -12.079156 ], [ -64.374536, -12.079217 ], [ -64.377811, -12.08241 ], [ -64.376288, -12.089031 ], [ -64.381457, -12.092411 ], [ -64.379289, -12.100213 ], [ -64.384372, -12.110801 ], [ -64.388069, -12.111101 ], [ -64.386618, -12.106185 ], [ -64.397705, -12.104948 ], [ -64.399174, -12.111511 ], [ -64.410653, -12.107943 ], [ -64.418292, -12.113787 ], [ -64.42134, -12.108084 ], [ -64.424759, -12.119356 ], [ -64.421536, -12.12667 ], [ -64.426068, -12.13531 ], [ -64.431836, -12.130307 ], [ -64.440263, -12.140463 ], [ -64.44723, -12.143635 ], [ -64.448296, -12.149926 ], [ -64.43676, -12.156561 ], [ -64.438618, -12.160104 ], [ -64.44298, -12.157582 ], [ -64.447201, -12.163456 ], [ -64.4464, -12.172238 ], [ -64.453291, -12.182346 ], [ -64.472119, -12.182292 ], [ -64.47557, -12.186233 ], [ -64.47404, -12.190563 ], [ -64.468569, -12.188721 ], [ -64.466343, -12.196605 ], [ -64.469033, -12.199297 ], [ -64.48038, -12.203106 ], [ -64.484398, -12.208891 ], [ -64.498025, -12.195953 ], [ -64.503702, -12.194601 ], [ -64.51287, -12.200165 ], [ -64.516596, -12.212615 ], [ -64.524574, -12.2108 ], [ -64.538623, -12.214999 ], [ -64.543284, -12.201372 ], [ -64.542902, -12.190953 ], [ -64.552468, -12.1806 ], [ -64.577952, -12.178357 ], [ -64.586203, -12.184632 ], [ -64.59401, -12.215302 ], [ -64.615675, -12.21432 ], [ -64.671011, -12.192282 ], [ -64.698286, -12.186766 ], [ -64.7124, -12.173183 ], [ -64.717255, -12.14207 ], [ -64.713087, -12.123108 ], [ -64.697814, -12.103197 ], [ -64.69709, -12.095697 ], [ -64.712427, -12.085986 ], [ -64.72098, -12.087699 ], [ -64.7378, -12.099454 ], [ -64.733152, -12.117711 ], [ -64.736483, -12.139841 ], [ -64.741232, -12.150808 ], [ -64.749396, -12.157169 ], [ -64.762314, -12.153747 ], [ -64.768564, -12.143288 ], [ -64.756958, -12.111909 ], [ -64.75932, -12.101901 ], [ -64.765208, -12.095911 ], [ -64.787928, -12.085393 ], [ -64.803265, -12.087253 ], [ -64.821374, -12.118446 ], [ -64.832064, -12.121309 ], [ -64.842457, -12.105202 ], [ -64.84187, -12.094199 ], [ -64.831673, -12.080615 ], [ -64.810726, -12.067541 ], [ -64.808926, -12.058696 ], [ -64.812149, -12.044475 ], [ -64.828234, -12.017587 ], [ -64.839042, -12.010283 ], [ -64.848371, -12.008514 ], [ -64.856339, -12.011742 ], [ -64.883127, -12.01327 ], [ -64.91648, -12.027987 ], [ -64.929398, -12.020209 ], [ -64.941202, -11.998143 ], [ -64.947843, -11.993031 ], [ -64.963821, -11.998567 ], [ -64.970405, -12.016183 ], [ -64.976375, -12.017892 ], [ -64.983622, -12.013975 ], [ -65.00001, -11.992977 ], [ -65.00797, -11.992694 ], [ -65.022063, -11.998756 ], [ -65.029981, -11.996209 ], [ -65.034515, -11.988495 ], [ -65.025206, -11.970349 ], [ -65.031565, -11.96589 ], [ -65.03934, -11.969946 ], [ -65.041484, -11.961276 ], [ -65.027096, -11.945415 ], [ -65.014399, -11.900511 ], [ -65.018314, -11.89169 ], [ -65.032036, -11.886846 ], [ -65.057096, -11.883561 ], [ -65.070149, -11.868714 ], [ -65.07029, -11.855972 ], [ -65.06079, -11.823897 ], [ -65.059179, -11.790283 ], [ -65.0792, -11.73576 ], [ -65.080015, -11.719973 ], [ -65.087594, -11.708985 ], [ -65.099369, -11.705507 ], [ -65.127701, -11.720116 ], [ -65.182427, -11.721309 ], [ -65.18559, -11.727952 ], [ -65.175541, -11.74088 ], [ -65.17307, -11.751627 ], [ -65.180903, -11.756176 ], [ -65.204236, -11.749068 ], [ -65.243649, -11.725988 ], [ -65.255396, -11.715125 ], [ -65.26009, -11.706479 ], [ -65.258845, -11.699368 ], [ -65.230784, -11.673329 ], [ -65.217367, -11.651694 ], [ -65.217674, -11.641382 ], [ -65.231257, -11.61791 ], [ -65.226287, -11.606535 ], [ -65.22481, -11.596047 ], [ -65.233502, -11.582054 ], [ -65.233981, -11.570053 ], [ -65.213041, -11.546732 ], [ -65.211202, -11.532447 ], [ -65.214309, -11.523157 ], [ -65.224457, -11.516053 ], [ -65.256788, -11.514099 ], [ -65.298011, -11.50404 ], [ -65.304373, -11.501206 ], [ -65.308592, -11.493247 ], [ -65.323682, -11.416352 ], [ -65.326563, -11.383989 ], [ -65.334865, -11.354552 ], [ -65.32873, -11.340041 ], [ -65.297119, -11.334687 ], [ -65.29148, -11.330745 ], [ -65.291262, -11.323769 ], [ -65.298068, -11.315693 ], [ -65.337168, -11.312865 ], [ -65.34547, -11.304633 ], [ -65.360786, -11.250963 ], [ -65.360152, -11.222926 ], [ -65.348314, -11.210953 ], [ -65.32289, -11.210162 ], [ -65.318144, -11.199025 ], [ -65.324035, -11.186641 ], [ -65.330451, -11.185293 ], [ -65.342755, -11.189922 ], [ -65.350316, -11.186 ], [ -65.362949, -11.146874 ], [ -65.362228, -11.137409 ], [ -65.347538, -11.118334 ], [ -65.327533, -11.104564 ], [ -65.285781, -11.091814 ], [ -65.279256, -11.078725 ], [ -65.280312, -11.063191 ], [ -65.300005, -11.038937 ], [ -65.300705, -11.031737 ], [ -65.269456, -11.000028 ], [ -65.252293, -10.992647 ], [ -65.250314, -10.984154 ], [ -65.266399, -10.963522 ], [ -65.273679, -10.94377 ], [ -65.285285, -10.92728 ], [ -65.282925, -10.918649 ], [ -65.266067, -10.921416 ], [ -65.275011, -10.870769 ], [ -65.320312, -10.821633 ], [ -65.338975, -10.807616 ], [ -65.354154, -10.804599 ], [ -65.36642, -10.795865 ], [ -65.36498, -10.779684 ], [ -65.351117, -10.780613 ], [ -65.347625, -10.778052 ], [ -65.344672, -10.758573 ], [ -65.349035, -10.743066 ], [ -65.343004, -10.715909 ], [ -65.344096, -10.690463 ], [ -65.348205, -10.67232 ], [ -65.357792, -10.657 ], [ -65.359829, -10.655422 ], [ -65.375228, -10.64619 ], [ -65.396699, -10.645089 ], [ -65.4037, -10.641874 ], [ -65.405258, -10.63319 ], [ -65.410343, -10.630328 ], [ -65.416203, -10.618297 ], [ -65.408735, -10.614021 ], [ -65.410059, -10.601084 ], [ -65.401748, -10.592337 ], [ -65.397283, -10.589076 ], [ -65.397544, -10.578762 ], [ -65.404149, -10.553363 ], [ -65.419751, -10.534136 ], [ -65.410256, -10.508226 ], [ -65.424061, -10.493041 ], [ -65.429202, -10.480559 ], [ -65.422808, -10.46393 ], [ -65.402423, -10.462392 ], [ -65.389889, -10.447209 ], [ -65.380955, -10.428685 ], [ -65.379809, -10.400553 ], [ -65.391257, -10.374048 ], [ -65.375361, -10.351792 ], [ -65.362535, -10.342893 ], [ -65.346956, -10.321213 ], [ -65.323837, -10.300844 ], [ -65.310466, -10.25779 ], [ -65.306227, -10.24944 ], [ -65.29429, -10.238714 ], [ -65.292655, -10.227269 ], [ -65.288285, -10.219482 ], [ -65.288952, -10.210251 ], [ -65.301468, -10.185775 ], [ -65.306481, -10.164609 ], [ -65.299744, -10.139072 ], [ -65.300836, -10.097609 ], [ -65.315564, -10.084752 ], [ -65.326775, -10.062278 ], [ -65.329126, -10.046138 ], [ -65.319507, -10.000568 ], [ -65.321675, -9.977263 ], [ -65.332537, -9.965303 ], [ -65.332466, -9.943894 ], [ -65.331286, -9.929627 ], [ -65.320674, -9.90562 ], [ -65.290752, -9.87124 ], [ -65.285503, -9.845103 ], [ -65.292419, -9.832911 ], [ -65.319977, -9.814145 ], [ -65.327527, -9.77963 ], [ -65.342512, -9.753139 ], [ -65.354057, -9.723295 ], [ -65.363259, -9.711199 ], [ -65.394394, -9.685386 ], [ -65.442893, -9.668936 ], [ -65.446257, -9.669308 ], [ -65.445966, -9.674508 ], [ -65.441559, -9.679294 ], [ -65.440948, -9.685962 ], [ -65.44653, -9.696717 ], [ -65.471312, -9.713298 ], [ -65.481094, -9.71381 ], [ -65.486036, -9.707471 ], [ -65.489339, -9.714936 ], [ -65.482397, -9.727208 ], [ -65.500475, -9.729452 ], [ -65.503675, -9.767309 ], [ -65.497701, -9.777984 ], [ -65.501507, -9.78545 ], [ -65.51298, -9.792783 ], [ -65.517943, -9.78957 ], [ -65.531635, -9.78122 ], [ -65.538758, -9.801578 ], [ -65.552702, -9.803984 ], [ -65.558894, -9.810404 ], [ -65.56378, -9.809867 ], [ -65.564088, -9.819393 ], [ -65.552452, -9.835013 ], [ -65.554195, -9.841519 ], [ -65.559811, -9.844275 ], [ -65.569457, -9.837655 ], [ -65.596408, -9.841523 ], [ -65.597117, -9.827173 ], [ -65.600563, -9.823782 ], [ -65.618244, -9.832095 ], [ -65.625057, -9.836519 ], [ -65.63003, -9.833993 ], [ -65.634866, -9.804891 ], [ -65.639843, -9.806056 ], [ -65.646814, -9.815452 ], [ -65.650341, -9.81456 ], [ -65.653316, -9.807197 ], [ -65.643638, -9.793752 ], [ -65.64681, -9.791083 ], [ -65.65962, -9.793028 ], [ -65.668342, -9.780756 ], [ -65.688836, -9.799459 ], [ -65.689143, -9.81232 ], [ -65.710002, -9.806933 ], [ -65.699473, -9.787792 ], [ -65.709305, -9.772184 ], [ -65.707561, -9.765665 ], [ -65.703617, -9.763457 ], [ -65.688673, -9.768447 ], [ -65.680923, -9.766934 ], [ -65.678509, -9.759762 ], [ -65.685506, -9.760697 ], [ -65.684424, -9.748621 ], [ -65.695226, -9.749251 ], [ -65.705753, -9.75708 ], [ -65.71834, -9.755567 ], [ -65.728538, -9.759274 ], [ -65.735482, -9.766319 ], [ -65.736787, -9.779445 ], [ -65.743699, -9.781696 ], [ -65.75645, -9.765858 ], [ -65.772113, -9.757801 ], [ -65.768087, -9.74324 ], [ -65.767424, -9.735153 ], [ -65.777364, -9.736439 ], [ -65.778947, -9.748644 ], [ -65.774812, -9.766468 ], [ -65.780344, -9.771733 ], [ -65.783197, -9.785957 ], [ -65.79398, -9.791405 ], [ -65.797114, -9.785742 ], [ -65.801116, -9.78923 ], [ -65.805174, -9.787701 ], [ -65.812584, -9.772027 ], [ -65.801057, -9.765364 ], [ -65.799337, -9.756285 ], [ -65.806813, -9.761827 ], [ -65.814886, -9.754699 ], [ -65.818589, -9.755073 ], [ -65.819949, -9.76605 ], [ -65.829643, -9.767051 ], [ -65.833955, -9.775633 ], [ -65.842976, -9.783063 ], [ -65.840898, -9.789409 ], [ -65.860116, -9.794751 ], [ -65.871677, -9.788586 ], [ -65.86751, -9.781247 ], [ -65.868259, -9.773461 ], [ -65.86131, -9.767389 ], [ -65.867842, -9.761583 ], [ -65.870816, -9.753002 ], [ -65.885365, -9.752096 ], [ -65.898531, -9.75958 ], [ -65.902536, -9.766439 ], [ -65.914814, -9.762459 ], [ -65.915142, -9.753357 ], [ -65.92259, -9.75374 ], [ -65.924842, -9.759058 ], [ -65.922231, -9.763338 ], [ -65.926064, -9.762126 ], [ -65.933499, -9.768542 ], [ -65.936726, -9.768466 ], [ -65.938644, -9.761731 ], [ -65.942648, -9.759705 ], [ -65.952785, -9.768455 ], [ -65.966613, -9.770264 ], [ -65.97187, -9.775096 ], [ -65.973587, -9.797529 ], [ -65.963563, -9.80115 ], [ -65.964233, -9.803902 ], [ -65.980479, -9.80094 ], [ -65.980673, -9.808268 ], [ -65.989008, -9.801221 ], [ -65.992255, -9.803722 ], [ -65.998118, -9.801907 ], [ -65.999198, -9.794021 ], [ -66.017621, -9.810449 ], [ -66.023619, -9.811862 ], [ -66.034308, -9.787137 ], [ -66.070563, -9.783911 ], [ -66.086589, -9.78965 ], [ -66.077783, -9.795702 ], [ -66.083974, -9.799658 ], [ -66.092979, -9.813608 ], [ -66.10031, -9.806552 ], [ -66.097224, -9.790917 ], [ -66.099647, -9.784343 ], [ -66.105259, -9.78273 ], [ -66.109675, -9.784754 ], [ -66.109472, -9.789126 ], [ -66.122308, -9.790715 ], [ -66.127203, -9.786143 ], [ -66.130034, -9.789514 ], [ -66.140453, -9.78807 ], [ -66.144393, -9.791048 ], [ -66.151477, -9.785232 ], [ -66.171925, -9.7929 ], [ -66.175699, -9.802929 ], [ -66.194508, -9.805923 ], [ -66.196061, -9.814357 ], [ -66.185279, -9.821968 ], [ -66.188976, -9.823732 ], [ -66.194476, -9.819334 ], [ -66.197173, -9.8244 ], [ -66.193917, -9.828375 ], [ -66.203122, -9.834236 ], [ -66.21276, -9.833869 ], [ -66.219202, -9.827573 ], [ -66.237113, -9.81421 ], [ -66.241341, -9.826591 ], [ -66.247789, -9.820648 ], [ -66.248531, -9.826868 ], [ -66.254528, -9.83292 ], [ -66.262788, -9.830259 ], [ -66.274285, -9.834453 ], [ -66.274756, -9.826586 ], [ -66.279171, -9.828323 ], [ -66.283034, -9.832816 ], [ -66.282033, -9.841112 ], [ -66.285647, -9.844331 ], [ -66.30434, -9.83495 ], [ -66.307727, -9.840076 ], [ -66.315259, -9.83103 ], [ -66.318952, -9.836534 ], [ -66.349946, -9.840339 ], [ -66.35084, -9.846579 ], [ -66.355422, -9.848379 ], [ -66.359063, -9.865765 ], [ -66.381726, -9.867464 ], [ -66.402566, -9.863176 ], [ -66.402371, -9.868411 ], [ -66.410563, -9.875104 ], [ -66.411534, -9.881641 ], [ -66.416724, -9.8824 ], [ -66.423175, -9.890506 ], [ -66.421036, -9.894724 ], [ -66.411759, -9.893556 ], [ -66.425697, -9.899243 ], [ -66.43162, -9.891592 ], [ -66.424343, -9.873342 ], [ -66.435254, -9.865627 ], [ -66.444643, -9.871059 ], [ -66.459532, -9.873752 ], [ -66.454036, -9.877002 ], [ -66.455755, -9.879496 ], [ -66.47009, -9.868577 ], [ -66.480484, -9.86806 ], [ -66.488562, -9.87035 ], [ -66.490591, -9.882099 ], [ -66.494256, -9.883972 ], [ -66.50145, -9.881695 ], [ -66.500034, -9.874974 ], [ -66.512783, -9.876032 ], [ -66.516201, -9.882794 ], [ -66.528065, -9.88644 ], [ -66.543313, -9.877061 ], [ -66.548395, -9.888422 ], [ -66.559001, -9.880551 ], [ -66.564011, -9.883105 ], [ -66.565343, -9.885921 ], [ -66.561695, -9.889042 ], [ -66.566761, -9.894268 ], [ -66.573809, -9.889695 ], [ -66.578315, -9.894375 ], [ -66.581784, -9.905483 ], [ -66.587033, -9.899916 ], [ -66.61936, -9.893661 ], [ -66.644389, -9.88297 ], [ -66.805734, -9.814048 ], [ -66.780029, -9.791008 ], [ -66.776702, -9.768271 ], [ -66.777726, -9.76616 ], [ -66.78159, -9.758187 ], [ -66.774813, -9.752706 ], [ -66.75792, -9.759975 ], [ -66.724839, -9.755687 ], [ -66.700755, -9.742975 ], [ -66.691253, -9.733505 ], [ -66.684394, -9.714261 ], [ -66.623616, -9.680434 ], [ -66.608899, -9.664514 ], [ -66.585757, -9.673174 ], [ -66.578566, -9.667848 ], [ -66.551171, -9.657675 ], [ -66.536339, -9.643164 ], [ -66.500064, -9.633178 ], [ -66.495876, -9.613863 ], [ -66.494368, -9.601198 ], [ -66.466921, -9.581826 ], [ -66.456039, -9.569019 ], [ -66.438386, -9.554005 ], [ -66.423029, -9.525403 ], [ -66.391866, -9.500096 ], [ -66.389504, -9.455245 ], [ -66.395561, -9.437136 ], [ -66.414174, -9.421565 ], [ -66.413502, -9.413309 ], [ -66.40831, -9.406562 ], [ -66.374228, -9.425982 ], [ -66.366259, -9.424777 ], [ -66.352758, -9.416235 ], [ -66.345279, -9.419525 ], [ -66.341063, -9.426632 ], [ -66.332666, -9.427283 ], [ -66.318368, -9.419579 ], [ -66.313057, -9.425689 ], [ -66.31431, -9.43343 ], [ -66.30695, -9.436461 ], [ -66.283638, -9.431779 ], [ -66.289892, -9.41211 ], [ -66.259121, -9.410612 ], [ -66.242867, -9.429003 ], [ -66.234758, -9.43049 ], [ -66.22001, -9.424919 ], [ -66.204199, -9.425589 ], [ -66.173086, -9.434034 ], [ -66.158448, -9.42619 ], [ -66.153813, -9.420089 ], [ -66.128727, -9.410366 ], [ -66.11568, -9.4086 ], [ -66.100616, -9.413619 ], [ -66.059193, -9.417833 ], [ -66.045917, -9.40896 ], [ -66.041865, -9.401988 ], [ -66.021232, -9.401147 ], [ -66.002029, -9.403873 ], [ -65.985898, -9.412743 ], [ -65.969755, -9.412775 ], [ -65.966506, -9.41972 ], [ -65.952615, -9.428377 ], [ -65.951091, -9.435878 ], [ -65.931335, -9.447209 ], [ -65.921926, -9.470512 ], [ -65.912089, -9.483365 ], [ -65.897476, -9.488663 ], [ -65.880362, -9.48708 ], [ -65.859808, -9.510383 ], [ -65.852005, -9.510316 ], [ -65.846062, -9.516026 ], [ -65.847703, -9.531939 ], [ -65.840255, -9.533729 ], [ -65.824532, -9.529706 ], [ -65.817481, -9.561869 ], [ -65.810146, -9.564021 ], [ -65.804838, -9.570126 ], [ -65.799476, -9.584636 ], [ -65.790977, -9.585259 ], [ -65.777483, -9.577137 ], [ -65.770169, -9.56497 ], [ -65.756003, -9.568569 ], [ -65.749782, -9.553237 ], [ -65.742232, -9.552581 ], [ -65.729422, -9.562686 ], [ -65.723002, -9.558671 ], [ -65.695535, -9.507286 ], [ -65.680453, -9.500022 ], [ -65.678891, -9.451007 ], [ -65.672232, -9.445964 ], [ -65.656642, -9.448893 ], [ -65.64934, -9.446886 ], [ -65.641089, -9.433082 ], [ -65.634228, -9.429314 ], [ -65.617723, -9.425591 ], [ -65.596231, -9.41348 ], [ -65.587564, -9.413388 ], [ -65.547704, -9.42566 ], [ -65.521868, -9.446519 ], [ -65.514193, -9.449125 ], [ -65.506006, -9.447312 ], [ -65.502949, -9.456562 ], [ -65.502619, -9.46959 ], [ -65.492257, -9.473278 ], [ -65.476423, -9.472278 ], [ -65.467337, -9.458905 ], [ -65.456114, -9.470133 ], [ -65.452492, -9.468626 ], [ -65.442131, -9.464315 ], [ -65.434172, -9.465947 ], [ -65.431555, -9.458249 ], [ -65.442787, -9.419761 ], [ -65.454116, -9.408221 ], [ -65.456057, -9.400823 ], [ -65.445586, -9.370303 ], [ -65.447147, -9.3454 ], [ -65.443085, -9.329966 ], [ -65.448558, -9.324194 ], [ -65.446475, -9.31599 ], [ -65.439675, -9.31136 ], [ -65.416253, -9.319151 ], [ -65.409255, -9.32207 ], [ -65.392979, -9.339211 ], [ -65.384668, -9.337646 ], [ -65.379005, -9.332462 ], [ -65.37697, -9.324041 ], [ -65.350698, -9.322724 ], [ -65.342147, -9.309075 ], [ -65.299893, -9.286688 ], [ -65.28364, -9.269883 ], [ -65.246119, -9.257278 ], [ -65.239528, -9.261041 ], [ -65.21123, -9.278608 ], [ -65.207483, -9.285248 ], [ -65.206612, -9.293251 ], [ -65.210471, -9.300643 ], [ -65.208414, -9.309258 ], [ -65.187783, -9.344467 ], [ -65.196447, -9.367054 ], [ -65.195616, -9.374877 ], [ -65.173002, -9.385062 ], [ -65.174111, -9.393395 ], [ -65.186281, -9.41464 ], [ -65.184082, -9.426605 ], [ -65.176782, -9.42625 ], [ -65.154587, -9.436773 ], [ -65.142339, -9.446426 ], [ -65.130234, -9.441909 ], [ -65.113176, -9.432392 ], [ -65.097308, -9.432129 ], [ -65.088369, -9.424694 ], [ -65.09175, -9.409 ], [ -65.084217, -9.403788 ], [ -65.077387, -9.400595 ], [ -65.053005, -9.401756 ], [ -65.047092, -9.395806 ], [ -65.046369, -9.386882 ], [ -65.035139, -9.374431 ], [ -65.038767, -9.359195 ], [ -65.029495, -9.356185 ], [ -65.023871, -9.353505 ], [ -65.021478, -9.345619 ], [ -65.005306, -9.343143 ], [ -65.012166, -9.32829 ], [ -65.001315, -9.317515 ], [ -64.999974, -9.304228 ], [ -64.985642, -9.291545 ], [ -64.962339, -9.292391 ], [ -64.953398, -9.278538 ], [ -64.953112, -9.270886 ], [ -64.940141, -9.262016 ], [ -64.932285, -9.240203 ], [ -64.920948, -9.227904 ], [ -64.919142, -9.219894 ], [ -64.926001, -9.205079 ], [ -64.923196, -9.197752 ], [ -64.931363, -9.184541 ], [ -64.928451, -9.177251 ], [ -64.933085, -9.154015 ], [ -64.938774, -9.147919 ], [ -64.939389, -9.12418 ], [ -64.932925, -9.119957 ], [ -64.91514, -9.074229 ], [ -64.91881, -9.050179 ], [ -64.916727, -9.042756 ], [ -64.901001, -9.046301 ], [ -64.893559, -9.043317 ], [ -64.886694, -9.028825 ], [ -64.878492, -9.022432 ], [ -64.869376, -9.011594 ], [ -64.838784, -8.993726 ], [ -64.807285, -8.985167 ], [ -64.783425, -8.988885 ], [ -64.760641, -9.020197 ], [ -64.744028, -9.017884 ], [ -64.730002, -9.012124 ], [ -64.70622, -8.98941 ], [ -64.689143, -8.989898 ], [ -64.682812, -8.993232 ], [ -64.670837, -9.014411 ], [ -64.657168, -9.007828 ], [ -64.640999, -9.006261 ], [ -64.610535, -9.016066 ], [ -64.599717, -9.012084 ], [ -64.587423, -9.009124 ], [ -64.578861, -9.000757 ], [ -64.578315, -8.98803 ], [ -64.568342, -8.991389 ], [ -64.563668, -8.985275 ], [ -64.549586, -8.977885 ], [ -64.53309, -8.975884 ], [ -64.495834, -8.978672 ], [ -64.470643, -8.973359 ], [ -64.454925, -8.977474 ], [ -64.446036, -8.976485 ], [ -64.432703, -8.968096 ], [ -64.407923, -8.960265 ], [ -64.379386, -8.94635 ], [ -64.322863, -8.928475 ], [ -64.315032, -8.929161 ], [ -64.312293, -8.931419 ], [ -64.309032, -8.934107 ], [ -64.312501, -8.950191 ], [ -64.325535, -8.979446 ], [ -64.324752, -8.987684 ], [ -64.310781, -8.996085 ], [ -64.297144, -8.99581 ], [ -64.264534, -8.987996 ], [ -64.232669, -8.991922 ], [ -64.174478, -8.960185 ], [ -64.148916, -8.958551 ], [ -64.142897, -8.953146 ], [ -64.143052, -8.933317 ], [ -64.151166, -8.896848 ], [ -64.148258, -8.872705 ], [ -64.15512, -8.847946 ], [ -64.157667, -8.842782 ], [ -64.154669, -8.835031 ], [ -64.135224, -8.820004 ], [ -64.128923, -8.804777 ], [ -64.144226, -8.776062 ], [ -64.142531, -8.742646 ], [ -64.124059, -8.716329 ], [ -64.110725, -8.724786 ], [ -64.094232, -8.727978 ], [ -64.074617, -8.712722 ], [ -64.066861, -8.71034 ], [ -64.027334, -8.715281 ], [ -64.034947, -8.693173 ], [ -64.015891, -8.667297 ], [ -64.018644, -8.660063 ], [ -64.016168, -8.652116 ], [ -64.00464, -8.641363 ], [ -64.004307, -8.625525 ], [ -63.995491, -8.619539 ], [ -63.99056, -8.617029 ], [ -63.985675, -8.585249 ], [ -63.979729, -8.580303 ], [ -63.972005, -8.582068 ], [ -63.966614, -8.587498 ], [ -63.965063, -8.595541 ], [ -63.953558, -8.606869 ], [ -63.945419, -8.6091 ], [ -63.935478, -8.592473 ], [ -63.921948, -8.566993 ], [ -63.922637, -8.558909 ], [ -63.932661, -8.556968 ], [ -63.945086, -8.550113 ], [ -63.943254, -8.52622 ], [ -63.958214, -8.509619 ], [ -63.970363, -8.498949 ], [ -63.97397, -8.486854 ], [ -63.972643, -8.478063 ], [ -63.940303, -8.45188 ], [ -63.938556, -8.441164 ], [ -63.953193, -8.427581 ], [ -63.977361, -8.419749 ], [ -63.97642, -8.409356 ], [ -63.944839, -8.387442 ], [ -63.943588, -8.330804 ], [ -63.931593, -8.324487 ], [ -63.910302, -8.328141 ], [ -63.903808, -8.321675 ], [ -63.894393, -8.301645 ], [ -63.881471, -8.290846 ], [ -63.866953, -8.288934 ], [ -63.84659, -8.294648 ], [ -63.824805, -8.305769 ], [ -63.790698, -8.332831 ], [ -63.781062, -8.328856 ], [ -63.765406, -8.306797 ], [ -63.746029, -8.269785 ], [ -63.722229, -8.249115 ], [ -63.74803, -8.207482 ], [ -63.746501, -8.1982 ], [ -63.729639, -8.179803 ], [ -63.692888, -8.157965 ], [ -63.675892, -8.127478 ], [ -63.669365, -8.12136 ], [ -63.661916, -8.100788 ], [ -63.668417, -8.091521 ], [ -63.666468, -8.08122 ], [ -63.650338, -8.066057 ], [ -63.638226, -8.046811 ], [ -63.626086, -8.040802 ], [ -63.621247, -8.029228 ], [ -63.625918, -8.015729 ], [ -63.620257, -7.968912 ], [ -63.534204, -7.973943 ], [ -63.441749, -7.97608 ], [ -63.38453, -7.976212 ], [ -63.321471, -7.976158 ], [ -62.867493, -7.975492 ], [ -62.866088, -7.975485 ], [ -62.852833, -7.98718 ], [ -62.844528, -7.986148 ], [ -62.841082, -7.994589 ], [ -62.832306, -7.993988 ], [ -62.820475, -8.014112 ], [ -62.809469, -8.024956 ], [ -62.785673, -8.025959 ], [ -62.743445, -8.044902 ], [ -62.72409, -8.068814 ], [ -62.705889, -8.084929 ], [ -62.691753, -8.092524 ], [ -62.690028, -8.10052 ], [ -62.678615, -8.111288 ], [ -62.684973, -8.116053 ], [ -62.673584, -8.136568 ], [ -62.672501, -8.144926 ], [ -62.678638, -8.160391 ], [ -62.684727, -8.165334 ], [ -62.686137, -8.17339 ], [ -62.672998, -8.19235 ], [ -62.659361, -8.199249 ], [ -62.650499, -8.221645 ], [ -62.654474, -8.228671 ], [ -62.649419, -8.236641 ], [ -62.609836, -8.259415 ], [ -62.599531, -8.271853 ], [ -62.592244, -8.274585 ], [ -62.584861, -8.271495 ], [ -62.580977, -8.27824 ], [ -62.573667, -8.280268 ], [ -62.568699, -8.286893 ], [ -62.561392, -8.283621 ], [ -62.555737, -8.303897 ], [ -62.560636, -8.313446 ], [ -62.554746, -8.319002 ], [ -62.555257, -8.327051 ], [ -62.548588, -8.341757 ], [ -62.551, -8.357809 ], [ -62.53903, -8.357724 ], [ -62.531476, -8.370643 ], [ -62.524942, -8.374961 ], [ -62.525609, -8.382669 ], [ -62.517946, -8.384352 ], [ -62.500302, -8.365742 ], [ -62.486422, -8.358826 ], [ -62.478389, -8.345288 ], [ -62.472444, -8.340367 ], [ -62.464948, -8.339354 ], [ -62.453243, -8.348787 ], [ -62.444804, -8.362097 ], [ -62.431722, -8.371642 ], [ -62.415695, -8.376242 ], [ -62.399498, -8.374417 ], [ -62.383502, -8.37717 ], [ -62.364557, -8.390636 ], [ -62.359445, -8.406611 ], [ -62.360694, -8.423304 ], [ -62.368755, -8.445733 ], [ -62.363194, -8.477841 ], [ -62.365524, -8.493175 ], [ -62.359557, -8.505977 ], [ -62.353452, -8.511315 ], [ -62.336833, -8.516251 ], [ -62.332697, -8.527376 ], [ -62.333809, -8.545808 ], [ -62.325279, -8.56332 ], [ -62.327199, -8.57215 ], [ -62.341473, -8.594456 ], [ -62.340558, -8.602442 ], [ -62.335252, -8.609097 ], [ -62.288977, -8.638709 ], [ -62.280778, -8.638203 ], [ -62.278809, -8.628783 ], [ -62.293782, -8.605054 ], [ -62.288831, -8.588517 ], [ -62.273754, -8.582545 ], [ -62.268363, -8.575372 ], [ -62.242285, -8.580275 ], [ -62.227928, -8.590187 ], [ -62.202615, -8.59456 ], [ -62.187863, -8.590172 ], [ -62.174166, -8.627816 ], [ -62.176117, -8.636531 ], [ -62.19528, -8.636441 ], [ -62.200005, -8.643905 ], [ -62.180916, -8.657491 ], [ -62.174977, -8.663755 ], [ -62.164562, -8.679006 ], [ -62.171248, -8.694687 ], [ -62.167281, -8.70284 ], [ -62.153668, -8.710051 ], [ -62.148277, -8.717921 ], [ -62.156507, -8.731824 ], [ -62.124447, -8.801283 ], [ -62.10916, -8.804706 ], [ -62.097478, -8.808533 ], [ -62.073777, -8.798182 ], [ -62.049998, -8.795882 ], [ -62.030537, -8.799322 ], [ -62.020809, -8.823209 ], [ -62.001745, -8.832309 ], [ -61.993917, -8.848478 ], [ -61.989697, -8.87227 ], [ -61.984698, -8.878218 ], [ -61.978616, -8.872856 ], [ -61.929614, -8.880107 ], [ -61.905362, -8.874122 ], [ -61.902477, -8.862504 ], [ -61.878776, -8.862051 ], [ -61.859526, -8.852697 ], [ -61.863221, -8.831075 ], [ -61.86206, -8.823079 ], [ -61.856339, -8.817847 ], [ -61.860501, -8.803227 ], [ -61.855164, -8.788641 ], [ -61.842778, -8.779021 ], [ -61.843585, -8.746993 ], [ -61.835978, -8.732334 ], [ -61.827585, -8.732237 ], [ -61.805723, -8.747393 ], [ -61.801966, -8.746787 ], [ -61.789499, -8.744774 ], [ -61.774083, -8.74784 ], [ -61.76159, -8.736764 ], [ -61.763088, -8.728408 ], [ -61.748359, -8.723382 ], [ -61.739607, -8.709477 ], [ -61.743919, -8.702164 ], [ -61.741331, -8.694805 ], [ -61.725449, -8.693214 ], [ -61.712752, -8.687464 ], [ -61.704838, -8.707138 ], [ -61.697001, -8.709196 ], [ -61.673058, -8.704628 ], [ -61.649894, -8.713169 ], [ -61.645559, -8.720311 ], [ -61.630033, -8.72157 ], [ -61.625947, -8.728465 ], [ -61.629031, -8.752568 ], [ -61.622776, -8.757866 ], [ -61.605506, -8.794325 ], [ -61.589584, -8.794106 ], [ -61.582613, -8.7983 ], [ -61.579576, -8.802305 ], [ -61.567834, -8.800694 ], [ -61.542556, -8.818709 ], [ -61.523055, -8.818209 ], [ -61.5132, -8.836563 ], [ -61.510971, -8.863252 ], [ -61.491616, -8.884445 ], [ -61.48408, -8.90553 ], [ -61.467973, -8.916979 ], [ -61.492503, -8.942159 ], [ -61.520088, -9.000161 ], [ -61.527444, -9.018962 ], [ -61.530152, -9.041633 ], [ -61.541097, -9.05359 ], [ -61.555221, -9.092013 ], [ -61.558367, -9.117211 ], [ -61.554847, -9.131107 ], [ -61.538295, -9.15284 ], [ -61.531369, -9.170656 ], [ -61.523109, -9.178629 ], [ -61.519789, -9.191426 ], [ -61.52756, -9.230775 ], [ -61.524331, -9.242465 ], [ -61.532181, -9.248501 ], [ -61.538571, -9.243627 ], [ -61.551451, -9.243461 ], [ -61.574533, -9.236756 ], [ -61.588571, -9.243283 ], [ -61.599081, -9.255644 ], [ -61.627808, -9.256707 ], [ -61.632825, -9.270216 ], [ -61.630305, -9.279473 ], [ -61.62578, -9.283693 ], [ -61.614902, -9.278268 ], [ -61.611963, -9.279405 ], [ -61.614888, -9.305843 ], [ -61.610811, -9.315337 ], [ -61.615688, -9.326435 ], [ -61.624267, -9.336034 ], [ -61.627339, -9.351247 ], [ -61.625405, -9.36262 ], [ -61.611725, -9.355543 ], [ -61.609607, -9.362125 ], [ -61.594123, -9.368313 ], [ -61.573297, -9.370324 ], [ -61.55199, -9.38794 ], [ -61.559159, -9.392711 ], [ -61.560973, -9.400161 ], [ -61.550073, -9.417358 ], [ -61.555367, -9.4214 ], [ -61.556197, -9.435223 ], [ -61.564145, -9.437964 ], [ -61.581196, -9.458735 ], [ -61.571951, -9.463218 ], [ -61.577957, -9.469125 ], [ -61.576454, -9.474085 ], [ -61.568535, -9.476466 ], [ -61.562202, -9.48538 ], [ -61.52529, -9.501405 ], [ -61.546872, -9.51083 ], [ -61.549031, -9.514825 ], [ -61.52659, -9.532875 ], [ -61.51292, -9.528139 ], [ -61.513569, -9.538855 ], [ -61.507508, -9.540071 ], [ -61.509836, -9.5647 ], [ -61.504141, -9.56755 ], [ -61.502639, -9.572605 ], [ -61.495918, -9.573986 ], [ -61.494525, -9.583706 ], [ -61.502497, -9.614954 ], [ -61.495222, -9.624385 ], [ -61.48696, -9.626152 ], [ -61.480427, -9.623017 ], [ -61.476285, -9.62833 ], [ -61.493537, -9.658989 ], [ -61.50636, -9.661563 ], [ -61.501746, -9.679456 ], [ -61.504749, -9.690989 ], [ -61.519139, -9.696641 ], [ -61.531894, -9.711384 ], [ -61.545558, -9.715014 ], [ -61.552527, -9.706799 ], [ -61.574114, -9.7174 ], [ -61.603116, -9.693182 ], [ -61.604809, -9.684598 ], [ -61.609561, -9.683946 ], [ -61.631779, -9.695573 ], [ -61.644144, -9.706279 ], [ -61.656478, -9.708134 ], [ -61.661531, -9.712123 ], [ -61.685145, -9.720415 ], [ -61.689728, -9.719058 ], [ -61.71103, -9.730935 ], [ -61.733279, -9.725316 ], [ -61.759836, -9.728272 ], [ -61.774034, -9.716694 ], [ -61.791641, -9.719291 ], [ -61.797865, -9.737954 ], [ -61.794608, -9.743139 ], [ -61.793591, -9.758605 ], [ -61.799533, -9.771948 ], [ -61.807301, -9.779445 ], [ -61.806143, -9.799443 ], [ -61.836298, -9.809499 ], [ -61.840726, -9.814814 ], [ -61.844185, -9.832866 ], [ -61.836774, -9.848915 ], [ -61.839093, -9.859825 ], [ -61.850167, -9.878004 ], [ -61.859664, -9.882543 ], [ -61.876519, -9.907365 ], [ -61.860768, -9.949725 ], [ -61.857769, -9.971682 ], [ -61.859682, -9.98239 ], [ -61.865042, -9.987757 ], [ -61.873775, -9.987701 ], [ -61.898548, -9.977922 ], [ -61.908529, -9.988776 ], [ -61.910741, -9.985227 ], [ -61.911119, -9.984852 ], [ -61.924756, -9.969818 ], [ -61.936618, -9.947453 ], [ -61.942204, -9.947771 ], [ -61.949981, -9.954854 ], [ -61.953892, -9.949286 ], [ -61.963908, -9.986469 ], [ -61.981327, -10.004613 ], [ -61.992585, -10.009215 ], [ -61.994339, -10.014215 ], [ -61.992796, -10.021608 ], [ -61.981612, -10.031675 ], [ -61.971948, -10.049322 ], [ -61.969888, -10.058798 ], [ -61.972141, -10.067134 ], [ -61.982808, -10.066094 ], [ -61.978056, -10.092765 ], [ -61.984889, -10.091534 ], [ -61.986509, -10.08801 ], [ -61.988785, -10.098052 ], [ -61.997615, -10.105257 ], [ -61.990448, -10.117991 ], [ -61.992894, -10.12062 ], [ -61.989369, -10.129664 ], [ -61.993584, -10.133129 ], [ -62.005281, -10.132336 ], [ -62.019979, -10.121885 ], [ -62.028448, -10.132835 ], [ -62.025254, -10.135705 ], [ -62.029636, -10.146628 ], [ -62.038038, -10.153051 ], [ -62.051752, -10.156087 ], [ -62.061341, -10.172838 ], [ -62.078001, -10.178004 ], [ -62.083062, -10.18285 ], [ -62.090834, -10.179398 ], [ -62.095861, -10.1843 ], [ -62.105203, -10.178017 ], [ -62.110276, -10.193656 ], [ -62.114314, -10.195921 ], [ -62.125582, -10.191381 ], [ -62.120865, -10.209311 ], [ -62.132377, -10.219881 ], [ -62.134112, -10.224335 ], [ -62.136758, -10.235109 ], [ -62.139614, -10.260176 ], [ -62.145475, -10.265089 ], [ -62.141562, -10.273079 ], [ -62.133195, -10.274397 ], [ -62.139275, -10.290047 ], [ -62.141231, -10.304468 ], [ -62.137948, -10.315215 ], [ -62.134838, -10.321393 ], [ -62.139668, -10.326959 ], [ -62.135092, -10.339449 ], [ -62.121477, -10.354606 ], [ -62.130881, -10.362939 ], [ -62.259133, -10.476453 ], [ -62.293203, -10.506404 ], [ -62.327547, -10.536584 ], [ -62.353982, -10.559726 ], [ -62.367904, -10.571899 ], [ -62.385219, -10.587059 ], [ -62.413097, -10.611441 ], [ -62.44687, -10.640966 ], [ -62.473883, -10.664568 ], [ -62.487924, -10.676833 ], [ -62.499448, -10.686931 ], [ -62.524729, -10.709077 ], [ -62.55401, -10.734866 ], [ -62.582353, -10.759816 ], [ -62.612632, -10.786458 ], [ -62.638765, -10.80944 ], [ -62.663846, -10.831488 ], [ -62.689998, -10.85447 ], [ -62.706525, -10.868986 ], [ -62.716617, -10.877849 ], [ -62.740276, -10.898664 ], [ -62.746608, -10.904235 ], [ -62.775731, -10.929842 ], [ -62.79849, -10.949845 ], [ -62.802289, -10.953186 ], [ -62.830072, -10.977592 ], [ -62.854992, -10.999475 ], [ -62.890864, -11.030214 ], [ -62.896676, -11.02865 ], [ -62.899983, -11.031094 ], [ -62.905313, -11.027551 ], [ -62.911072, -11.033507 ], [ -62.922683, -11.031191 ], [ -62.931421, -11.03347 ], [ -62.948196, -11.029789 ], [ -62.954448, -11.03598 ], [ -62.968703, -11.030297 ], [ -62.979535, -11.033922 ], [ -62.984149, -11.031204 ], [ -62.990314, -11.035804 ], [ -63.006341, -11.03958 ], [ -63.040648, -11.037229 ], [ -63.052012, -11.05119 ], [ -63.065755, -11.059204 ], [ -63.075099, -11.059479 ], [ -63.092006, -11.053302 ], [ -63.117163, -11.070247 ], [ -63.132619, -11.074345 ], [ -63.142096, -11.071001 ], [ -63.14818, -11.074227 ] ] ] } }
]
}
