{
"type": "FeatureCollection",
"name": "geojs-14-macro_regions",
"crs": { "type": "name", "properties": { "name": "urn:ogc:def:crs:OGC:1.3:CRS84" } },
"features": [
{ "type": "Feature", "properties": { "MACRO_ID": "1401", "MACRO_NAME": "Macro-Roraima", "id": "140002", "name": "Amajari", "description": "Amajari", "MUN_ID": "140002", "UF": "RR", "HREG_ID": "14001", "HREG_NAME": "Centro Norte" }, "geometry": { "type": "Polygon", "coordinates": [ [ [ -60.046324, 0.232478 ], [ -60.058576, 0.163343 ], [ -60.07274, 0.15026 ], [ -60.086323, 0.143023 ], [ -60.115765, 0.133579 ], [ -60.119942, 0.123878 ], [ -60.137437, 0.103038 ], [ -60.135764, 0.093322 ], [ -60.127469, 0.088612 ], [ -60.123016, 0.081398 ], [ -60.136047, 0.065818 ], [ -60.134137, 0.05439 ], [ -60.139922, 0.047775 ], [ -60.142717, 0.03776 ], [ -60.138059, 0.029112 ], [ -60.160206, 0.016623 ], [ -60.170506, 0.000551 ], [ -60.184668, 0.0 ], [ -60.181158, -0.00958 ], [ -60.20277, -0.033246 ], [ -60.205746, -0.061188 ], [ -60.221704, -0.082712 ], [ -60.228326, -0.100836 ], [ -60.229998, -0.110013 ], [ -60.224696, -0.119184 ], [ -60.22694, -0.128348 ], [ -60.219998, -0.135011 ], [ -60.223889, -0.14251 ], [ -60.232216, -0.146122 ], [ -60.249445, -0.166668 ], [ -60.24889, -0.174723 ], [ -60.257775, -0.173056 ], [ -60.265555, -0.178052 ], [ -60.263888, -0.189165 ], [ -60.275552, -0.202222 ], [ -60.285274, -0.210282 ], [ -60.293053, -0.205282 ], [ -60.298884, -0.211391 ], [ -60.291103, -0.228899 ], [ -60.298887, -0.255846 ], [ -60.304443, -0.264456 ], [ -60.302497, -0.271953 ], [ -60.299139, -0.274471 ], [ -60.295364, -0.2816 ], [ -60.294996, -0.285288 ], [ -60.289438, -0.29279 ], [ -60.302496, -0.303624 ], [ -60.301666, -0.327787 ], [ -60.318054, -0.330285 ], [ -60.321104, -0.337231 ], [ -60.316662, -0.35834 ], [ -60.321663, -0.368333 ], [ -60.321661, -0.377222 ], [ -60.335554, -0.384998 ], [ -60.342772, -0.401388 ], [ -60.34947, -0.406934 ], [ -60.343913, -0.412766 ], [ -60.345304, -0.420272 ], [ -60.341412, -0.42999 ], [ -60.344186, -0.440262 ], [ -60.38197, -0.469982 ], [ -60.382527, -0.47887 ], [ -60.39058, -0.493871 ], [ -60.390554, -0.502787 ], [ -60.399445, -0.509735 ], [ -60.397497, -0.545563 ], [ -60.394441, -0.553061 ], [ -60.381942, -0.557228 ], [ -60.378889, -0.576124 ], [ -60.3875, -0.58112 ], [ -60.382777, -0.589726 ], [ -60.365275, -0.587788 ], [ -60.364719, -0.596678 ], [ -60.357495, -0.605008 ], [ -60.350553, -0.621952 ], [ -60.340273, -0.62528 ], [ -60.327219, -0.640004 ], [ -60.319444, -0.636678 ], [ -60.313052, -0.641118 ], [ -60.314162, -0.659733 ], [ -60.303328, -0.673618 ], [ -60.308325, -0.68945 ], [ -60.301666, -0.693063 ], [ -60.304164, -0.701393 ], [ -60.302779, -0.706728 ], [ -60.303121, -0.710918 ], [ -60.309163, -0.724451 ], [ -60.316663, -0.722511 ], [ -60.340832, -0.738621 ], [ -60.345552, -0.745562 ], [ -60.353047, -0.742224 ], [ -60.376946, -0.742505 ], [ -60.382776, -0.759448 ], [ -60.40055, -0.757227 ], [ -60.418607, -0.763897 ], [ -60.421109, -0.772782 ], [ -60.426662, -0.778059 ], [ -60.434163, -0.772233 ], [ -60.457495, -0.773896 ], [ -60.466661, -0.768615 ], [ -60.478611, -0.770566 ], [ -60.493605, -0.782224 ], [ -60.497497, -0.789173 ], [ -60.491662, -0.796398 ], [ -60.495275, -0.803895 ], [ -60.493329, -0.811949 ], [ -60.498332, -0.821953 ], [ -60.506111, -0.821115 ], [ -60.519445, -0.833339 ], [ -60.502775, -0.841111 ], [ -60.504161, -0.848892 ], [ -60.530556, -0.874726 ], [ -60.540556, -0.875005 ], [ -60.54722, -0.868613 ], [ -60.55722, -0.86945 ], [ -60.5575, -0.859727 ], [ -60.590829, -0.853057 ], [ -60.593889, -0.871947 ], [ -60.609166, -0.863897 ], [ -60.62, -0.863061 ], [ -60.623609, -0.871113 ], [ -60.633331, -0.868059 ], [ -60.635555, -0.875835 ], [ -60.654165, -0.882782 ], [ -60.6675, -0.894167 ], [ -60.672223, -0.887502 ], [ -60.669439, -0.878057 ], [ -60.675279, -0.873062 ], [ -60.707221, -0.865279 ], [ -60.716662, -0.869727 ], [ -60.731942, -0.85806 ], [ -60.752213, -0.860834 ], [ -60.751414, -0.84965 ], [ -60.754119, -0.841934 ], [ -60.758887, -0.828338 ], [ -60.752771, -0.819449 ], [ -60.758602, -0.809451 ], [ -60.756109, -0.795282 ], [ -60.773334, -0.790835 ], [ -60.77277, -0.781953 ], [ -60.766107, -0.77778 ], [ -60.760556, -0.761119 ], [ -60.768334, -0.754174 ], [ -60.776665, -0.75584 ], [ -60.780552, -0.748345 ], [ -60.788325, -0.744452 ], [ -60.796662, -0.744449 ], [ -60.799164, -0.735563 ], [ -60.792775, -0.728064 ], [ -60.79492, -0.714781 ], [ -60.797493, -0.710842 ], [ -60.797216, -0.70056 ], [ -60.81166, -0.691676 ], [ -60.842777, -0.690284 ], [ -60.851386, -0.674449 ], [ -60.846944, -0.663617 ], [ -60.84889, -0.653899 ], [ -60.854164, -0.647508 ], [ -60.860552, -0.641949 ], [ -60.882222, -0.648896 ], [ -60.907772, -0.623624 ], [ -60.908327, -0.615558 ], [ -60.91583, -0.610011 ], [ -60.915553, -0.589451 ], [ -60.91194, -0.580845 ], [ -60.920274, -0.555014 ], [ -60.929723, -0.554454 ], [ -60.935272, -0.559736 ], [ -60.946106, -0.559176 ], [ -60.952773, -0.554177 ], [ -60.957777, -0.560006 ], [ -60.975, -0.56223 ], [ -60.999997, -0.559453 ], [ -61.024719, -0.543616 ], [ -61.033332, -0.548624 ], [ -61.045554, -0.545567 ], [ -61.054717, -0.53834 ], [ -61.063332, -0.512784 ], [ -61.086944, -0.499737 ], [ -61.096106, -0.499177 ], [ -61.111942, -0.50695 ], [ -61.119165, -0.499449 ], [ -61.128606, -0.497232 ], [ -61.148325, -0.498898 ], [ -61.154719, -0.505012 ], [ -61.157069, -0.514978 ], [ -61.163567, -0.512055 ], [ -61.17305, -0.507789 ], [ -61.198047, -0.505566 ], [ -61.208325, -0.49834 ], [ -61.216385, -0.49973 ], [ -61.222501, -0.505287 ], [ -61.222775, -0.518899 ], [ -61.215828, -0.532784 ], [ -61.223607, -0.538896 ], [ -61.223605, -0.559173 ], [ -61.230555, -0.563623 ], [ -61.274994, -0.575842 ], [ -61.283202, -0.574069 ], [ -61.285276, -0.573622 ], [ -61.297776, -0.575839 ], [ -61.325555, -0.597512 ], [ -61.346661, -0.594729 ], [ -61.356386, -0.598063 ], [ -61.36611, -0.606678 ], [ -61.389992, -0.617229 ], [ -61.40666, -0.631116 ], [ -61.428332, -0.633894 ], [ -61.430276, -0.642786 ], [ -61.426105, -0.652785 ], [ -61.43472, -0.658062 ], [ -61.456384, -0.656674 ], [ -61.464159, -0.664448 ], [ -61.472496, -0.683338 ], [ -61.47444, -0.70223 ], [ -61.484442, -0.720284 ], [ -61.516107, -0.745282 ], [ -61.532214, -0.75084 ], [ -61.534687, -0.754112 ], [ -61.538333, -0.755845 ], [ -61.53981, -0.760892 ], [ -61.541661, -0.763341 ], [ -61.545779, -0.781284 ], [ -61.551666, -0.801393 ], [ -61.551404, -0.805792 ], [ -61.552499, -0.810564 ], [ -61.549437, -0.838858 ], [ -61.543048, -0.843065 ], [ -61.543056, -0.851951 ], [ -61.557777, -0.863622 ], [ -61.558331, -0.892785 ], [ -61.578049, -0.909725 ], [ -61.579719, -0.930001 ], [ -61.58472, -0.936669 ], [ -61.579162, -0.955561 ], [ -61.58305, -0.982224 ], [ -61.575551, -0.987782 ], [ -61.560216, -0.9877 ], [ -61.562499, -1.000006 ], [ -61.559718, -1.009729 ], [ -61.547493, -1.022785 ], [ -61.543048, -1.035009 ], [ -61.543607, -1.061949 ], [ -61.546109, -1.070836 ], [ -61.567221, -1.074175 ], [ -61.57611, -1.078896 ], [ -61.577777, -1.088062 ], [ -61.565829, -1.099451 ], [ -61.574162, -1.104451 ], [ -61.577498, -1.11278 ], [ -61.570554, -1.120007 ], [ -61.56611, -1.132228 ], [ -61.568603, -1.140282 ], [ -61.578325, -1.150559 ], [ -61.581658, -1.164168 ], [ -61.573331, -1.184442 ], [ -61.582221, -1.189169 ], [ -61.587778, -1.196945 ], [ -61.595271, -1.223058 ], [ -61.606384, -1.244165 ], [ -61.607221, -1.27778 ], [ -61.626386, -1.293617 ], [ -61.628333, -1.301115 ], [ -61.611109, -1.307782 ], [ -61.6053, -1.315413 ], [ -61.584992, -1.338332 ], [ -61.581659, -1.353054 ], [ -61.587219, -1.361115 ], [ -61.599441, -1.367225 ], [ -61.618605, -1.394445 ], [ -61.614165, -1.402223 ], [ -61.602498, -1.40695 ], [ -61.593885, -1.405282 ], [ -61.58139, -1.409169 ], [ -61.573326, -1.428336 ], [ -61.547498, -1.429165 ], [ -61.537778, -1.433051 ], [ -61.538882, -1.443611 ], [ -61.532502, -1.46472 ], [ -61.515967, -1.502077 ], [ -61.480831, -1.517496 ], [ -61.472776, -1.527496 ], [ -61.469442, -1.537774 ], [ -61.469992, -1.545556 ], [ -61.474996, -1.552775 ], [ -61.474162, -1.578613 ], [ -61.482221, -1.580279 ], [ -61.490547, -1.574447 ], [ -61.544166, -1.525273 ], [ -61.559166, -1.494719 ], [ -61.571662, -1.477776 ], [ -61.604438, -1.447778 ], [ -61.634998, -1.433611 ], [ -61.674421, -1.424003 ], [ -61.686816, -1.419812 ], [ -61.722716, -1.405367 ], [ -61.740272, -1.391665 ], [ -61.769167, -1.382502 ], [ -61.789695, -1.378614 ], [ -61.797492, -1.380277 ], [ -61.816666, -1.399164 ], [ -61.840055, -1.400162 ], [ -61.868882, -1.401392 ], [ -61.896106, -1.395001 ], [ -61.904993, -1.379171 ], [ -61.905462, -1.371277 ], [ -61.908611, -1.348332 ], [ -61.92694, -1.320279 ], [ -61.944997, -1.304448 ], [ -61.949438, -1.296668 ], [ -61.956386, -1.265556 ], [ -61.966387, -1.242506 ], [ -61.987499, -1.216389 ], [ -61.988882, -1.201391 ], [ -62.016942, -1.141392 ], [ -62.06166, -1.099448 ], [ -62.071106, -1.097229 ], [ -62.087492, -1.099728 ], [ -62.099163, -1.096392 ], [ -62.104994, -1.086115 ], [ -62.114158, -1.083055 ], [ -62.117771, -1.076116 ], [ -62.110828, -1.06001 ], [ -62.124998, -1.036951 ], [ -62.14249, -1.036952 ], [ -62.144995, -1.028063 ], [ -62.15444, -1.025838 ], [ -62.16777, -1.013898 ], [ -62.171388, -1.005561 ], [ -62.199441, -1.000002 ], [ -62.203333, -0.982502 ], [ -62.213047, -0.983337 ], [ -62.226935, -0.97309 ], [ -62.258604, -0.975564 ], [ -62.271665, -0.951671 ], [ -62.285553, -0.943619 ], [ -62.293327, -0.947779 ], [ -62.297774, -0.940565 ], [ -62.312222, -0.930004 ], [ -62.316659, -0.913895 ], [ -62.328054, -0.915284 ], [ -62.339716, -0.903892 ], [ -62.356109, -0.874727 ], [ -62.364442, -0.876954 ], [ -62.366104, -0.868898 ], [ -62.375827, -0.865842 ], [ -62.369443, -0.858896 ], [ -62.373049, -0.848338 ], [ -62.379992, -0.843339 ], [ -62.375547, -0.836119 ], [ -62.393608, -0.828618 ], [ -62.395277, -0.820007 ], [ -62.427773, -0.811949 ], [ -62.43277, -0.803619 ], [ -62.442217, -0.801677 ], [ -62.447779, -0.809725 ], [ -62.452777, -0.803621 ], [ -62.461109, -0.801395 ], [ -62.464992, -0.788621 ], [ -62.480277, -0.794728 ], [ -62.500552, -0.781116 ], [ -62.503881, -0.765286 ], [ -62.509717, -0.758619 ], [ -62.494436, -0.750285 ], [ -62.498329, -0.733622 ], [ -62.505548, -0.730567 ], [ -62.507771, -0.7139 ], [ -62.494995, -0.703615 ], [ -62.492495, -0.687233 ], [ -62.486106, -0.681118 ], [ -62.469158, -0.693617 ], [ -62.463327, -0.687787 ], [ -62.455276, -0.691674 ], [ -62.428056, -0.692509 ], [ -62.424996, -0.699728 ], [ -62.416386, -0.703062 ], [ -62.409994, -0.710006 ], [ -62.406386, -0.72695 ], [ -62.392213, -0.719174 ], [ -62.389992, -0.709175 ], [ -62.38166, -0.705843 ], [ -62.366665, -0.709727 ], [ -62.358331, -0.706672 ], [ -62.360834, -0.699179 ], [ -62.368883, -0.695011 ], [ -62.372219, -0.686121 ], [ -62.370272, -0.676398 ], [ -62.353329, -0.676677 ], [ -62.348333, -0.670287 ], [ -62.34083, -0.675562 ], [ -62.332853, -0.670475 ], [ -62.331464, -0.661868 ], [ -62.32619, -0.656033 ], [ -62.317575, -0.661307 ], [ -62.308688, -0.660484 ], [ -62.30369, -0.653816 ], [ -62.295909, -0.651869 ], [ -62.287018, -0.637983 ], [ -62.29313, -0.622428 ], [ -62.301193, -0.618808 ], [ -62.299803, -0.610479 ], [ -62.291466, -0.610205 ], [ -62.290357, -0.601865 ], [ -62.302023, -0.586866 ], [ -62.309248, -0.582979 ], [ -62.30786, -0.567141 ], [ -62.317855, -0.552147 ], [ -62.30897, -0.546037 ], [ -62.311187, -0.537147 ], [ -62.303411, -0.534364 ], [ -62.308684, -0.513811 ], [ -62.3023, -0.508253 ], [ -62.294241, -0.507422 ], [ -62.285913, -0.493257 ], [ -62.2898, -0.483809 ], [ -62.28397, -0.477148 ], [ -62.274523, -0.478261 ], [ -62.270353, -0.470199 ], [ -62.277577, -0.464922 ], [ -62.273416, -0.453809 ], [ -62.248137, -0.439364 ], [ -62.242856, -0.43187 ], [ -62.226742, -0.425478 ], [ -62.221192, -0.409084 ], [ -62.212298, -0.407975 ], [ -62.216744, -0.399092 ], [ -62.201744, -0.392696 ], [ -62.205914, -0.376588 ], [ -62.20341, -0.367979 ], [ -62.1948, -0.364093 ], [ -62.193412, -0.338259 ], [ -62.187854, -0.330473 ], [ -62.219244, -0.310754 ], [ -62.225914, -0.316864 ], [ -62.235355, -0.316865 ], [ -62.23897, -0.307697 ], [ -62.247856, -0.301586 ], [ -62.24504, -0.294109 ], [ -62.253689, -0.279365 ], [ -62.253134, -0.271033 ], [ -62.241191, -0.26048 ], [ -62.237861, -0.252425 ], [ -62.246467, -0.251866 ], [ -62.252574, -0.236315 ], [ -62.252851, -0.21937 ], [ -62.244799, -0.211309 ], [ -62.246468, -0.189648 ], [ -62.241468, -0.181315 ], [ -62.244519, -0.174369 ], [ -62.258133, -0.164928 ], [ -62.267575, -0.163537 ], [ -62.290076, -0.139104 ], [ -62.293414, -0.127998 ], [ -62.319216, -0.102178 ], [ -62.317414, -0.084175 ], [ -62.321689, -0.06998 ], [ -62.329747, -0.06859 ], [ -62.331686, -0.060269 ], [ -62.322801, -0.061657 ], [ -62.322733, -0.060519 ], [ -62.321388, -0.03778 ], [ -62.325834, -0.03112 ], [ -62.322222, -0.023898 ], [ -62.346123, 0.029953 ], [ -62.361119, 0.04109 ], [ -62.370256, 0.054441 ], [ -62.390271, 0.059988 ], [ -62.414446, 0.074724 ], [ -62.423877, 0.091918 ], [ -62.428326, 0.118868 ], [ -62.423886, 0.13554 ], [ -62.423814, 0.140142 ], [ -62.42278, 0.14502 ], [ -62.423663, 0.149854 ], [ -62.423605, 0.153595 ], [ -62.428055, 0.173879 ], [ -62.438039, 0.19524 ], [ -62.452223, 0.207759 ], [ -62.453894, 0.243897 ], [ -62.46777, 0.276098 ], [ -62.458064, 0.313838 ], [ -62.466368, 0.333313 ], [ -62.460553, 0.353012 ], [ -62.451385, 0.365531 ], [ -62.452488, 0.373877 ], [ -62.445851, 0.379457 ], [ -62.455552, 0.392755 ], [ -62.458047, 0.418035 ], [ -62.467212, 0.426376 ], [ -62.484725, 0.454424 ], [ -62.508711, 0.440228 ], [ -62.51814, 0.444044 ], [ -62.522444, 0.48591 ], [ -62.532488, 0.509151 ], [ -62.527218, 0.546889 ], [ -62.517777, 0.58416 ], [ -62.537769, 0.675538 ], [ -62.534876, 0.690704 ], [ -62.529514, 0.706299 ], [ -62.528057, 0.710534 ], [ -62.499973, 0.74829 ], [ -62.487472, 0.758567 ], [ -62.462505, 0.77721 ], [ -62.457214, 0.785539 ], [ -62.465553, 0.829418 ], [ -62.480529, 0.843013 ], [ -62.485553, 0.866875 ], [ -62.470533, 0.91747 ], [ -62.447775, 0.943586 ], [ -62.442215, 0.958874 ], [ -62.443008, 0.967944 ], [ -62.443064, 0.968582 ], [ -62.44945, 0.984128 ], [ -62.46111, 0.995251 ], [ -62.474175, 1.01664 ], [ -62.477209, 1.028288 ], [ -62.473905, 1.04056 ], [ -62.478588, 1.048276 ], [ -62.477763, 1.056944 ], [ -62.46999, 1.077755 ], [ -62.4711, 1.086622 ], [ -62.479715, 1.089156 ], [ -62.489438, 1.084997 ], [ -62.520567, 1.084156 ], [ -62.529148, 1.089158 ], [ -62.54533, 1.124095 ], [ -62.546587, 1.130248 ], [ -62.554172, 1.175243 ], [ -62.580647, 1.241467 ], [ -62.589162, 1.267118 ], [ -62.599334, 1.308508 ], [ -62.601676, 1.326111 ], [ -62.610271, 1.352988 ], [ -62.619999, 1.363032 ], [ -62.625825, 1.385538 ], [ -62.619996, 1.394695 ], [ -62.619731, 1.404121 ], [ -62.639443, 1.438576 ], [ -62.656117, 1.448863 ], [ -62.676382, 1.454969 ], [ -62.698063, 1.475777 ], [ -62.720253, 1.488882 ], [ -62.730278, 1.49997 ], [ -62.735827, 1.529967 ], [ -62.739072, 1.532486 ], [ -62.749262, 1.536309 ], [ -62.756272, 1.547965 ], [ -62.781261, 1.572853 ], [ -62.800837, 1.587045 ], [ -62.80476, 1.591683 ], [ -62.806177, 1.604443 ], [ -62.795805, 1.63102 ], [ -62.772975, 1.656648 ], [ -62.765361, 1.671645 ], [ -62.755625, 1.676092 ], [ -62.732969, 1.695439 ], [ -62.723209, 1.712735 ], [ -62.73055, 1.818568 ], [ -62.703657, 1.874282 ], [ -62.698207, 1.912294 ], [ -62.704676, 1.936902 ], [ -62.709871, 1.944452 ], [ -62.719131, 1.953775 ], [ -62.74195, 1.967027 ], [ -62.81163, 1.991565 ], [ -62.8117, 1.991658 ], [ -62.812723, 1.992019 ], [ -62.828353, 2.013649 ], [ -62.83831, 2.016804 ], [ -62.919299, 2.025321 ], [ -62.947959, 2.031376 ], [ -62.980271, 2.018121 ], [ -63.023252, 2.015014 ], [ -63.053044, 2.029225 ], [ -63.06266, 2.036195 ], [ -63.070339, 2.040321 ], [ -63.072292, 2.043176 ], [ -63.076743, 2.046401 ], [ -63.085019, 2.061772 ], [ -63.106716, 2.079679 ], [ -63.119308, 2.096787 ], [ -63.135659, 2.134967 ], [ -63.135798, 2.137575 ], [ -63.138034, 2.143105 ], [ -63.137064, 2.16139 ], [ -63.14099, 2.172781 ], [ -63.158074, 2.174621 ], [ -63.164935, 2.180648 ], [ -63.193609, 2.181547 ], [ -63.272845, 2.155696 ], [ -63.282259, 2.154216 ], [ -63.310263, 2.165338 ], [ -63.359265, 2.197436 ], [ -63.371563, 2.212196 ], [ -63.371783, 2.212079 ], [ -63.400713, 2.245916 ], [ -63.402188, 2.253391 ], [ -63.397313, 2.274615 ], [ -63.400928, 2.297007 ], [ -63.425033, 2.364596 ], [ -63.421803, 2.378877 ], [ -63.394342, 2.407412 ], [ -63.395406, 2.426472 ], [ -63.40632, 2.436272 ], [ -63.445455, 2.442754 ], [ -63.499453, 2.436319 ], [ -63.590301, 2.415235 ], [ -63.655434, 2.394244 ], [ -63.7034, 2.387359 ], [ -63.750639, 2.387103 ], [ -63.780324, 2.391608 ], [ -63.833513, 2.408421 ], [ -63.867276, 2.424817 ], [ -63.960695, 2.455002 ], [ -63.977522, 2.467869 ], [ -63.987783, 2.465289 ], [ -64.000034, 2.478518 ], [ -64.005093, 2.478336 ], [ -64.01197, 2.470074 ], [ -64.020271, 2.466899 ], [ -64.024438, 2.472187 ], [ -64.031528, 2.472542 ], [ -64.029722, 2.482185 ], [ -64.037493, 2.487178 ], [ -64.03833, 2.494403 ], [ -64.05555, 2.498014 ], [ -64.058327, 2.50274 ], [ -64.056665, 2.513289 ], [ -64.04488, 2.532893 ], [ -64.048384, 2.548987 ], [ -64.043886, 2.559122 ], [ -64.043884, 2.573569 ], [ -64.038609, 2.578847 ], [ -64.033168, 2.575212 ], [ -64.028611, 2.576352 ], [ -64.023888, 2.591068 ], [ -64.008605, 2.608566 ], [ -64.009438, 2.620514 ], [ -63.991124, 2.63661 ], [ -63.98527, 2.64579 ], [ -63.983884, 2.659957 ], [ -63.990913, 2.670457 ], [ -63.986665, 2.674677 ], [ -63.984998, 2.686344 ], [ -64.001326, 2.699955 ], [ -64.003051, 2.70746 ], [ -63.989163, 2.716901 ], [ -63.983609, 2.716349 ], [ -63.982496, 2.724126 ], [ -63.986407, 2.72512 ], [ -63.986106, 2.731072 ], [ -63.998608, 2.738844 ], [ -63.99861, 2.760234 ], [ -63.992774, 2.768014 ], [ -64.008882, 2.778567 ], [ -64.008887, 2.787458 ], [ -64.013607, 2.795793 ], [ -64.01419, 2.806957 ], [ -64.009993, 2.811624 ], [ -64.012775, 2.819404 ], [ -64.046663, 2.836624 ], [ -64.057221, 2.850785 ], [ -64.066382, 2.879954 ], [ -64.071103, 2.938007 ], [ -64.10194, 2.9519 ], [ -64.110825, 2.960787 ], [ -64.124442, 2.980792 ], [ -64.129998, 3.004675 ], [ -64.160271, 3.033013 ], [ -64.17277, 3.058005 ], [ -64.219999, 3.096062 ], [ -64.234719, 3.11468 ], [ -64.233052, 3.130227 ], [ -64.218603, 3.153006 ], [ -64.210275, 3.17245 ], [ -64.207777, 3.189121 ], [ -64.213332, 3.223563 ], [ -64.213331, 3.24662 ], [ -64.240829, 3.31521 ], [ -64.233883, 3.384395 ], [ -64.248603, 3.399391 ], [ -64.254716, 3.411335 ], [ -64.251388, 3.428281 ], [ -64.239437, 3.443282 ], [ -64.202213, 3.477448 ], [ -64.189438, 3.49523 ], [ -64.183888, 3.489671 ], [ -64.186383, 3.499947 ], [ -64.18333, 3.53828 ], [ -64.185271, 3.559946 ], [ -64.205553, 3.590778 ], [ -64.243883, 3.625223 ], [ -64.257222, 3.648003 ], [ -64.275274, 3.661616 ], [ -64.280552, 3.669671 ], [ -64.288609, 3.699949 ], [ -64.327492, 3.720782 ], [ -64.342218, 3.735223 ], [ -64.389437, 3.759943 ], [ -64.408604, 3.76606 ], [ -64.428051, 3.780227 ], [ -64.446936, 3.784397 ], [ -64.471945, 3.781894 ], [ -64.484997, 3.787724 ], [ -64.504971, 3.810203 ], [ -64.52394, 3.842233 ], [ -64.552439, 3.863993 ], [ -64.567828, 3.882081 ], [ -64.579718, 3.92862 ], [ -64.596856, 3.938984 ], [ -64.619329, 3.951623 ], [ -64.633493, 3.975362 ], [ -64.650193, 3.992229 ], [ -64.673333, 4.004947 ], [ -64.674695, 4.0127 ], [ -64.680275, 4.016611 ], [ -64.68333, 4.040501 ], [ -64.708051, 4.066883 ], [ -64.722507, 4.105238 ], [ -64.731658, 4.1205 ], [ -64.752772, 4.137168 ], [ -64.783056, 4.153001 ], [ -64.809993, 4.174941 ], [ -64.821383, 4.212171 ], [ -64.824716, 4.239109 ], [ -64.821104, 4.258833 ], [ -64.799159, 4.284392 ], [ -64.779996, 4.286888 ], [ -64.699162, 4.250494 ], [ -64.684165, 4.239665 ], [ -64.658054, 4.21189 ], [ -64.640549, 4.165503 ], [ -64.630553, 4.143835 ], [ -64.623051, 4.13522 ], [ -64.5925, 4.114386 ], [ -64.559971, 4.101891 ], [ -64.543885, 4.114107 ], [ -64.520554, 4.116608 ], [ -64.499997, 4.110774 ], [ -64.49972, 4.113 ], [ -64.451942, 4.123557 ], [ -64.431105, 4.134948 ], [ -64.403331, 4.132442 ], [ -64.385834, 4.137448 ], [ -64.334984, 4.12939 ], [ -64.305827, 4.131605 ], [ -64.289164, 4.14411 ], [ -64.273883, 4.142996 ], [ -64.265826, 4.126605 ], [ -64.250278, 4.129946 ], [ -64.231664, 4.124112 ], [ -64.218327, 4.115779 ], [ -64.190276, 4.11689 ], [ -64.171383, 4.129113 ], [ -64.163884, 4.126608 ], [ -64.146942, 4.110499 ], [ -64.132777, 4.106331 ], [ -64.112216, 4.091611 ], [ -64.095827, 4.053839 ], [ -64.094159, 4.043004 ], [ -64.099445, 4.034941 ], [ -64.096661, 4.0255 ], [ -64.07527, 3.99994 ], [ -64.050269, 3.950497 ], [ -64.038555, 3.945816 ], [ -64.035554, 3.944386 ], [ -64.035166, 3.934586 ], [ -64.001381, 3.933282 ], [ -63.996661, 3.903835 ], [ -63.98583, 3.897172 ], [ -63.978327, 3.900778 ], [ -63.963608, 3.86828 ], [ -63.96083, 3.870219 ], [ -63.958885, 3.887721 ], [ -63.956112, 3.889944 ], [ -63.949439, 3.886888 ], [ -63.94583, 3.900776 ], [ -63.937493, 3.901612 ], [ -63.936664, 3.915219 ], [ -63.92777, 3.925221 ], [ -63.91388, 3.926329 ], [ -63.900825, 3.934111 ], [ -63.890547, 3.930783 ], [ -63.869716, 3.938007 ], [ -63.858508, 3.947945 ], [ -63.853887, 3.944945 ], [ -63.851418, 3.948028 ], [ -63.849718, 3.950226 ], [ -63.845008, 3.948103 ], [ -63.838882, 3.946333 ], [ -63.834712, 3.940223 ], [ -63.82833, 3.939664 ], [ -63.812218, 3.939389 ], [ -63.796107, 3.932998 ], [ -63.771937, 3.939109 ], [ -63.766935, 3.935778 ], [ -63.754717, 3.940503 ], [ -63.737498, 3.928834 ], [ -63.743327, 3.921333 ], [ -63.738325, 3.915496 ], [ -63.722771, 3.914393 ], [ -63.717614, 3.907945 ], [ -63.711106, 3.904112 ], [ -63.710551, 3.912723 ], [ -63.704722, 3.914111 ], [ -63.682218, 3.907723 ], [ -63.662776, 3.921614 ], [ -63.674714, 3.923003 ], [ -63.673052, 3.927168 ], [ -63.678047, 3.928556 ], [ -63.681945, 3.936054 ], [ -63.692771, 3.936332 ], [ -63.699999, 3.944665 ], [ -63.700275, 3.949786 ], [ -63.694443, 3.956891 ], [ -63.695826, 3.966612 ], [ -63.690549, 3.986335 ], [ -63.685551, 3.992447 ], [ -63.688885, 3.999389 ], [ -63.684994, 4.009387 ], [ -63.68889, 4.015778 ], [ -63.676388, 4.019385 ], [ -63.675272, 4.015516 ], [ -63.660275, 4.01023 ], [ -63.652219, 4.002172 ], [ -63.643047, 3.978833 ], [ -63.627111, 3.969565 ], [ -63.612009, 3.950801 ], [ -63.591667, 3.928552 ], [ -63.587498, 3.917727 ], [ -63.592772, 3.905776 ], [ -63.58416, 3.896054 ], [ -63.591378, 3.891066 ], [ -63.591382, 3.885778 ], [ -63.571107, 3.883553 ], [ -63.554159, 3.891333 ], [ -63.554717, 3.874674 ], [ -63.551386, 3.86522 ], [ -63.547769, 3.863004 ], [ -63.538884, 3.865503 ], [ -63.532498, 3.857446 ], [ -63.523051, 3.856337 ], [ -63.511942, 3.847728 ], [ -63.503053, 3.849949 ], [ -63.49694, 3.840221 ], [ -63.494438, 3.850775 ], [ -63.502493, 3.868282 ], [ -63.498607, 3.870221 ], [ -63.49333, 3.867444 ], [ -63.488885, 3.87439 ], [ -63.473333, 3.869388 ], [ -63.468606, 3.862167 ], [ -63.461111, 3.862724 ], [ -63.452224, 3.858558 ], [ -63.434165, 3.865223 ], [ -63.433325, 3.876333 ], [ -63.438053, 3.883554 ], [ -63.417498, 3.901332 ], [ -63.411388, 3.912162 ], [ -63.419996, 3.924113 ], [ -63.415832, 3.930229 ], [ -63.417222, 3.935218 ], [ -63.432497, 3.934666 ], [ -63.439164, 3.937445 ], [ -63.442218, 3.939945 ], [ -63.438889, 3.948835 ], [ -63.447549, 3.952668 ], [ -63.451663, 3.955775 ], [ -63.428329, 3.977445 ], [ -63.413053, 3.975502 ], [ -63.39277, 3.980774 ], [ -63.350829, 3.959941 ], [ -63.338048, 3.957166 ], [ -63.324159, 3.964112 ], [ -63.312218, 3.960782 ], [ -63.314441, 3.968835 ], [ -63.310549, 3.98217 ], [ -63.297775, 3.976894 ], [ -63.291942, 3.970772 ], [ -63.286105, 3.972999 ], [ -63.280271, 3.955503 ], [ -63.253607, 3.961887 ], [ -63.247067, 3.954904 ], [ -63.204444, 3.951607 ], [ -63.221661, 3.898831 ], [ -63.233053, 3.881886 ], [ -63.231665, 3.851055 ], [ -63.228054, 3.846056 ], [ -63.226106, 3.835776 ], [ -63.203889, 3.811886 ], [ -63.195285, 3.815496 ], [ -63.179163, 3.813283 ], [ -63.164158, 3.805225 ], [ -63.150827, 3.80633 ], [ -63.135251, 3.802727 ], [ -63.122775, 3.804946 ], [ -63.102777, 3.793554 ], [ -63.086381, 3.778837 ], [ -63.08194, 3.767449 ], [ -63.069161, 3.753279 ], [ -63.060272, 3.752165 ], [ -63.058606, 3.747724 ], [ -63.058606, 3.740776 ], [ -63.063047, 3.734111 ], [ -63.063046, 3.705225 ], [ -63.069998, 3.696614 ], [ -63.080832, 3.693558 ], [ -63.072498, 3.685782 ], [ -63.031941, 3.666056 ], [ -63.026382, 3.650505 ], [ -63.01499, 3.645501 ], [ -63.002768, 3.624948 ], [ -62.990278, 3.612449 ], [ -62.984438, 3.609951 ], [ -62.965104, 3.610937 ], [ -62.959719, 3.608004 ], [ -62.952007, 3.612137 ], [ -62.928608, 3.63967 ], [ -62.921664, 3.652998 ], [ -62.918604, 3.672722 ], [ -62.908327, 3.671333 ], [ -62.88638, 3.683837 ], [ -62.871943, 3.699386 ], [ -62.85249, 3.712172 ], [ -62.835278, 3.738834 ], [ -62.818887, 3.731892 ], [ -62.809715, 3.733002 ], [ -62.803886, 3.729949 ], [ -62.797496, 3.721056 ], [ -62.789443, 3.717998 ], [ -62.784439, 3.699947 ], [ -62.775547, 3.697451 ], [ -62.770275, 3.688552 ], [ -62.74805, 3.673 ], [ -62.743328, 3.673556 ], [ -62.743603, 3.684112 ], [ -62.736382, 3.689393 ], [ -62.73611, 3.699392 ], [ -62.730551, 3.708002 ], [ -62.734438, 3.719666 ], [ -62.733883, 3.737999 ], [ -62.739443, 3.756612 ], [ -62.735271, 3.779387 ], [ -62.74305, 3.787445 ], [ -62.731384, 3.796608 ], [ -62.728605, 3.804942 ], [ -62.742778, 3.808554 ], [ -62.749443, 3.817721 ], [ -62.770825, 3.834393 ], [ -62.771105, 3.839941 ], [ -62.753332, 3.849957 ], [ -62.758051, 3.854663 ], [ -62.756944, 3.859949 ], [ -62.768612, 3.867447 ], [ -62.775552, 3.875501 ], [ -62.775838, 3.881612 ], [ -62.788329, 3.893559 ], [ -62.786941, 3.914947 ], [ -62.782768, 3.917162 ], [ -62.782219, 3.922163 ], [ -62.786107, 3.929669 ], [ -62.782493, 3.934667 ], [ -62.761384, 3.941887 ], [ -62.751785, 3.96023 ], [ -62.742774, 3.974667 ], [ -62.761941, 3.984391 ], [ -62.768329, 4.006607 ], [ -62.766108, 4.012719 ], [ -62.749159, 4.021051 ], [ -62.753055, 4.031613 ], [ -62.748051, 4.035224 ], [ -62.735551, 4.04022 ], [ -62.701385, 4.031053 ], [ -62.688883, 4.032724 ], [ -62.678331, 4.038834 ], [ -62.658603, 4.034949 ], [ -62.655825, 4.042168 ], [ -62.64583, 4.046608 ], [ -62.627773, 4.039664 ], [ -62.609163, 4.044385 ], [ -62.601388, 4.036606 ], [ -62.588055, 4.03272 ], [ -62.580826, 4.025223 ], [ -62.580828, 4.018559 ], [ -62.572216, 4.014946 ], [ -62.555269, 4.018556 ], [ -62.560275, 4.02522 ], [ -62.561938, 4.036885 ], [ -62.547772, 4.045503 ], [ -62.537215, 4.043556 ], [ -62.532778, 4.046331 ], [ -62.53431, 4.051763 ], [ -62.543049, 4.062163 ], [ -62.541104, 4.079107 ], [ -62.548604, 4.077166 ], [ -62.55805, 4.080501 ], [ -62.553607, 4.082444 ], [ -62.549165, 4.096052 ], [ -62.544161, 4.098002 ], [ -62.552213, 4.109105 ], [ -62.541944, 4.109663 ], [ -62.522777, 4.117995 ], [ -62.522218, 4.123833 ], [ -62.531387, 4.132994 ], [ -62.53111, 4.136611 ], [ -62.507777, 4.126887 ], [ -62.508053, 4.137438 ], [ -62.498327, 4.142721 ], [ -62.49194, 4.141608 ], [ -62.488053, 4.134663 ], [ -62.477774, 4.13105 ], [ -62.471109, 4.139387 ], [ -62.464718, 4.138829 ], [ -62.460276, 4.143 ], [ -62.462215, 4.151604 ], [ -62.454714, 4.15605 ], [ -62.462214, 4.163279 ], [ -62.470275, 4.163274 ], [ -62.463606, 4.172998 ], [ -62.465275, 4.17494 ], [ -62.462223, 4.178274 ], [ -62.451387, 4.173282 ], [ -62.446937, 4.179939 ], [ -62.437219, 4.183275 ], [ -62.421666, 4.181882 ], [ -62.417219, 4.184667 ], [ -62.413331, 4.17994 ], [ -62.405831, 4.180215 ], [ -62.39777, 4.174387 ], [ -62.392214, 4.173829 ], [ -62.389164, 4.178281 ], [ -62.369717, 4.162996 ], [ -62.364997, 4.162993 ], [ -62.361388, 4.167442 ], [ -62.353054, 4.165499 ], [ -62.349999, 4.151052 ], [ -62.341383, 4.147161 ], [ -62.329157, 4.134944 ], [ -62.321943, 4.140775 ], [ -62.317493, 4.14105 ], [ -62.313885, 4.136886 ], [ -62.302221, 4.136882 ], [ -62.291662, 4.141611 ], [ -62.279443, 4.129939 ], [ -62.252222, 4.129666 ], [ -62.244162, 4.117163 ], [ -62.234444, 4.118553 ], [ -62.227218, 4.112163 ], [ -62.214994, 4.109389 ], [ -62.19666, 4.113272 ], [ -62.193048, 4.110499 ], [ -62.19333, 4.098552 ], [ -62.176938, 4.090501 ], [ -62.163905, 4.091467 ], [ -62.161108, 4.086328 ], [ -62.147501, 4.07939 ], [ -62.145547, 4.074388 ], [ -62.141662, 4.082436 ], [ -62.134715, 4.086889 ], [ -62.113889, 4.08828 ], [ -62.111665, 4.092717 ], [ -62.114995, 4.098834 ], [ -62.112494, 4.101608 ], [ -62.117216, 4.104669 ], [ -62.116944, 4.117717 ], [ -62.104716, 4.115494 ], [ -62.098055, 4.119386 ], [ -62.099436, 4.124941 ], [ -62.096664, 4.127718 ], [ -62.090826, 4.129389 ], [ -62.088604, 4.124388 ], [ -62.078045, 4.119678 ], [ -62.071387, 4.125502 ], [ -62.070549, 4.130776 ], [ -62.077495, 4.13633 ], [ -62.081104, 4.144943 ], [ -62.076387, 4.154107 ], [ -62.064438, 4.158832 ], [ -62.047772, 4.150502 ], [ -62.041383, 4.156334 ], [ -62.032215, 4.158272 ], [ -62.032777, 4.15411 ], [ -62.028607, 4.150498 ], [ -62.02138, 4.157442 ], [ -62.01111, 4.156327 ], [ -62.00611, 4.164939 ], [ -61.999996, 4.164384 ], [ -61.992775, 4.175222 ], [ -61.9825, 4.180772 ], [ -61.98, 4.179381 ], [ -61.982499, 4.171886 ], [ -61.980554, 4.16216 ], [ -61.974716, 4.151327 ], [ -61.950277, 4.125775 ], [ -61.94472, 4.111334 ], [ -61.930275, 4.103549 ], [ -61.927216, 4.108282 ], [ -61.930551, 4.115775 ], [ -61.926386, 4.120779 ], [ -61.920276, 4.151057 ], [ -61.922502, 4.156043 ], [ -61.905834, 4.156888 ], [ -61.899444, 4.161054 ], [ -61.889439, 4.154946 ], [ -61.879993, 4.155218 ], [ -61.872778, 4.151607 ], [ -61.868891, 4.15856 ], [ -61.874443, 4.170495 ], [ -61.868884, 4.172997 ], [ -61.860892, 4.171362 ], [ -61.850831, 4.174386 ], [ -61.846102, 4.164665 ], [ -61.836391, 4.160498 ], [ -61.823605, 4.16383 ], [ -61.818332, 4.167995 ], [ -61.81527, 4.188833 ], [ -61.821388, 4.199937 ], [ -61.808329, 4.202717 ], [ -61.807494, 4.213829 ], [ -61.800828, 4.219112 ], [ -61.80194, 4.228555 ], [ -61.787496, 4.23161 ], [ -61.785269, 4.224393 ], [ -61.782216, 4.224387 ], [ -61.763606, 4.232439 ], [ -61.774437, 4.249942 ], [ -61.768605, 4.248546 ], [ -61.738605, 4.25633 ], [ -61.73555, 4.263559 ], [ -61.723604, 4.269664 ], [ -61.722775, 4.260495 ], [ -61.731104, 4.252999 ], [ -61.725271, 4.245215 ], [ -61.719999, 4.245214 ], [ -61.703054, 4.254946 ], [ -61.691107, 4.253836 ], [ -61.684442, 4.256608 ], [ -61.680276, 4.254384 ], [ -61.670278, 4.262719 ], [ -61.657776, 4.261883 ], [ -61.655274, 4.255776 ], [ -61.645276, 4.25133 ], [ -61.64194, 4.238276 ], [ -61.63624, 4.238363 ], [ -61.631384, 4.24133 ], [ -61.626944, 4.254112 ], [ -61.621107, 4.250493 ], [ -61.607774, 4.261326 ], [ -61.600555, 4.249941 ], [ -61.590276, 4.244385 ], [ -61.571662, 4.251325 ], [ -61.559716, 4.25216 ], [ -61.55416, 4.257997 ], [ -61.552778, 4.265774 ], [ -61.541381, 4.272996 ], [ -61.531941, 4.284943 ], [ -61.522772, 4.288826 ], [ -61.525556, 4.296051 ], [ -61.512501, 4.309665 ], [ -61.507777, 4.322167 ], [ -61.520552, 4.325771 ], [ -61.520551, 4.332999 ], [ -61.526943, 4.34244 ], [ -61.524987, 4.347997 ], [ -61.516384, 4.349672 ], [ -61.521389, 4.373556 ], [ -61.520271, 4.386049 ], [ -61.514719, 4.392156 ], [ -61.517777, 4.398547 ], [ -61.513055, 4.405767 ], [ -61.485833, 4.410774 ], [ -61.471942, 4.424661 ], [ -61.464996, 4.42466 ], [ -61.461667, 4.436603 ], [ -61.447773, 4.439386 ], [ -61.445001, 4.435217 ], [ -61.439443, 4.43633 ], [ -61.435272, 4.432714 ], [ -61.441661, 4.427439 ], [ -61.440831, 4.424668 ], [ -61.427772, 4.426053 ], [ -61.426938, 4.431881 ], [ -61.421659, 4.433827 ], [ -61.4075, 4.430774 ], [ -61.403883, 4.424937 ], [ -61.37194, 4.427442 ], [ -61.351107, 4.419107 ], [ -61.338052, 4.421048 ], [ -61.336388, 4.428547 ], [ -61.318882, 4.430493 ], [ -61.324715, 4.442718 ], [ -61.313888, 4.451328 ], [ -61.312775, 4.457995 ], [ -61.287777, 4.457713 ], [ -61.288051, 4.463552 ], [ -61.279721, 4.467715 ], [ -61.278329, 4.478271 ], [ -61.295269, 4.481046 ], [ -61.296659, 4.493835 ], [ -61.303053, 4.494111 ], [ -61.311496, 4.50411 ], [ -61.321749, 4.503775 ], [ -61.321855, 4.51087 ], [ -61.329188, 4.516026 ], [ -61.322695, 4.535209 ], [ -61.307078, 4.536961 ], [ -61.304938, 4.541003 ], [ -61.299556, 4.536247 ], [ -61.284802, 4.53791 ], [ -61.275522, 4.528288 ], [ -61.270269, 4.532898 ], [ -61.269278, 4.539977 ], [ -61.256743, 4.536443 ], [ -61.252443, 4.522724 ], [ -61.249857, 4.53006 ], [ -61.243831, 4.533835 ], [ -61.219833, 4.522903 ], [ -61.219195, 4.534672 ], [ -61.216805, 4.535583 ], [ -61.200857, 4.51678 ], [ -61.196913, 4.52067 ], [ -61.18775, 4.520885 ], [ -61.175854, 4.511545 ], [ -61.170692, 4.502774 ], [ -61.164082, 4.502193 ], [ -61.161943, 4.496328 ], [ -61.151938, 4.496048 ], [ -61.146385, 4.481887 ], [ -61.132489, 4.498831 ], [ -61.127001, 4.500266 ], [ -61.12508, 4.505525 ], [ -61.107386, 4.510616 ], [ -61.10277, 4.51566 ], [ -61.096166, 4.517932 ], [ -61.09491, 4.522296 ], [ -61.076804, 4.517716 ], [ -61.065023, 4.523522 ], [ -61.022716, 4.520723 ], [ -61.016554, 4.516331 ], [ -60.994168, 4.518827 ], [ -60.995272, 4.526051 ], [ -60.983332, 4.54272 ], [ -60.963609, 4.544104 ], [ -60.957502, 4.55077 ], [ -60.953607, 4.56272 ], [ -60.955826, 4.58438 ], [ -60.939164, 4.579936 ], [ -60.931667, 4.586607 ], [ -60.936109, 4.596602 ], [ -60.942496, 4.600222 ], [ -60.932221, 4.616608 ], [ -60.938329, 4.623828 ], [ -60.938605, 4.634385 ], [ -60.951111, 4.642441 ], [ -60.949161, 4.652992 ], [ -60.948053, 4.655768 ], [ -60.934441, 4.657436 ], [ -60.929993, 4.662437 ], [ -60.916662, 4.665216 ], [ -60.908885, 4.686328 ], [ -60.911389, 4.703553 ], [ -60.899441, 4.716607 ], [ -60.874721, 4.715218 ], [ -60.870277, 4.708832 ], [ -60.852497, 4.703825 ], [ -60.831383, 4.727988 ], [ -60.819998, 4.727159 ], [ -60.811667, 4.731603 ], [ -60.813056, 4.737992 ], [ -60.806109, 4.748551 ], [ -60.789159, 4.749103 ], [ -60.788055, 4.75327 ], [ -60.763602, 4.759383 ], [ -60.751104, 4.75577 ], [ -60.742778, 4.761599 ], [ -60.737772, 4.772434 ], [ -60.726384, 4.774109 ], [ -60.720558, 4.778824 ], [ -60.72639, 4.781043 ], [ -60.72305, 4.786051 ], [ -60.726385, 4.791606 ], [ -60.719166, 4.799941 ], [ -60.704721, 4.809935 ], [ -60.695553, 4.81077 ], [ -60.686944, 4.819936 ], [ -60.685548, 4.826604 ], [ -60.675835, 4.831607 ], [ -60.671942, 4.841048 ], [ -60.658609, 4.849382 ], [ -60.655829, 4.865488 ], [ -60.647777, 4.869108 ], [ -60.653328, 4.881604 ], [ -60.651936, 4.884941 ], [ -60.628329, 4.889107 ], [ -60.625271, 4.904382 ], [ -60.615553, 4.918269 ], [ -60.608329, 4.924377 ], [ -60.591387, 4.927158 ], [ -60.583612, 4.956049 ], [ -60.592219, 4.971049 ], [ -60.598611, 4.999655 ], [ -60.612499, 5.006883 ], [ -60.610999, 5.015486 ], [ -60.623331, 5.027438 ], [ -60.631473, 5.050353 ], [ -60.643888, 5.057155 ], [ -60.640336, 5.081877 ], [ -60.644723, 5.096322 ], [ -60.640392, 5.110076 ], [ -60.642137, 5.117514 ], [ -60.648271, 5.119319 ], [ -60.653885, 5.112714 ], [ -60.655557, 5.114654 ], [ -60.657833, 5.134204 ], [ -60.655439, 5.149321 ], [ -60.660716, 5.164045 ], [ -60.678881, 5.176883 ], [ -60.680297, 5.188902 ], [ -60.686167, 5.194626 ], [ -60.694162, 5.197408 ], [ -60.701107, 5.194659 ], [ -60.717771, 5.195911 ], [ -60.727641, 5.20131 ], [ -60.735044, 5.20137 ], [ -60.722775, 5.220209 ], [ -60.708886, 5.21882 ], [ -60.696664, 5.229099 ], [ -60.681939, 5.232158 ], [ -60.659442, 5.227159 ], [ -60.651669, 5.23077 ], [ -60.638332, 5.220213 ], [ -60.624445, 5.215486 ], [ -60.614166, 5.218542 ], [ -60.603056, 5.215486 ], [ -60.596942, 5.22077 ], [ -60.591659, 5.217707 ], [ -60.589992, 5.207707 ], [ -60.568883, 5.196048 ], [ -60.545277, 5.194376 ], [ -60.53916, 5.202986 ], [ -60.526667, 5.208262 ], [ -60.499993, 5.202995 ], [ -60.474165, 5.201048 ], [ -60.469164, 5.203263 ], [ -60.463053, 5.19938 ], [ -60.451384, 5.203265 ], [ -60.446104, 5.184374 ], [ -60.43389, 5.181603 ], [ -60.41833, 5.194101 ], [ -60.417496, 5.206044 ], [ -60.413055, 5.213818 ], [ -60.404723, 5.211321 ], [ -60.383609, 5.222152 ], [ -60.370832, 5.214938 ], [ -60.371105, 5.207985 ], [ -60.36666, 5.204652 ], [ -60.355557, 5.209932 ], [ -60.345276, 5.204928 ], [ -60.336107, 5.208265 ], [ -60.327775, 5.205769 ], [ -60.319445, 5.207991 ], [ -60.313051, 5.21077 ], [ -60.303885, 5.226882 ], [ -60.282774, 5.229375 ], [ -60.277499, 5.234102 ], [ -60.27055, 5.234657 ], [ -60.269441, 5.24382 ], [ -60.263608, 5.251324 ], [ -60.245555, 5.25216 ], [ -60.234721, 5.262992 ], [ -60.226108, 5.264102 ], [ -60.211943, 5.272156 ], [ -60.201661, 5.266879 ], [ -60.192223, 5.252157 ], [ -60.194723, 5.238544 ], [ -60.171937, 5.226873 ], [ -60.15805, 5.231872 ], [ -60.134724, 5.248549 ], [ -60.13222, 5.225209 ], [ -60.106385, 5.194381 ], [ -60.095728, 5.143173 ], [ -60.093889, 5.140489 ], [ -60.073332, 5.139101 ], [ -60.066938, 5.133821 ], [ -60.065549, 5.127986 ], [ -60.059721, 5.126881 ], [ -60.059999, 5.121042 ], [ -60.052498, 5.11077 ], [ -60.047217, 5.112158 ], [ -60.026389, 5.096596 ], [ -60.02639, 5.092712 ], [ -60.008797, 5.086845 ], [ -60.001944, 5.089377 ], [ -59.996329, 5.084815 ], [ -60.00297, 5.073439 ], [ -59.99728, 5.066798 ], [ -60.007716, 5.059218 ], [ -59.99539, 5.04879 ], [ -59.995383, 5.044049 ], [ -60.002971, 5.034571 ], [ -59.999166, 5.029831 ], [ -60.003912, 5.024147 ], [ -60.002016, 5.012757 ], [ -59.989997, 4.988548 ], [ -59.992222, 4.979379 ], [ -59.989158, 4.970773 ], [ -59.995552, 4.960767 ], [ -59.990553, 4.948543 ], [ -59.995001, 4.945767 ], [ -59.993612, 4.932435 ], [ -60.007162, 4.907995 ], [ -60.01666, 4.842157 ], [ -60.018891, 4.835207 ], [ -60.029441, 4.824659 ], [ -60.03333, 4.810772 ], [ -60.028052, 4.805215 ], [ -60.036383, 4.799108 ], [ -60.039438, 4.783828 ], [ -60.026663, 4.773273 ], [ -60.03083, 4.759107 ], [ -60.028888, 4.738537 ], [ -60.043051, 4.717439 ], [ -60.030834, 4.706608 ], [ -60.02972, 4.700772 ], [ -60.063327, 4.669103 ], [ -60.078318, 4.648845 ], [ -60.080275, 4.64133 ], [ -60.074716, 4.632994 ], [ -60.07916, 4.621599 ], [ -60.074717, 4.608822 ], [ -60.101666, 4.595498 ], [ -60.109167, 4.601053 ], [ -60.116942, 4.595494 ], [ -60.126353, 4.597153 ], [ -60.134992, 4.587993 ], [ -60.127223, 4.568834 ], [ -60.141939, 4.571054 ], [ -60.143608, 4.566886 ], [ -60.140271, 4.55605 ], [ -60.149441, 4.557718 ], [ -60.153325, 4.56522 ], [ -60.159724, 4.56299 ], [ -60.164439, 4.548554 ], [ -60.157771, 4.539105 ], [ -60.160559, 4.528699 ], [ -60.162777, 4.506601 ], [ -60.155278, 4.503267 ], [ -60.137503, 4.50463 ], [ -60.132772, 4.501603 ], [ -60.104439, 4.501328 ], [ -60.101942, 4.5066 ], [ -60.108048, 4.517987 ], [ -60.09111, 4.523553 ], [ -60.087221, 4.516608 ], [ -60.089445, 4.508827 ], [ -60.076376, 4.516784 ], [ -60.068052, 4.511883 ], [ -60.071388, 4.503554 ], [ -60.070554, 4.494101 ], [ -60.064438, 4.496606 ], [ -60.045271, 4.495497 ], [ -60.033889, 4.491046 ], [ -60.023607, 4.495217 ], [ -60.01833, 4.490215 ], [ -60.008884, 4.496607 ], [ -60.003623, 4.496329 ], [ -59.991943, 4.483271 ], [ -59.983612, 4.480497 ], [ -59.976719, 4.482378 ], [ -59.972219, 4.476604 ], [ -59.969718, 4.478271 ], [ -59.971945, 4.484944 ], [ -59.969167, 4.503272 ], [ -59.961941, 4.503546 ], [ -59.959605, 4.498996 ], [ -59.940771, 4.49142 ], [ -59.933886, 4.494384 ], [ -59.931942, 4.487993 ], [ -59.922222, 4.484934 ], [ -59.92694, 4.478832 ], [ -59.925558, 4.476046 ], [ -59.908883, 4.473274 ], [ -59.911945, 4.462995 ], [ -59.904445, 4.454661 ], [ -59.894993, 4.471605 ], [ -59.881513, 4.471268 ], [ -59.876943, 4.473827 ], [ -59.874438, 4.481602 ], [ -59.869999, 4.482995 ], [ -59.872495, 4.474105 ], [ -59.859995, 4.466882 ], [ -59.86555, 4.464103 ], [ -59.867777, 4.455214 ], [ -59.858326, 4.448551 ], [ -59.849722, 4.452162 ], [ -59.840276, 4.449386 ], [ -59.831112, 4.454936 ], [ -59.828054, 4.447719 ], [ -59.811665, 4.4455 ], [ -59.804445, 4.451045 ], [ -59.803328, 4.463551 ], [ -59.796388, 4.465495 ], [ -59.792773, 4.461881 ], [ -59.794718, 4.446884 ], [ -59.778749, 4.446358 ], [ -59.779441, 4.438274 ], [ -59.76555, 4.437438 ], [ -59.751942, 4.419664 ], [ -59.735279, 4.420215 ], [ -59.719993, 4.405493 ], [ -59.719439, 4.395491 ], [ -59.696107, 4.379382 ], [ -59.693332, 4.377996 ], [ -59.683884, 4.383279 ], [ -59.671945, 4.37355 ], [ -59.682498, 4.363275 ], [ -59.676106, 4.344659 ], [ -59.690279, 4.334101 ], [ -59.70222, 4.319111 ], [ -59.702501, 4.303548 ], [ -59.709167, 4.306055 ], [ -59.715832, 4.303556 ], [ -59.722217, 4.291054 ], [ -59.731384, 4.284668 ], [ -59.726666, 4.278827 ], [ -59.728882, 4.271603 ], [ -59.715271, 4.274105 ], [ -59.707499, 4.268279 ], [ -59.735278, 4.236325 ], [ -59.731384, 4.225222 ], [ -59.73194, 4.208832 ], [ -59.726111, 4.194942 ], [ -59.720552, 4.189945 ], [ -59.724995, 4.184108 ], [ -59.722224, 4.178279 ], [ -59.710273, 4.164938 ], [ -59.699733, 4.16085 ], [ -59.680277, 4.146886 ], [ -59.642498, 4.146336 ], [ -59.616112, 4.132717 ], [ -59.621385, 4.117998 ], [ -59.629163, 4.111061 ], [ -59.649162, 4.070778 ], [ -59.638605, 4.067999 ], [ -59.627766, 4.054103 ], [ -59.614446, 4.054108 ], [ -59.61694, 4.05022 ], [ -59.61416, 4.038826 ], [ -59.597495, 4.030221 ], [ -59.596385, 4.017996 ], [ -59.599721, 4.016056 ], [ -59.607773, 4.020221 ], [ -59.609163, 4.016612 ], [ -59.599442, 4.009388 ], [ -59.589994, 4.019667 ], [ -59.587496, 4.012439 ], [ -59.593325, 3.999942 ], [ -59.587215, 3.993836 ], [ -59.577219, 4.00439 ], [ -59.574437, 4.001889 ], [ -59.578883, 3.99744 ], [ -59.572799, 3.987664 ], [ -59.586384, 3.977443 ], [ -59.584445, 3.967724 ], [ -59.570553, 3.969385 ], [ -59.567498, 3.964951 ], [ -59.558055, 3.97884 ], [ -59.545549, 3.979112 ], [ -59.544164, 3.972721 ], [ -59.525832, 3.967443 ], [ -59.519993, 3.954662 ], [ -59.522493, 3.951612 ], [ -59.515829, 3.944392 ], [ -59.526943, 3.938276 ], [ -59.524438, 3.932723 ], [ -59.528056, 3.92411 ], [ -59.534718, 3.926611 ], [ -59.538609, 3.932439 ], [ -59.543333, 3.9305 ], [ -59.541384, 3.922997 ], [ -59.547773, 3.919668 ], [ -59.564442, 3.919945 ], [ -59.567779, 3.890776 ], [ -59.577497, 3.902162 ], [ -59.576106, 3.890497 ], [ -59.591938, 3.888275 ], [ -59.59416, 3.884113 ], [ -59.59083, 3.867726 ], [ -59.593332, 3.862165 ], [ -59.584442, 3.857445 ], [ -59.589719, 3.85217 ], [ -59.587496, 3.835776 ], [ -59.578333, 3.831893 ], [ -59.578883, 3.816614 ], [ -59.584725, 3.823281 ], [ -59.590828, 3.815787 ], [ -59.598334, 3.81467 ], [ -59.594442, 3.807169 ], [ -59.595549, 3.796055 ], [ -59.598328, 3.794391 ], [ -59.607501, 3.803835 ], [ -59.61333, 3.802998 ], [ -59.616112, 3.794671 ], [ -59.629444, 3.784667 ], [ -59.633049, 3.78828 ], [ -59.627497, 3.794113 ], [ -59.628051, 3.799113 ], [ -59.63305, 3.796612 ], [ -59.639996, 3.784949 ], [ -59.648054, 3.788001 ], [ -59.664439, 3.78244 ], [ -59.670834, 3.768837 ], [ -59.669164, 3.765499 ], [ -59.679719, 3.759672 ], [ -59.679442, 3.755497 ], [ -59.672498, 3.753283 ], [ -59.674439, 3.744667 ], [ -59.669167, 3.742442 ], [ -59.663882, 3.733835 ], [ -59.671106, 3.72883 ], [ -59.66277, 3.716338 ], [ -59.668051, 3.703282 ], [ -59.680277, 3.696336 ], [ -59.688605, 3.699105 ], [ -59.693606, 3.688557 ], [ -59.70416, 3.689391 ], [ -59.710001, 3.679391 ], [ -59.71916, 3.674391 ], [ -59.72, 3.666331 ], [ -59.723608, 3.663276 ], [ -59.743334, 3.659666 ], [ -59.752496, 3.652167 ], [ -59.759992, 3.632448 ], [ -59.768888, 3.632724 ], [ -59.764164, 3.625781 ], [ -59.774163, 3.62578 ], [ -59.790553, 3.616895 ], [ -59.798334, 3.619112 ], [ -59.806664, 3.61689 ], [ -59.814996, 3.620499 ], [ -59.817482, 3.619679 ], [ -59.815555, 3.611057 ], [ -59.821661, 3.614114 ], [ -59.838334, 3.606332 ], [ -59.849999, 3.604943 ], [ -59.849996, 3.596055 ], [ -59.857494, 3.581892 ], [ -59.865831, 3.578006 ], [ -59.858605, 3.574109 ], [ -59.858332, 3.570781 ], [ -59.871391, 3.56354 ], [ -59.865831, 3.558284 ], [ -59.841944, 3.55272 ], [ -59.841944, 3.541062 ], [ -59.8375, 3.529682 ], [ -59.829719, 3.523558 ], [ -59.817501, 3.52134 ], [ -59.803607, 3.507174 ], [ -59.801383, 3.492449 ], [ -59.806233, 3.489396 ], [ -59.823604, 3.483836 ], [ -59.825277, 3.477725 ], [ -59.812774, 3.477452 ], [ -59.810556, 3.469394 ], [ -59.818608, 3.471893 ], [ -59.823582, 3.469419 ], [ -59.828328, 3.45578 ], [ -59.839439, 3.443557 ], [ -59.84002, 3.435107 ], [ -59.841327, 3.425337 ], [ -59.833609, 3.423007 ], [ -59.821111, 3.429113 ], [ -59.813608, 3.428283 ], [ -59.819723, 3.411061 ], [ -59.809717, 3.376895 ], [ -59.803884, 3.370505 ], [ -59.803329, 3.3619 ], [ -59.807497, 3.353002 ], [ -59.823889, 3.35689 ], [ -59.833032, 3.353584 ], [ -59.827221, 3.334674 ], [ -59.83233, 3.327226 ], [ -59.841667, 3.318565 ], [ -59.84194, 3.308559 ], [ -59.851661, 3.304399 ], [ -59.85861, 3.278562 ], [ -59.872221, 3.276621 ], [ -59.880552, 3.259668 ], [ -59.87861, 3.245782 ], [ -59.888057, 3.24245 ], [ -59.873882, 3.229398 ], [ -59.874992, 3.223842 ], [ -59.887222, 3.216618 ], [ -59.903329, 3.216614 ], [ -59.90694, 3.212447 ], [ -59.911664, 3.188005 ], [ -59.899443, 3.153843 ], [ -59.903889, 3.149394 ], [ -59.920557, 3.148839 ], [ -59.918055, 3.144122 ], [ -59.912222, 3.14662 ], [ -59.90807, 3.144402 ], [ -59.906938, 3.139678 ], [ -59.914719, 3.138005 ], [ -59.918888, 3.13217 ], [ -59.916666, 3.126067 ], [ -59.908886, 3.124401 ], [ -59.907497, 3.114395 ], [ -59.909996, 3.110785 ], [ -59.915271, 3.111339 ], [ -59.916668, 3.118006 ], [ -59.920833, 3.121067 ], [ -59.924165, 3.108842 ], [ -59.929439, 3.109676 ], [ -59.938328, 3.099677 ], [ -59.939162, 3.088005 ], [ -59.955552, 3.081338 ], [ -59.956385, 3.074397 ], [ -59.95027, 3.055505 ], [ -59.951382, 3.04162 ], [ -59.958885, 3.028283 ], [ -59.961275, 3.014908 ], [ -59.946665, 3.003289 ], [ -59.946585, 3.000024 ], [ -59.963335, 2.963288 ], [ -59.958048, 2.953841 ], [ -59.982219, 2.930508 ], [ -59.984998, 2.909957 ], [ -59.977222, 2.904124 ], [ -59.976382, 2.896896 ], [ -59.98833, 2.881902 ], [ -59.980828, 2.869672 ], [ -59.985827, 2.864125 ], [ -59.983329, 2.852733 ], [ -59.987314, 2.846197 ], [ -59.990277, 2.839401 ], [ -59.985827, 2.803293 ], [ -59.992216, 2.786071 ], [ -59.986387, 2.748287 ], [ -59.991389, 2.734401 ], [ -59.989432, 2.725268 ], [ -59.988057, 2.718848 ], [ -59.989997, 2.685513 ], [ -59.972772, 2.668289 ], [ -59.970551, 2.658848 ], [ -59.975556, 2.644963 ], [ -59.973947, 2.638127 ], [ -59.962223, 2.626334 ], [ -59.962779, 2.616905 ], [ -59.956112, 2.610514 ], [ -59.966111, 2.608569 ], [ -59.970278, 2.593851 ], [ -59.95833, 2.592458 ], [ -59.938888, 2.583015 ], [ -59.927491, 2.570789 ], [ -59.933947, 2.558235 ], [ -59.936384, 2.553018 ], [ -59.916383, 2.526904 ], [ -59.919165, 2.521351 ], [ -59.917494, 2.507739 ], [ -59.91194, 2.504677 ], [ -59.909997, 2.494681 ], [ -59.894998, 2.481905 ], [ -59.898333, 2.471904 ], [ -59.891944, 2.464682 ], [ -59.892218, 2.453848 ], [ -59.898608, 2.43857 ], [ -59.888605, 2.424958 ], [ -59.895271, 2.423571 ], [ -59.894162, 2.406348 ], [ -59.89722, 2.400514 ], [ -59.904443, 2.396622 ], [ -59.906665, 2.388571 ], [ -59.896109, 2.363292 ], [ -59.879164, 2.353019 ], [ -59.869999, 2.360794 ], [ -59.866666, 2.350238 ], [ -59.853328, 2.33857 ], [ -59.85111, 2.330797 ], [ -59.841942, 2.329126 ], [ -59.841664, 2.320518 ], [ -59.834995, 2.321075 ], [ -59.827492, 2.328852 ], [ -59.824159, 2.320517 ], [ -59.805273, 2.307738 ], [ -59.801661, 2.297737 ], [ -59.796421, 2.294982 ], [ -59.785273, 2.284405 ], [ -59.778886, 2.28552 ], [ -59.769715, 2.294132 ], [ -59.749165, 2.288294 ], [ -59.73833, 2.291911 ], [ -59.736666, 2.287183 ], [ -59.721945, 2.277181 ], [ -59.727222, 2.26385 ], [ -59.719439, 2.248574 ], [ -59.718609, 2.237744 ], [ -59.727218, 2.23024 ], [ -59.723885, 2.205246 ], [ -59.731386, 2.203577 ], [ -59.726111, 2.199963 ], [ -59.73333, 2.188019 ], [ -59.732519, 2.182715 ], [ -59.737216, 2.179133 ], [ -59.735, 2.17411 ], [ -59.739996, 2.163015 ], [ -59.736385, 2.15663 ], [ -59.737498, 2.146628 ], [ -59.726104, 2.136069 ], [ -59.723882, 2.130796 ], [ -59.727215, 2.124961 ], [ -59.722775, 2.122737 ], [ -59.720274, 2.114963 ], [ -59.721659, 2.098021 ], [ -59.734165, 2.091074 ], [ -59.740556, 2.073852 ], [ -59.735555, 2.050241 ], [ -59.730554, 2.046911 ], [ -59.730548, 2.037741 ], [ -59.726386, 2.034689 ], [ -59.728608, 2.030523 ], [ -59.719719, 2.028017 ], [ -59.720826, 2.023855 ], [ -59.731938, 2.018857 ], [ -59.734722, 2.013026 ], [ -59.731386, 2.012462 ], [ -59.730273, 2.008019 ], [ -59.73302, 1.999968 ], [ -59.7325, 1.984128 ], [ -59.736104, 1.984134 ], [ -59.740829, 1.972185 ], [ -59.735831, 1.967469 ], [ -59.739995, 1.957468 ], [ -59.737503, 1.955795 ], [ -59.745549, 1.941358 ], [ -59.745274, 1.929131 ], [ -59.755549, 1.921915 ], [ -59.753605, 1.912463 ], [ -59.758886, 1.900801 ], [ -59.746382, 1.878852 ], [ -59.753047, 1.866914 ], [ -59.751108, 1.858859 ], [ -59.745551, 1.85219 ], [ -59.734997, 1.851631 ], [ -59.734717, 1.84858 ], [ -59.733326, 1.851905 ], [ -59.719998, 1.84969 ], [ -59.710274, 1.854966 ], [ -59.691387, 1.85386 ], [ -59.679998, 1.845797 ], [ -59.677218, 1.838856 ], [ -59.665277, 1.848579 ], [ -59.668886, 1.861077 ], [ -59.6625, 1.870801 ], [ -59.662494, 1.863302 ], [ -59.649445, 1.843859 ], [ -59.658048, 1.824689 ], [ -59.653883, 1.817187 ], [ -59.660003, 1.811076 ], [ -59.664441, 1.813851 ], [ -59.672501, 1.807741 ], [ -59.678333, 1.807463 ], [ -59.680556, 1.796629 ], [ -59.678326, 1.790804 ], [ -59.685272, 1.790244 ], [ -59.68805, 1.77886 ], [ -59.684719, 1.774414 ], [ -59.688444, 1.767223 ], [ -59.689717, 1.756634 ], [ -59.665834, 1.75497 ], [ -59.662499, 1.737186 ], [ -59.653333, 1.743298 ], [ -59.632494, 1.741354 ], [ -59.629444, 1.728303 ], [ -59.616942, 1.715522 ], [ -59.607498, 1.722743 ], [ -59.587218, 1.726637 ], [ -59.583604, 1.732471 ], [ -59.566107, 1.736078 ], [ -59.556384, 1.724136 ], [ -59.549999, 1.728584 ], [ -59.54472, 1.721631 ], [ -59.538606, 1.722747 ], [ -59.53305, 1.716632 ], [ -59.533882, 1.709131 ], [ -59.526108, 1.702743 ], [ -59.525834, 1.691639 ], [ -59.513331, 1.681077 ], [ -59.510834, 1.668859 ], [ -59.506941, 1.668303 ], [ -59.506662, 1.674686 ], [ -59.499993, 1.677469 ], [ -59.492769, 1.673834 ], [ -59.494436, 1.645523 ], [ -59.489163, 1.641633 ], [ -59.482501, 1.626914 ], [ -59.464719, 1.618021 ], [ -59.447495, 1.61969 ], [ -59.437219, 1.594139 ], [ -59.426667, 1.58664 ], [ -59.43055, 1.566632 ], [ -59.422499, 1.556083 ], [ -59.412216, 1.551913 ], [ -59.399165, 1.557466 ], [ -59.395556, 1.555522 ], [ -59.393884, 1.537473 ], [ -59.38361, 1.529135 ], [ -59.383883, 1.523299 ], [ -59.378332, 1.52108 ], [ -59.381382, 1.507465 ], [ -59.3725, 1.506633 ], [ -59.364441, 1.509969 ], [ -59.361667, 1.504139 ], [ -59.357773, 1.510524 ], [ -59.358332, 1.518302 ], [ -59.339164, 1.518585 ], [ -59.329439, 1.514133 ], [ -59.331946, 1.506085 ], [ -59.321105, 1.482474 ], [ -59.327499, 1.473858 ], [ -59.326659, 1.464414 ], [ -59.313614, 1.460529 ], [ -59.309996, 1.466363 ], [ -59.301942, 1.465805 ], [ -59.286666, 1.453306 ], [ -59.28361, 1.449973 ], [ -59.288056, 1.444974 ], [ -59.288052, 1.439417 ], [ -59.283887, 1.437471 ], [ -59.274443, 1.418024 ], [ -59.282498, 1.410808 ], [ -59.271659, 1.406915 ], [ -59.268887, 1.400807 ], [ -59.258888, 1.397192 ], [ -59.252777, 1.388585 ], [ -59.233326, 1.386638 ], [ -59.226109, 1.377747 ], [ -59.207218, 1.371637 ], [ -59.204165, 1.377192 ], [ -59.196067, 1.378563 ], [ -59.186941, 1.374965 ], [ -59.171387, 1.357476 ], [ -59.160556, 1.359417 ], [ -59.152222, 1.349139 ], [ -59.145552, 1.347469 ], [ -59.131105, 1.352752 ], [ -59.118055, 1.343023 ], [ -59.102215, 1.348579 ], [ -59.09555, 1.34497 ], [ -59.089444, 1.346641 ], [ -59.086661, 1.338863 ], [ -59.075828, 1.331365 ], [ -59.069723, 1.329972 ], [ -59.065836, 1.335807 ], [ -59.057218, 1.33497 ], [ -59.052496, 1.324691 ], [ -59.048053, 1.323024 ], [ -59.022512, 1.331354 ], [ -59.012778, 1.324142 ], [ -59.000001, 1.324139 ], [ -58.993331, 1.327471 ], [ -58.988887, 1.324694 ], [ -58.981703, 1.307752 ], [ -58.97833, 1.301921 ], [ -58.972495, 1.309691 ], [ -58.965557, 1.31275 ], [ -58.918049, 1.316916 ], [ -58.914997, 1.314139 ], [ -58.915279, 1.30636 ], [ -58.923329, 1.293858 ], [ -58.921942, 1.290248 ], [ -58.918033, 1.285247 ], [ -58.898335, 1.279695 ], [ -58.886384, 1.260532 ], [ -58.904166, 1.251362 ], [ -58.904167, 1.24164 ], [ -58.911663, 1.238581 ], [ -58.894997, 1.228032 ], [ -58.894956, 0.905072 ], [ -58.895063, 0.592103 ], [ -58.894964, 0.263854 ], [ -59.191775, 0.263874 ], [ -59.43305, 0.263884 ], [ -59.952401, 0.263891 ], [ -60.037462, 0.26389 ], [ -60.046324, 0.232478 ] ], [ [ -60.556042, 0.95671 ], [ -60.560548, 0.955529 ], [ -60.560549, 0.955528 ], [ -60.556042, 0.95671 ] ], [ [ -60.538054, 0.975257 ], [ -60.54111, 0.98553 ], [ -60.541111, 0.98553 ], [ -60.538054, 0.975257 ] ] ] } }
]
}
