{
"type": "FeatureCollection",
"name": "geojs-25-macro_regions",
"crs": { "type": "name", "properties": { "name": "urn:ogc:def:crs:OGC:1.3:CRS84" } },
"features": [
{ "type": "Feature", "properties": { "MACRO_ID": "2501", "MACRO_NAME": "Macrorregião III - Sertão Alto Sertão", "id": "250010", "name": "Água Branca", "description": "Água Branca", "MUN_ID": "250010", "UF": "PB", "HREG_ID": "25011", "HREG_NAME": "11ª Região" }, "geometry": { "type": "Polygon", "coordinates": [ [ [ -38.162053, -7.779552 ], [ -38.162322, -7.779545 ], [ -38.183639, -7.79514 ], [ -38.205512, -7.807278 ], [ -38.221572, -7.819979 ], [ -38.235114, -7.825549 ], [ -38.238219, -7.830317 ], [ -38.256686, -7.830655 ], [ -38.264592, -7.827567 ], [ -38.275876, -7.833411 ], [ -38.286441, -7.829815 ], [ -38.297394, -7.813538 ], [ -38.302222, -7.78799 ], [ -38.295185, -7.779179 ], [ -38.3009, -7.768295 ], [ -38.299465, -7.762787 ], [ -38.316408, -7.764199 ], [ -38.301804, -7.744796 ], [ -38.310526, -7.738669 ], [ -38.315531, -7.728065 ], [ -38.311677, -7.715905 ], [ -38.316906, -7.715117 ], [ -38.315853, -7.708742 ], [ -38.320422, -7.69755 ], [ -38.326334, -7.693296 ], [ -38.330007, -7.695739 ], [ -38.336846, -7.693169 ], [ -38.34434, -7.694589 ], [ -38.357144, -7.676754 ], [ -38.361265, -7.685896 ], [ -38.369722, -7.692241 ], [ -38.370584, -7.698007 ], [ -38.381901, -7.707067 ], [ -38.403578, -7.714034 ], [ -38.40085, -7.72011 ], [ -38.409155, -7.730085 ], [ -38.412134, -7.729699 ], [ -38.427272, -7.729628 ], [ -38.433864, -7.720043 ], [ -38.449719, -7.716964 ], [ -38.456731, -7.717699 ], [ -38.463623, -7.730483 ], [ -38.490168, -7.734253 ], [ -38.495446, -7.7384 ], [ -38.496222, -7.749624 ], [ -38.516251, -7.748921 ], [ -38.529329, -7.7547 ], [ -38.545837, -7.749042 ], [ -38.559777, -7.756684 ], [ -38.57175, -7.751066 ], [ -38.574473, -7.75393 ], [ -38.578677, -7.746191 ], [ -38.589604, -7.755274 ], [ -38.593273, -7.753941 ], [ -38.597384, -7.741627 ], [ -38.607222, -7.739071 ], [ -38.607614, -7.72554 ], [ -38.616363, -7.713083 ], [ -38.624975, -7.707911 ], [ -38.626084, -7.694318 ], [ -38.640963, -7.686056 ], [ -38.641729, -7.677229 ], [ -38.651058, -7.676674 ], [ -38.650355, -7.668156 ], [ -38.658312, -7.661905 ], [ -38.663242, -7.657115 ], [ -38.669585, -7.660076 ], [ -38.672429, -7.658388 ], [ -38.678618, -7.646151 ], [ -38.686386, -7.634632 ], [ -38.695638, -7.632395 ], [ -38.705053, -7.621636 ], [ -38.714757, -7.621512 ], [ -38.717239, -7.626481 ], [ -38.71462, -7.615866 ], [ -38.717945, -7.608948 ], [ -38.712668, -7.607946 ], [ -38.710669, -7.586227 ], [ -38.702259, -7.580614 ], [ -38.688463, -7.581779 ], [ -38.67949, -7.574316 ], [ -38.674113, -7.568924 ], [ -38.654971, -7.565136 ], [ -38.658777, -7.560213 ], [ -38.653218, -7.554162 ], [ -38.656133, -7.545787 ], [ -38.652357, -7.539269 ], [ -38.651138, -7.527396 ], [ -38.654304, -7.521815 ], [ -38.646121, -7.517134 ], [ -38.645642, -7.50152 ], [ -38.63055, -7.486924 ], [ -38.635469, -7.474612 ], [ -38.641337, -7.464561 ], [ -38.645819, -7.462933 ], [ -38.644565, -7.459613 ], [ -38.602973, -7.457186 ], [ -38.602491, -7.453152 ], [ -38.60545, -7.444167 ], [ -38.595721, -7.438224 ], [ -38.594665, -7.433531 ], [ -38.583897, -7.432772 ], [ -38.584144, -7.415945 ], [ -38.595772, -7.41435 ], [ -38.590031, -7.400776 ], [ -38.583248, -7.397798 ], [ -38.576128, -7.376203 ], [ -38.56083, -7.357859 ], [ -38.551858, -7.340195 ], [ -38.549029, -7.334592 ], [ -38.54873, -7.325416 ], [ -38.550002, -7.315059 ], [ -38.539757, -7.305813 ], [ -38.534234, -7.293388 ], [ -38.542278, -7.277987 ], [ -38.541792, -7.265497 ], [ -38.551747, -7.263156 ], [ -38.554092, -7.251453 ], [ -38.551608, -7.243074 ], [ -38.556579, -7.239277 ], [ -38.58273, -7.247978 ], [ -38.59476, -7.246124 ], [ -38.600291, -7.234362 ], [ -38.605071, -7.236471 ], [ -38.615014, -7.229781 ], [ -38.619063, -7.220318 ], [ -38.622698, -7.207266 ], [ -38.619441, -7.196652 ], [ -38.624449, -7.190917 ], [ -38.636197, -7.193351 ], [ -38.64385, -7.183355 ], [ -38.673058, -7.184888 ], [ -38.687476, -7.189757 ], [ -38.682661, -7.175577 ], [ -38.676776, -7.170532 ], [ -38.676365, -7.167168 ], [ -38.68484, -7.16094 ], [ -38.674939, -7.155318 ], [ -38.674581, -7.143405 ], [ -38.677061, -7.130532 ], [ -38.66819, -7.116919 ], [ -38.6618, -7.109776 ], [ -38.6568, -7.093863 ], [ -38.659447, -7.085141 ], [ -38.666334, -7.081279 ], [ -38.671098, -7.070131 ], [ -38.676888, -7.066699 ], [ -38.669495, -7.047302 ], [ -38.672662, -7.045828 ], [ -38.689447, -7.039827 ], [ -38.691087, -7.028737 ], [ -38.713163, -7.017681 ], [ -38.71676, -7.016539 ], [ -38.730229, -7.011625 ], [ -38.750637, -6.996909 ], [ -38.758331, -6.998059 ], [ -38.764644, -6.993493 ], [ -38.76061, -6.989652 ], [ -38.751534, -6.98818 ], [ -38.742524, -6.974601 ], [ -38.747722, -6.966302 ], [ -38.746611, -6.960178 ], [ -38.756947, -6.957775 ], [ -38.764995, -6.947536 ], [ -38.755363, -6.939727 ], [ -38.757137, -6.934215 ], [ -38.762055, -6.926142 ], [ -38.758413, -6.924877 ], [ -38.758573, -6.916225 ], [ -38.764858, -6.910512 ], [ -38.755925, -6.90319 ], [ -38.729934, -6.896412 ], [ -38.731178, -6.88887 ], [ -38.728304, -6.886974 ], [ -38.713659, -6.885745 ], [ -38.713807, -6.876382 ], [ -38.708777, -6.874024 ], [ -38.700056, -6.876201 ], [ -38.686337, -6.86539 ], [ -38.678165, -6.863664 ], [ -38.675063, -6.861428 ], [ -38.676847, -6.853926 ], [ -38.671921, -6.846576 ], [ -38.669981, -6.842969 ], [ -38.677591, -6.834112 ], [ -38.675216, -6.829811 ], [ -38.661434, -6.823276 ], [ -38.65752, -6.816159 ], [ -38.655266, -6.813765 ], [ -38.654415, -6.812861 ], [ -38.648085, -6.806985 ], [ -38.635106, -6.80422 ], [ -38.641972, -6.791279 ], [ -38.639779, -6.788795 ], [ -38.629116, -6.789501 ], [ -38.617059, -6.793577 ], [ -38.613575, -6.782037 ], [ -38.628671, -6.777308 ], [ -38.639915, -6.763589 ], [ -38.652327, -6.759363 ], [ -38.65205, -6.756651 ], [ -38.649619, -6.751836 ], [ -38.65718, -6.74036 ], [ -38.655623, -6.729843 ], [ -38.665966, -6.719409 ], [ -38.672519, -6.70632 ], [ -38.669683, -6.702148 ], [ -38.672797, -6.696821 ], [ -38.664109, -6.67979 ], [ -38.66023, -6.678402 ], [ -38.662007, -6.673918 ], [ -38.651611, -6.672783 ], [ -38.646863, -6.663596 ], [ -38.646612, -6.653808 ], [ -38.656728, -6.64189 ], [ -38.65491, -6.630079 ], [ -38.648776, -6.627186 ], [ -38.646306, -6.615581 ], [ -38.628807, -6.604183 ], [ -38.632286, -6.590137 ], [ -38.6425, -6.580778 ], [ -38.632728, -6.568811 ], [ -38.632279, -6.562038 ], [ -38.625308, -6.557584 ], [ -38.626253, -6.552555 ], [ -38.606732, -6.529116 ], [ -38.610167, -6.531895 ], [ -38.615758, -6.527746 ], [ -38.611935, -6.512793 ], [ -38.59462, -6.500044 ], [ -38.570057, -6.469797 ], [ -38.569464, -6.454478 ], [ -38.565303, -6.451105 ], [ -38.556052, -6.447244 ], [ -38.555093, -6.437112 ], [ -38.553913, -6.432365 ], [ -38.524165, -6.406685 ], [ -38.517557, -6.408334 ], [ -38.525962, -6.394329 ], [ -38.530481, -6.392728 ], [ -38.542363, -6.401582 ], [ -38.55117, -6.397769 ], [ -38.573061, -6.403401 ], [ -38.577372, -6.402485 ], [ -38.582005, -6.399913 ], [ -38.581194, -6.396334 ], [ -38.588961, -6.395181 ], [ -38.593775, -6.396463 ], [ -38.601694, -6.389224 ], [ -38.594591, -6.386172 ], [ -38.592113, -6.377848 ], [ -38.582611, -6.373646 ], [ -38.572755, -6.37452 ], [ -38.575723, -6.362294 ], [ -38.567001, -6.361128 ], [ -38.564908, -6.356296 ], [ -38.562956, -6.355634 ], [ -38.544713, -6.35336 ], [ -38.549497, -6.350305 ], [ -38.544661, -6.344191 ], [ -38.533755, -6.341529 ], [ -38.516247, -6.345837 ], [ -38.505069, -6.356111 ], [ -38.493824, -6.34442 ], [ -38.484563, -6.339737 ], [ -38.480877, -6.336975 ], [ -38.474633, -6.332848 ], [ -38.458035, -6.329816 ], [ -38.475688, -6.34533 ], [ -38.490182, -6.365678 ], [ -38.482731, -6.380715 ], [ -38.485882, -6.398354 ], [ -38.465457, -6.396012 ], [ -38.451712, -6.392091 ], [ -38.448486, -6.394177 ], [ -38.447607, -6.402954 ], [ -38.44126, -6.404304 ], [ -38.437993, -6.409477 ], [ -38.42569, -6.413726 ], [ -38.405682, -6.409793 ], [ -38.402685, -6.409386 ], [ -38.401388, -6.409161 ], [ -38.391198, -6.415809 ], [ -38.387835, -6.418551 ], [ -38.382617, -6.424356 ], [ -38.381587, -6.431659 ], [ -38.374769, -6.436981 ], [ -38.373312, -6.455382 ], [ -38.36344, -6.453243 ], [ -38.360625, -6.461589 ], [ -38.354868, -6.456823 ], [ -38.343451, -6.456253 ], [ -38.338974, -6.459727 ], [ -38.33244, -6.457792 ], [ -38.328087, -6.460257 ], [ -38.317905, -6.473376 ], [ -38.315634, -6.482021 ], [ -38.31246, -6.48788 ], [ -38.312144, -6.487735 ], [ -38.311658, -6.488474 ], [ -38.308564, -6.489128 ], [ -38.297161, -6.486808 ], [ -38.293678, -6.489003 ], [ -38.28837, -6.505218 ], [ -38.269496, -6.494042 ], [ -38.261064, -6.484747 ], [ -38.256181, -6.482811 ], [ -38.252538, -6.485024 ], [ -38.238879, -6.479898 ], [ -38.228672, -6.482948 ], [ -38.22677, -6.483549 ], [ -38.200202, -6.48788 ], [ -38.191915, -6.49793 ], [ -38.172838, -6.499433 ], [ -38.160824, -6.498715 ], [ -38.147533, -6.491089 ], [ -38.135169, -6.518077 ], [ -38.119863, -6.521982 ], [ -38.116709, -6.522269 ], [ -38.097639, -6.509092 ], [ -38.095049, -6.493187 ], [ -38.082669, -6.485489 ], [ -38.070518, -6.463528 ], [ -38.066269, -6.46004 ], [ -38.061588, -6.459049 ], [ -38.058895, -6.452731 ], [ -38.053607, -6.453285 ], [ -38.051104, -6.442007 ], [ -38.046, -6.440532 ], [ -38.04305, -6.44295 ], [ -38.043575, -6.451577 ], [ -38.035908, -6.459593 ], [ -38.040726, -6.470775 ], [ -38.033824, -6.475448 ], [ -38.026411, -6.474358 ], [ -38.021467, -6.468057 ], [ -38.012599, -6.468455 ], [ -38.019621, -6.445606 ], [ -38.007877, -6.431794 ], [ -38.014045, -6.429994 ], [ -38.013348, -6.427029 ], [ -37.98867, -6.428237 ], [ -37.979912, -6.426686 ], [ -37.978737, -6.426295 ], [ -37.968331, -6.418345 ], [ -37.967675, -6.404724 ], [ -37.955048, -6.397809 ], [ -37.954858, -6.407663 ], [ -37.94509, -6.422222 ], [ -37.92777, -6.421194 ], [ -37.919099, -6.411248 ], [ -37.901185, -6.39928 ], [ -37.88991, -6.399737 ], [ -37.885903, -6.396602 ], [ -37.883915, -6.391278 ], [ -37.888165, -6.386811 ], [ -37.887878, -6.363971 ], [ -37.859481, -6.374479 ], [ -37.853896, -6.365918 ], [ -37.840298, -6.360942 ], [ -37.843771, -6.353959 ], [ -37.833914, -6.341987 ], [ -37.842849, -6.33269 ], [ -37.833386, -6.321381 ], [ -37.822327, -6.317381 ], [ -37.814409, -6.314745 ], [ -37.81419, -6.311914 ], [ -37.823684, -6.305636 ], [ -37.810075, -6.29126 ], [ -37.794172, -6.288635 ], [ -37.771353, -6.29055 ], [ -37.757317, -6.290375 ], [ -37.757451, -6.287383 ], [ -37.771076, -6.272668 ], [ -37.770132, -6.265239 ], [ -37.760171, -6.253693 ], [ -37.776268, -6.245478 ], [ -37.762721, -6.240738 ], [ -37.762427, -6.23494 ], [ -37.775271, -6.230946 ], [ -37.7635, -6.218503 ], [ -37.752734, -6.214033 ], [ -37.753189, -6.198072 ], [ -37.742029, -6.188579 ], [ -37.716064, -6.17884 ], [ -37.708652, -6.176607 ], [ -37.697838, -6.186206 ], [ -37.679814, -6.188751 ], [ -37.679747, -6.188756 ], [ -37.646368, -6.188995 ], [ -37.638131, -6.17944 ], [ -37.615905, -6.175801 ], [ -37.599569, -6.173614 ], [ -37.584793, -6.162429 ], [ -37.573427, -6.158377 ], [ -37.573378, -6.158227 ], [ -37.569277, -6.155042 ], [ -37.560309, -6.164135 ], [ -37.539652, -6.165534 ], [ -37.536007, -6.152439 ], [ -37.521534, -6.151394 ], [ -37.502548, -6.151744 ], [ -37.503053, -6.144 ], [ -37.489026, -6.144041 ], [ -37.482648, -6.151284 ], [ -37.473753, -6.148342 ], [ -37.458605, -6.144606 ], [ -37.45357, -6.119677 ], [ -37.44535, -6.111806 ], [ -37.425612, -6.108601 ], [ -37.407467, -6.112386 ], [ -37.391841, -6.107777 ], [ -37.381997, -6.085158 ], [ -37.378441, -6.084736 ], [ -37.371223, -6.082383 ], [ -37.354092, -6.08609 ], [ -37.335438, -6.067063 ], [ -37.328482, -6.064308 ], [ -37.308858, -6.057364 ], [ -37.300253, -6.049864 ], [ -37.295231, -6.049699 ], [ -37.286576, -6.057593 ], [ -37.272136, -6.055306 ], [ -37.263238, -6.04596 ], [ -37.256133, -6.028075 ], [ -37.250273, -6.025516 ], [ -37.23152, -6.027199 ], [ -37.222347, -6.041752 ], [ -37.204057, -6.037756 ], [ -37.193955, -6.047637 ], [ -37.173591, -6.04762 ], [ -37.175233, -6.054543 ], [ -37.17022, -6.082659 ], [ -37.172312, -6.098433 ], [ -37.166635, -6.109959 ], [ -37.174755, -6.141786 ], [ -37.166041, -6.153512 ], [ -37.156583, -6.152091 ], [ -37.165343, -6.169977 ], [ -37.173881, -6.179706 ], [ -37.192603, -6.182683 ], [ -37.193898, -6.19785 ], [ -37.20124, -6.205306 ], [ -37.233931, -6.212881 ], [ -37.251186, -6.226061 ], [ -37.270211, -6.251317 ], [ -37.274385, -6.281028 ], [ -37.286508, -6.281868 ], [ -37.306117, -6.277667 ], [ -37.318182, -6.279257 ], [ -37.327851, -6.302806 ], [ -37.333616, -6.307942 ], [ -37.363011, -6.321767 ], [ -37.376987, -6.343994 ], [ -37.377505, -6.35004 ], [ -37.377199, -6.368934 ], [ -37.382104, -6.373013 ], [ -37.388207, -6.379335 ], [ -37.388489, -6.390581 ], [ -37.395782, -6.400745 ], [ -37.397328, -6.415886 ], [ -37.386252, -6.425638 ], [ -37.381152, -6.435576 ], [ -37.380971, -6.4364 ], [ -37.380905, -6.436697 ], [ -37.39061, -6.452443 ], [ -37.396889, -6.514201 ], [ -37.415367, -6.53148 ], [ -37.436003, -6.532845 ], [ -37.436222, -6.532842 ], [ -37.444553, -6.532671 ], [ -37.464382, -6.532264 ], [ -37.473599, -6.537569 ], [ -37.482785, -6.550011 ], [ -37.48024, -6.55942 ], [ -37.474472, -6.564051 ], [ -37.479775, -6.59375 ], [ -37.480041, -6.604818 ], [ -37.475657, -6.607714 ], [ -37.474189, -6.617513 ], [ -37.476873, -6.641511 ], [ -37.465848, -6.659559 ], [ -37.474858, -6.672422 ], [ -37.470638, -6.679936 ], [ -37.484356, -6.709636 ], [ -37.45553, -6.704852 ], [ -37.426636, -6.700055 ], [ -37.406991, -6.696794 ], [ -37.399628, -6.699328 ], [ -37.342371, -6.700846 ], [ -37.313957, -6.688573 ], [ -37.297925, -6.691163 ], [ -37.283374, -6.693514 ], [ -37.289826, -6.712643 ], [ -37.279576, -6.723832 ], [ -37.263579, -6.731769 ], [ -37.269022, -6.761584 ], [ -37.273608, -6.766389 ], [ -37.256985, -6.779994 ], [ -37.260251, -6.786958 ], [ -37.255076, -6.798067 ], [ -37.254803, -6.810659 ], [ -37.251716, -6.812699 ], [ -37.234258, -6.824234 ], [ -37.213555, -6.824417 ], [ -37.190331, -6.824963 ], [ -37.151887, -6.797962 ], [ -37.128596, -6.765575 ], [ -37.11972, -6.76689 ], [ -37.075077, -6.753732 ], [ -37.059084, -6.749023 ], [ -37.034921, -6.733764 ], [ -37.011846, -6.715821 ], [ -37.009647, -6.714111 ], [ -37.003252, -6.709211 ], [ -36.989602, -6.708749 ], [ -36.977283, -6.721454 ], [ -36.971459, -6.740244 ], [ -36.971548, -6.765081 ], [ -36.964228, -6.773653 ], [ -36.952324, -6.774751 ], [ -36.958759, -6.782901 ], [ -36.956797, -6.790076 ], [ -36.931184, -6.768173 ], [ -36.909878, -6.756528 ], [ -36.873996, -6.742782 ], [ -36.834692, -6.730669 ], [ -36.788793, -6.772064 ], [ -36.772392, -6.786663 ], [ -36.769128, -6.838345 ], [ -36.760405, -6.837565 ], [ -36.729861, -6.835993 ], [ -36.744652, -6.879111 ], [ -36.755727, -6.895922 ], [ -36.759661, -6.914137 ], [ -36.766207, -6.935464 ], [ -36.755465, -6.953863 ], [ -36.737039, -6.972405 ], [ -36.730734, -6.975784 ], [ -36.718217, -6.982331 ], [ -36.712103, -6.979615 ], [ -36.699366, -6.947937 ], [ -36.694335, -6.934087 ], [ -36.686882, -6.925559 ], [ -36.654542, -6.927835 ], [ -36.659632, -6.934221 ], [ -36.661417, -6.961147 ], [ -36.66686, -6.969192 ], [ -36.671452, -6.971505 ], [ -36.68583, -6.968896 ], [ -36.69588, -6.976241 ], [ -36.701477, -6.985619 ], [ -36.694841, -7.000952 ], [ -36.686174, -7.009133 ], [ -36.702825, -7.006936 ], [ -36.725251, -7.003456 ], [ -36.730252, -7.018792 ], [ -36.741817, -7.024889 ], [ -36.742482, -7.032557 ], [ -36.753718, -7.042536 ], [ -36.750037, -7.058255 ], [ -36.750992, -7.079507 ], [ -36.751164, -7.07984 ], [ -36.778122, -7.112125 ], [ -36.809771, -7.150039 ], [ -36.833081, -7.14482 ], [ -36.84418, -7.146138 ], [ -36.849845, -7.150198 ], [ -36.85826, -7.14877 ], [ -36.879787, -7.158944 ], [ -36.894419, -7.159768 ], [ -36.904688, -7.15162 ], [ -36.919169, -7.154856 ], [ -36.930687, -7.153046 ], [ -36.930951, -7.149667 ], [ -36.944099, -7.151364 ], [ -36.954338, -7.148517 ], [ -36.954482, -7.14851 ], [ -36.963864, -7.150366 ], [ -36.976323, -7.160062 ], [ -36.992279, -7.179716 ], [ -37.001602, -7.175331 ], [ -37.018815, -7.190053 ], [ -37.034301, -7.189516 ], [ -37.029294, -7.204923 ], [ -37.02927, -7.204995 ], [ -37.014518, -7.250342 ], [ -37.011683, -7.283051 ], [ -37.027036, -7.286536 ], [ -37.028756, -7.292699 ], [ -37.038987, -7.329377 ], [ -37.052845, -7.379092 ], [ -37.069091, -7.381977 ], [ -37.072608, -7.367869 ], [ -37.081057, -7.363128 ], [ -37.085282, -7.35785 ], [ -37.097006, -7.353562 ], [ -37.101523, -7.356225 ], [ -37.106363, -7.353484 ], [ -37.121223, -7.350508 ], [ -37.127637, -7.343596 ], [ -37.134974, -7.346258 ], [ -37.139996, -7.341719 ], [ -37.144602, -7.334639 ], [ -37.156726, -7.337807 ], [ -37.165, -7.336189 ], [ -37.167769, -7.331556 ], [ -37.168189, -7.319545 ], [ -37.176584, -7.309146 ], [ -37.196331, -7.294263 ], [ -37.213833, -7.290896 ], [ -37.232502, -7.274683 ], [ -37.23327, -7.27399 ], [ -37.260476, -7.273754 ], [ -37.277421, -7.274779 ], [ -37.28799, -7.287883 ], [ -37.30747, -7.288836 ], [ -37.313618, -7.288955 ], [ -37.332251, -7.289326 ], [ -37.345696, -7.30856 ], [ -37.35694, -7.322709 ], [ -37.349167, -7.336622 ], [ -37.38537, -7.356288 ], [ -37.407796, -7.357698 ], [ -37.412307, -7.361467 ], [ -37.425168, -7.35251 ], [ -37.431478, -7.356252 ], [ -37.444411, -7.360271 ], [ -37.465579, -7.357637 ], [ -37.478406, -7.35958 ], [ -37.48555, -7.361661 ], [ -37.497695, -7.366436 ], [ -37.486614, -7.394648 ], [ -37.494328, -7.398615 ], [ -37.496637, -7.403057 ], [ -37.499191, -7.406957 ], [ -37.50535, -7.418753 ], [ -37.513295, -7.42432 ], [ -37.513831, -7.432628 ], [ -37.521361, -7.439072 ], [ -37.527059, -7.447974 ], [ -37.528246, -7.459661 ], [ -37.527613, -7.464904 ], [ -37.532722, -7.472546 ], [ -37.552192, -7.479208 ], [ -37.571438, -7.488706 ], [ -37.586384, -7.498701 ], [ -37.609425, -7.507624 ], [ -37.611027, -7.518161 ], [ -37.619599, -7.525472 ], [ -37.630032, -7.532104 ], [ -37.644196, -7.529471 ], [ -37.649481, -7.529903 ], [ -37.659183, -7.52273 ], [ -37.676288, -7.535206 ], [ -37.681804, -7.547969 ], [ -37.70616, -7.550176 ], [ -37.709742, -7.559118 ], [ -37.706225, -7.569059 ], [ -37.710665, -7.573345 ], [ -37.720685, -7.581485 ], [ -37.728385, -7.579322 ], [ -37.734603, -7.596807 ], [ -37.741106, -7.597125 ], [ -37.743754, -7.603603 ], [ -37.745359, -7.608923 ], [ -37.7555, -7.619114 ], [ -37.757631, -7.633712 ], [ -37.76424, -7.630974 ], [ -37.766895, -7.657071 ], [ -37.766983, -7.656141 ], [ -37.767636, -7.656187 ], [ -37.767807, -7.655489 ], [ -37.767052, -7.655429 ], [ -37.767738, -7.648266 ], [ -37.771571, -7.647828 ], [ -37.775776, -7.64622 ], [ -37.776013, -7.634304 ], [ -37.780613, -7.626636 ], [ -37.79046, -7.625536 ], [ -37.807623, -7.643552 ], [ -37.843562, -7.646764 ], [ -37.856811, -7.651561 ], [ -37.869302, -7.66715 ], [ -37.88025, -7.683241 ], [ -37.897006, -7.690418 ], [ -37.902964, -7.697609 ], [ -37.902937, -7.697641 ], [ -37.902978, -7.697691 ], [ -37.891949, -7.710529 ], [ -37.893987, -7.713217 ], [ -37.912719, -7.709064 ], [ -37.916926, -7.711321 ], [ -37.91957, -7.712738 ], [ -37.920618, -7.713301 ], [ -37.922902, -7.715691 ], [ -37.922003, -7.723229 ], [ -37.942753, -7.740627 ], [ -37.944329, -7.74601 ], [ -37.947197, -7.755813 ], [ -37.958079, -7.765575 ], [ -37.964453, -7.772277 ], [ -37.966326, -7.773923 ], [ -37.970979, -7.777151 ], [ -37.982619, -7.772239 ], [ -37.989919, -7.778467 ], [ -38.000371, -7.778552 ], [ -38.005104, -7.777353 ], [ -38.007797, -7.76646 ], [ -38.012114, -7.765397 ], [ -38.029566, -7.749426 ], [ -38.039233, -7.74771 ], [ -38.069129, -7.771915 ], [ -38.074866, -7.788716 ], [ -38.073133, -7.79311 ], [ -38.075392, -7.804974 ], [ -38.065956, -7.817257 ], [ -38.069026, -7.825708 ], [ -38.076719, -7.83017 ], [ -38.080203, -7.828773 ], [ -38.082989, -7.827654 ], [ -38.09689, -7.826918 ], [ -38.119706, -7.818565 ], [ -38.123803, -7.812572 ], [ -38.122086, -7.807025 ], [ -38.130808, -7.803459 ], [ -38.131076, -7.79535 ], [ -38.143413, -7.782996 ], [ -38.162053, -7.779552 ] ], [ [ -37.697259, -6.545983 ], [ -37.697259, -6.545984 ], [ -37.689127, -6.548537 ], [ -37.697259, -6.545983 ] ] ] } },
{ "type": "Feature", "properties": { "MACRO_ID": "2502", "MACRO_NAME": "Macrorregião II - Campina Grande", "id": "250030", "name": "Alagoa Grande", "description": "Alagoa Grande", "MUN_ID": "250030", "UF": "PB", "HREG_ID": "25003", "HREG_NAME": "3ª Região" }, "geometry": { "type": "Polygon", "coordinates": [ [ [ -37.039771, -8.265972 ], [ -37.080861, -8.265961 ], [ -37.080279, -8.240669 ], [ -37.06619, -8.232586 ], [ -37.067077, -8.229689 ], [ -37.080554, -8.221478 ], [ -37.089551, -8.230753 ], [ -37.100086, -8.233294 ], [ -37.122573, -8.208653 ], [ -37.125758, -8.191084 ], [ -37.118319, -8.179977 ], [ -37.117918, -8.174939 ], [ -37.12611, -8.173271 ], [ -37.14085, -8.176821 ], [ -37.159883, -8.169988 ], [ -37.163079, -8.158275 ], [ -37.150662, -8.149629 ], [ -37.158271, -8.138457 ], [ -37.152886, -8.127055 ], [ -37.14383, -8.124584 ], [ -37.142216, -8.117532 ], [ -37.147476, -8.09968 ], [ -37.143365, -8.087553 ], [ -37.145167, -8.081778 ], [ -37.156503, -8.064121 ], [ -37.15775, -8.050812 ], [ -37.148057, -8.034702 ], [ -37.149229, -8.023327 ], [ -37.149312, -8.022403 ], [ -37.151452, -8.009003 ], [ -37.160077, -7.996741 ], [ -37.174967, -7.996447 ], [ -37.178051, -7.990175 ], [ -37.185129, -7.990033 ], [ -37.187933, -7.982548 ], [ -37.193052, -7.982455 ], [ -37.192333, -7.960187 ], [ -37.207051, -7.95179 ], [ -37.212527, -7.954504 ], [ -37.216937, -7.95598 ], [ -37.221094, -7.961998 ], [ -37.219246, -7.972381 ], [ -37.22844, -7.972183 ], [ -37.230418, -7.968986 ], [ -37.236999, -7.972896 ], [ -37.24664, -7.968945 ], [ -37.263192, -7.967766 ], [ -37.277059, -7.971568 ], [ -37.295233, -7.96451 ], [ -37.302993, -7.969801 ], [ -37.31665, -7.967654 ], [ -37.33944, -7.979392 ], [ -37.34094, -7.974118 ], [ -37.355528, -7.975454 ], [ -37.355836, -7.972319 ], [ -37.34758, -7.955001 ], [ -37.349873, -7.948183 ], [ -37.334387, -7.942636 ], [ -37.31728, -7.942359 ], [ -37.31436, -7.935523 ], [ -37.308633, -7.933766 ], [ -37.307711, -7.92665 ], [ -37.311057, -7.921238 ], [ -37.307641, -7.914576 ], [ -37.312916, -7.910975 ], [ -37.322426, -7.912587 ], [ -37.318424, -7.908546 ], [ -37.306935, -7.906897 ], [ -37.303308, -7.903765 ], [ -37.287051, -7.903466 ], [ -37.253041, -7.879833 ], [ -37.24375, -7.873435 ], [ -37.246525, -7.867769 ], [ -37.244583, -7.861175 ], [ -37.250027, -7.853245 ], [ -37.246807, -7.846394 ], [ -37.22175, -7.84184 ], [ -37.227812, -7.821108 ], [ -37.240119, -7.822684 ], [ -37.243313, -7.818592 ], [ -37.229834, -7.812699 ], [ -37.230219, -7.806331 ], [ -37.222655, -7.803652 ], [ -37.217073, -7.806276 ], [ -37.197615, -7.798506 ], [ -37.191196, -7.79076 ], [ -37.182693, -7.790307 ], [ -37.175398, -7.795918 ], [ -37.170326, -7.79982 ], [ -37.171024, -7.794761 ], [ -37.167913, -7.794711 ], [ -37.159471, -7.792806 ], [ -37.151609, -7.779435 ], [ -37.156439, -7.776459 ], [ -37.15669, -7.772591 ], [ -37.138603, -7.745108 ], [ -37.150256, -7.728623 ], [ -37.150155, -7.715523 ], [ -37.1542, -7.705995 ], [ -37.160698, -7.697558 ], [ -37.173716, -7.683886 ], [ -37.179775, -7.666696 ], [ -37.194789, -7.651654 ], [ -37.196979, -7.645026 ], [ -37.196331, -7.629173 ], [ -37.183761, -7.615407 ], [ -37.180217, -7.601733 ], [ -37.18018, -7.601585 ], [ -37.172885, -7.587489 ], [ -37.155428, -7.567473 ], [ -37.133391, -7.549637 ], [ -37.121182, -7.535711 ], [ -37.105763, -7.530719 ], [ -37.085855, -7.517386 ], [ -37.067967, -7.516701 ], [ -37.053482, -7.504161 ], [ -37.042817, -7.503506 ], [ -37.030075, -7.49803 ], [ -37.025821, -7.496917 ], [ -37.025648, -7.496804 ], [ -37.024862, -7.49629 ], [ -37.010221, -7.489149 ], [ -37.002913, -7.495981 ], [ -36.983885, -7.481854 ], [ -36.985083, -7.475194 ], [ -36.995113, -7.472182 ], [ -36.993722, -7.464303 ], [ -36.99697, -7.458986 ], [ -37.01039, -7.453228 ], [ -37.012837, -7.444576 ], [ -37.020884, -7.43979 ], [ -37.022461, -7.43562 ], [ -37.023275, -7.43346 ], [ -37.014168, -7.429961 ], [ -37.017224, -7.424166 ], [ -37.025637, -7.422056 ], [ -37.01302, -7.403617 ], [ -37.013362, -7.403386 ], [ -37.027584, -7.385458 ], [ -37.049646, -7.377182 ], [ -37.052845, -7.379092 ], [ -37.038987, -7.329377 ], [ -37.028756, -7.292699 ], [ -37.027036, -7.286536 ], [ -37.011683, -7.283051 ], [ -37.014518, -7.250342 ], [ -37.02927, -7.204995 ], [ -37.029294, -7.204923 ], [ -37.034301, -7.189516 ], [ -37.018815, -7.190053 ], [ -37.001602, -7.175331 ], [ -36.992279, -7.179716 ], [ -36.976323, -7.160062 ], [ -36.963864, -7.150366 ], [ -36.954482, -7.14851 ], [ -36.954338, -7.148517 ], [ -36.944099, -7.151364 ], [ -36.930951, -7.149667 ], [ -36.930687, -7.153046 ], [ -36.919169, -7.154856 ], [ -36.904688, -7.15162 ], [ -36.894419, -7.159768 ], [ -36.879787, -7.158944 ], [ -36.85826, -7.14877 ], [ -36.849845, -7.150198 ], [ -36.84418, -7.146138 ], [ -36.833081, -7.14482 ], [ -36.809771, -7.150039 ], [ -36.778122, -7.112125 ], [ -36.751164, -7.07984 ], [ -36.750992, -7.079507 ], [ -36.750037, -7.058255 ], [ -36.753718, -7.042536 ], [ -36.742482, -7.032557 ], [ -36.741817, -7.024889 ], [ -36.730252, -7.018792 ], [ -36.725251, -7.003456 ], [ -36.702825, -7.006936 ], [ -36.686174, -7.009133 ], [ -36.694841, -7.000952 ], [ -36.701477, -6.985619 ], [ -36.69588, -6.976241 ], [ -36.68583, -6.968896 ], [ -36.671452, -6.971505 ], [ -36.66686, -6.969192 ], [ -36.661417, -6.961147 ], [ -36.659632, -6.934221 ], [ -36.654542, -6.927835 ], [ -36.637112, -6.933404 ], [ -36.616195, -6.933612 ], [ -36.609458, -6.936434 ], [ -36.567604, -6.874394 ], [ -36.566459, -6.866189 ], [ -36.573744, -6.857055 ], [ -36.56946, -6.847605 ], [ -36.559821, -6.840371 ], [ -36.543333, -6.841696 ], [ -36.528831, -6.824995 ], [ -36.509627, -6.817546 ], [ -36.505157, -6.808422 ], [ -36.50097, -6.777167 ], [ -36.504419, -6.753536 ], [ -36.520231, -6.745279 ], [ -36.524879, -6.736316 ], [ -36.533183, -6.733084 ], [ -36.543869, -6.730802 ], [ -36.558545, -6.708706 ], [ -36.557009, -6.7057 ], [ -36.547081, -6.694747 ], [ -36.541411, -6.665662 ], [ -36.520408, -6.6102 ], [ -36.523184, -6.601802 ], [ -36.521576, -6.596687 ], [ -36.513476, -6.593992 ], [ -36.507625, -6.59505 ], [ -36.501577, -6.601078 ], [ -36.473146, -6.614006 ], [ -36.460184, -6.633992 ], [ -36.449015, -6.623796 ], [ -36.437888, -6.628882 ], [ -36.435524, -6.625477 ], [ -36.440837, -6.599036 ], [ -36.444056, -6.557919 ], [ -36.448839, -6.553514 ], [ -36.461922, -6.54993 ], [ -36.462366, -6.54985 ], [ -36.468856, -6.548696 ], [ -36.478934, -6.539469 ], [ -36.482296, -6.519138 ], [ -36.518939, -6.50215 ], [ -36.525512, -6.500761 ], [ -36.527876, -6.478884 ], [ -36.530491, -6.471432 ], [ -36.530637, -6.451672 ], [ -36.507157, -6.399717 ], [ -36.504043, -6.386052 ], [ -36.499514, -6.357766 ], [ -36.448452, -6.361552 ], [ -36.444449, -6.361776 ], [ -36.429972, -6.361856 ], [ -36.394228, -6.293576 ], [ -36.362272, -6.30958 ], [ -36.343655, -6.302136 ], [ -36.343131, -6.301832 ], [ -36.307259, -6.281099 ], [ -36.294647, -6.291708 ], [ -36.286714, -6.300666 ], [ -36.27954, -6.308463 ], [ -36.278803, -6.317229 ], [ -36.278145, -6.348958 ], [ -36.296006, -6.370011 ], [ -36.298912, -6.381658 ], [ -36.294889, -6.394161 ], [ -36.282587, -6.397019 ], [ -36.268762, -6.401488 ], [ -36.261912, -6.401876 ], [ -36.250831, -6.404024 ], [ -36.24944, -6.43696 ], [ -36.226203, -6.433629 ], [ -36.203856, -6.43182 ], [ -36.174133, -6.430365 ], [ -36.14342, -6.424925 ], [ -36.109857, -6.428781 ], [ -36.107143, -6.425877 ], [ -36.102783, -6.421148 ], [ -36.098241, -6.419525 ], [ -36.09615, -6.41986 ], [ -36.095773, -6.419799 ], [ -36.086414, -6.415436 ], [ -36.079683, -6.40479 ], [ -36.072377, -6.410023 ], [ -36.073432, -6.414472 ], [ -36.066895, -6.414688 ], [ -36.061408, -6.409846 ], [ -36.050918, -6.431803 ], [ -36.036381, -6.443865 ], [ -36.012955, -6.454641 ], [ -36.008007, -6.464719 ], [ -36.011879, -6.473533 ], [ -36.007026, -6.474122 ], [ -36.005018, -6.480653 ], [ -35.977318, -6.488505 ], [ -35.971911, -6.487138 ], [ -35.964912, -6.483959 ], [ -35.943854, -6.492606 ], [ -35.870032, -6.488237 ], [ -35.852762, -6.487213 ], [ -35.867863, -6.545382 ], [ -35.876619, -6.578089 ], [ -35.875206, -6.59258 ], [ -35.871938, -6.626015 ], [ -35.871312, -6.632413 ], [ -35.866727, -6.679194 ], [ -35.874105, -6.69141 ], [ -35.892943, -6.690664 ], [ -35.901417, -6.69953 ], [ -35.898575, -6.704616 ], [ -35.901022, -6.705978 ], [ -35.906851, -6.709221 ], [ -35.910872, -6.717083 ], [ -35.922393, -6.719905 ], [ -35.9222, -6.730922 ], [ -35.898548, -6.743565 ], [ -35.896152, -6.749991 ], [ -35.902617, -6.757633 ], [ -35.899349, -6.77301 ], [ -35.905308, -6.778133 ], [ -35.906568, -6.784262 ], [ -35.897383, -6.793202 ], [ -35.891179, -6.793034 ], [ -35.868979, -6.816596 ], [ -35.844026, -6.836017 ], [ -35.839075, -6.846158 ], [ -35.82862, -6.85639 ], [ -35.809839, -6.863217 ], [ -35.808148, -6.847611 ], [ -35.811642, -6.842958 ], [ -35.806331, -6.840775 ], [ -35.805065, -6.834169 ], [ -35.796143, -6.833927 ], [ -35.792002, -6.82633 ], [ -35.786522, -6.82378 ], [ -35.762419, -6.823755 ], [ -35.759198, -6.824168 ], [ -35.754955, -6.824517 ], [ -35.752156, -6.824933 ], [ -35.742223, -6.813122 ], [ -35.729098, -6.816859 ], [ -35.719747, -6.824794 ], [ -35.715893, -6.820674 ], [ -35.70577, -6.819209 ], [ -35.701916, -6.814669 ], [ -35.700548, -6.814319 ], [ -35.7016, -6.832853 ], [ -35.708817, -6.840822 ], [ -35.699143, -6.846091 ], [ -35.692562, -6.859807 ], [ -35.687588, -6.861816 ], [ -35.67814, -6.867328 ], [ -35.673988, -6.866298 ], [ -35.658573, -6.867698 ], [ -35.653046, -6.881672 ], [ -35.64574, -6.8823 ], [ -35.645251, -6.883001 ], [ -35.649744, -6.909626 ], [ -35.649474, -6.909575 ], [ -35.613348, -6.916234 ], [ -35.604542, -6.91713 ], [ -35.582801, -6.919193 ], [ -35.582346, -6.919237 ], [ -35.570909, -6.934752 ], [ -35.579706, -6.940815 ], [ -35.580382, -6.94149 ], [ -35.573617, -6.96948 ], [ -35.559165, -6.977262 ], [ -35.558836, -6.977693 ], [ -35.556124, -6.981245 ], [ -35.534651, -7.009372 ], [ -35.523362, -7.031294 ], [ -35.515022, -7.030405 ], [ -35.510134, -7.03164 ], [ -35.506667, -7.025484 ], [ -35.501109, -7.025912 ], [ -35.496855, -7.033152 ], [ -35.490836, -7.066361 ], [ -35.514276, -7.062048 ], [ -35.511115, -7.070809 ], [ -35.504566, -7.075376 ], [ -35.50704, -7.08386 ], [ -35.499967, -7.09445 ], [ -35.523272, -7.104903 ], [ -35.525788, -7.109591 ], [ -35.526782, -7.114346 ], [ -35.532763, -7.120059 ], [ -35.569213, -7.122349 ], [ -35.613496, -7.133925 ], [ -35.613747, -7.133989 ], [ -35.624125, -7.132448 ], [ -35.620277, -7.153382 ], [ -35.610437, -7.160636 ], [ -35.607593, -7.168276 ], [ -35.62266, -7.17844 ], [ -35.640538, -7.183952 ], [ -35.661588, -7.190442 ], [ -35.663869, -7.194753 ], [ -35.663958, -7.194922 ], [ -35.671351, -7.207373 ], [ -35.695276, -7.217226 ], [ -35.698164, -7.218416 ], [ -35.699156, -7.221875 ], [ -35.699596, -7.22546 ], [ -35.699627, -7.225712 ], [ -35.703812, -7.259825 ], [ -35.726447, -7.305101 ], [ -35.735733, -7.323681 ], [ -35.744713, -7.341653 ], [ -35.722939, -7.332845 ], [ -35.702354, -7.337698 ], [ -35.712912, -7.364495 ], [ -35.71296, -7.364616 ], [ -35.733301, -7.416266 ], [ -35.754357, -7.469407 ], [ -35.746749, -7.474033 ], [ -35.736899, -7.467502 ], [ -35.733952, -7.474367 ], [ -35.722747, -7.465306 ], [ -35.721854, -7.471433 ], [ -35.71982, -7.473989 ], [ -35.711803, -7.47008 ], [ -35.707455, -7.47222 ], [ -35.699234, -7.467992 ], [ -35.693116, -7.476944 ], [ -35.686245, -7.475859 ], [ -35.686251, -7.468071 ], [ -35.679227, -7.46765 ], [ -35.677902, -7.45998 ], [ -35.666978, -7.465714 ], [ -35.661618, -7.459613 ], [ -35.642377, -7.453768 ], [ -35.631233, -7.44959 ], [ -35.623585, -7.451802 ], [ -35.617387, -7.449069 ], [ -35.604697, -7.450487 ], [ -35.600798, -7.449565 ], [ -35.594653, -7.453982 ], [ -35.589824, -7.447154 ], [ -35.583646, -7.450184 ], [ -35.567957, -7.438213 ], [ -35.55671, -7.4441 ], [ -35.551081, -7.441169 ], [ -35.547963, -7.44779 ], [ -35.543393, -7.449325 ], [ -35.550025, -7.465045 ], [ -35.545973, -7.471106 ], [ -35.552297, -7.475366 ], [ -35.552398, -7.481204 ], [ -35.540891, -7.493465 ], [ -35.537612, -7.496887 ], [ -35.503691, -7.499351 ], [ -35.501596, -7.512102 ], [ -35.504503, -7.513633 ], [ -35.508855, -7.517083 ], [ -35.510425, -7.527842 ], [ -35.519375, -7.535036 ], [ -35.519586, -7.549973 ], [ -35.523832, -7.558398 ], [ -35.526882, -7.569552 ], [ -35.536945, -7.580234 ], [ -35.536952, -7.580314 ], [ -35.53698, -7.580312 ], [ -35.53751, -7.586232 ], [ -35.530638, -7.589599 ], [ -35.514865, -7.584611 ], [ -35.517586, -7.589296 ], [ -35.520828, -7.595996 ], [ -35.51777, -7.606021 ], [ -35.525482, -7.607154 ], [ -35.531359, -7.621256 ], [ -35.514741, -7.642837 ], [ -35.526624, -7.644715 ], [ -35.532483, -7.654407 ], [ -35.547573, -7.656927 ], [ -35.553095, -7.658236 ], [ -35.560461, -7.65946 ], [ -35.565474, -7.65625 ], [ -35.573095, -7.654692 ], [ -35.588741, -7.650392 ], [ -35.597159, -7.653926 ], [ -35.609332, -7.653369 ], [ -35.615497, -7.658536 ], [ -35.61918, -7.663672 ], [ -35.622165, -7.669582 ], [ -35.626518, -7.675126 ], [ -35.644939, -7.691999 ], [ -35.655231, -7.696639 ], [ -35.657239, -7.696781 ], [ -35.65857, -7.69682 ], [ -35.674826, -7.699771 ], [ -35.67486, -7.699778 ], [ -35.680571, -7.699933 ], [ -35.693387, -7.699371 ], [ -35.695026, -7.693564 ], [ -35.699745, -7.691447 ], [ -35.707857, -7.696937 ], [ -35.711278, -7.704805 ], [ -35.721074, -7.709052 ], [ -35.736218, -7.709189 ], [ -35.742775, -7.713359 ], [ -35.745885, -7.720438 ], [ -35.746126, -7.720977 ], [ -35.751481, -7.723253 ], [ -35.764517, -7.72449 ], [ -35.780249, -7.737942 ], [ -35.789601, -7.740026 ], [ -35.791539, -7.74001 ], [ -35.797158, -7.740424 ], [ -35.805767, -7.746274 ], [ -35.815526, -7.746265 ], [ -35.819991, -7.748369 ], [ -35.829462, -7.751336 ], [ -35.832795, -7.749488 ], [ -35.841415, -7.746573 ], [ -35.861954, -7.750624 ], [ -35.871787, -7.749128 ], [ -35.881369, -7.755717 ], [ -35.880711, -7.765933 ], [ -35.882572, -7.771566 ], [ -35.893165, -7.783262 ], [ -35.90284, -7.791161 ], [ -35.905265, -7.792016 ], [ -35.914457, -7.789672 ], [ -35.932549, -7.784013 ], [ -35.943025, -7.789576 ], [ -35.958693, -7.786851 ], [ -35.969626, -7.789049 ], [ -35.97896, -7.801581 ], [ -35.992416, -7.800054 ], [ -35.99789, -7.813345 ], [ -36.00296, -7.812423 ], [ -36.021255, -7.809828 ], [ -36.03508, -7.79578 ], [ -36.042915, -7.793251 ], [ -36.053539, -7.800949 ], [ -36.068659, -7.780562 ], [ -36.103039, -7.779016 ], [ -36.116944, -7.785375 ], [ -36.126488, -7.783792 ], [ -36.143036, -7.781152 ], [ -36.18194, -7.783427 ], [ -36.200624, -7.789493 ], [ -36.20615, -7.769967 ], [ -36.2163, -7.763694 ], [ -36.245971, -7.7849 ], [ -36.253861, -7.795976 ], [ -36.254001, -7.801283 ], [ -36.239202, -7.810801 ], [ -36.239677, -7.81727 ], [ -36.252958, -7.82954 ], [ -36.263172, -7.83133 ], [ -36.270777, -7.830155 ], [ -36.294027, -7.811487 ], [ -36.308796, -7.806277 ], [ -36.336549, -7.809013 ], [ -36.360385, -7.805308 ], [ -36.373117, -7.81221 ], [ -36.396093, -7.808287 ], [ -36.407087, -7.813665 ], [ -36.423711, -7.815368 ], [ -36.429627, -7.826701 ], [ -36.428721, -7.866626 ], [ -36.440047, -7.87784 ], [ -36.432386, -7.879575 ], [ -36.429521, -7.884658 ], [ -36.434042, -7.895907 ], [ -36.445418, -7.907757 ], [ -36.44336, -7.913919 ], [ -36.445964, -7.915968 ], [ -36.463763, -7.914939 ], [ -36.479798, -7.924352 ], [ -36.487778, -7.914973 ], [ -36.499051, -7.919903 ], [ -36.512519, -7.91446 ], [ -36.536129, -7.901198 ], [ -36.551682, -7.898303 ], [ -36.568368, -7.902744 ], [ -36.574473, -7.907089 ], [ -36.577862, -7.914836 ], [ -36.572252, -7.935563 ], [ -36.579641, -7.948229 ], [ -36.57385, -7.951263 ], [ -36.57287, -7.95554 ], [ -36.576443, -7.959234 ], [ -36.586523, -7.958244 ], [ -36.611538, -7.947486 ], [ -36.613125, -7.956105 ], [ -36.622315, -7.969098 ], [ -36.622834, -7.98167 ], [ -36.627514, -7.985995 ], [ -36.627859, -8.013659 ], [ -36.627514, -8.055337 ], [ -36.633872, -8.058897 ], [ -36.653454, -8.069972 ], [ -36.657239, -8.075147 ], [ -36.657493, -8.07572 ], [ -36.656935, -8.081665 ], [ -36.648296, -8.082319 ], [ -36.6469, -8.092078 ], [ -36.636647, -8.092834 ], [ -36.627516, -8.102445 ], [ -36.628274, -8.110638 ], [ -36.639981, -8.119498 ], [ -36.667506, -8.123853 ], [ -36.688692, -8.137357 ], [ -36.694126, -8.143454 ], [ -36.686712, -8.155265 ], [ -36.708323, -8.155897 ], [ -36.72247, -8.150552 ], [ -36.725443, -8.156035 ], [ -36.715443, -8.166903 ], [ -36.722066, -8.167921 ], [ -36.723633, -8.172056 ], [ -36.74227, -8.172577 ], [ -36.749804, -8.175291 ], [ -36.753169, -8.191065 ], [ -36.761231, -8.195881 ], [ -36.775035, -8.190308 ], [ -36.787498, -8.189421 ], [ -36.794509, -8.189368 ], [ -36.805439, -8.195031 ], [ -36.812172, -8.204881 ], [ -36.861362, -8.222013 ], [ -36.878889, -8.235231 ], [ -36.89561, -8.240407 ], [ -36.907924, -8.252681 ], [ -36.922658, -8.269416 ], [ -36.944606, -8.27484 ], [ -36.947386, -8.278706 ], [ -36.946968, -8.29065 ], [ -36.951048, -8.296486 ], [ -36.954583, -8.298937 ], [ -36.977677, -8.297003 ], [ -36.990814, -8.30254 ], [ -37.015004, -8.291661 ], [ -37.020307, -8.289258 ], [ -37.039771, -8.265972 ] ] ] } },
{ "type": "Feature", "properties": { "MACRO_ID": "2503", "MACRO_NAME": "Macrorregião I - João Pessoa", "id": "250050", "name": "Alagoinha", "description": "Alagoinha", "MUN_ID": "250050", "UF": "PB", "HREG_ID": "25002", "HREG_NAME": "2ª Região" }, "geometry": { "type": "MultiPolygon", "coordinates": [ [ [ [ -35.40791, -7.460724 ], [ -35.415406, -7.471747 ], [ -35.422028, -7.474767 ], [ -35.434081, -7.470381 ], [ -35.441241, -7.456567 ], [ -35.451727, -7.452545 ], [ -35.475028, -7.444491 ], [ -35.488962, -7.44975 ], [ -35.502973, -7.455671 ], [ -35.507276, -7.486086 ], [ -35.505942, -7.496939 ], [ -35.503691, -7.499351 ], [ -35.537612, -7.496887 ], [ -35.540891, -7.493465 ], [ -35.552398, -7.481204 ], [ -35.552297, -7.475366 ], [ -35.545973, -7.471106 ], [ -35.550025, -7.465045 ], [ -35.543393, -7.449325 ], [ -35.547963, -7.44779 ], [ -35.551081, -7.441169 ], [ -35.55671, -7.4441 ], [ -35.567957, -7.438213 ], [ -35.583646, -7.450184 ], [ -35.589824, -7.447154 ], [ -35.594653, -7.453982 ], [ -35.600798, -7.449565 ], [ -35.604697, -7.450487 ], [ -35.617387, -7.449069 ], [ -35.623585, -7.451802 ], [ -35.631233, -7.44959 ], [ -35.642377, -7.453768 ], [ -35.661618, -7.459613 ], [ -35.666978, -7.465714 ], [ -35.677902, -7.45998 ], [ -35.679227, -7.46765 ], [ -35.686251, -7.468071 ], [ -35.686245, -7.475859 ], [ -35.693116, -7.476944 ], [ -35.699234, -7.467992 ], [ -35.707455, -7.47222 ], [ -35.711803, -7.47008 ], [ -35.71982, -7.473989 ], [ -35.721854, -7.471433 ], [ -35.722747, -7.465306 ], [ -35.733952, -7.474367 ], [ -35.736899, -7.467502 ], [ -35.746749, -7.474033 ], [ -35.754357, -7.469407 ], [ -35.733301, -7.416266 ], [ -35.71296, -7.364616 ], [ -35.712912, -7.364495 ], [ -35.702354, -7.337698 ], [ -35.722939, -7.332845 ], [ -35.744713, -7.341653 ], [ -35.735733, -7.323681 ], [ -35.726447, -7.305101 ], [ -35.703812, -7.259825 ], [ -35.699627, -7.225712 ], [ -35.699596, -7.22546 ], [ -35.699156, -7.221875 ], [ -35.698164, -7.218416 ], [ -35.695276, -7.217226 ], [ -35.671351, -7.207373 ], [ -35.663958, -7.194922 ], [ -35.663869, -7.194753 ], [ -35.661588, -7.190442 ], [ -35.640538, -7.183952 ], [ -35.62266, -7.17844 ], [ -35.607593, -7.168276 ], [ -35.610437, -7.160636 ], [ -35.620277, -7.153382 ], [ -35.624125, -7.132448 ], [ -35.613747, -7.133989 ], [ -35.613496, -7.133925 ], [ -35.569213, -7.122349 ], [ -35.532763, -7.120059 ], [ -35.526782, -7.114346 ], [ -35.525788, -7.109591 ], [ -35.523272, -7.104903 ], [ -35.499967, -7.09445 ], [ -35.50704, -7.08386 ], [ -35.504566, -7.075376 ], [ -35.511115, -7.070809 ], [ -35.514276, -7.062048 ], [ -35.490836, -7.066361 ], [ -35.496855, -7.033152 ], [ -35.501109, -7.025912 ], [ -35.506667, -7.025484 ], [ -35.510134, -7.03164 ], [ -35.515022, -7.030405 ], [ -35.523362, -7.031294 ], [ -35.534651, -7.009372 ], [ -35.556124, -6.981245 ], [ -35.558836, -6.977693 ], [ -35.559165, -6.977262 ], [ -35.573617, -6.96948 ], [ -35.580382, -6.94149 ], [ -35.579706, -6.940815 ], [ -35.570909, -6.934752 ], [ -35.582346, -6.919237 ], [ -35.582801, -6.919193 ], [ -35.604542, -6.91713 ], [ -35.613348, -6.916234 ], [ -35.649474, -6.909575 ], [ -35.649744, -6.909626 ], [ -35.645251, -6.883001 ], [ -35.64574, -6.8823 ], [ -35.653046, -6.881672 ], [ -35.658573, -6.867698 ], [ -35.673988, -6.866298 ], [ -35.67814, -6.867328 ], [ -35.687588, -6.861816 ], [ -35.692562, -6.859807 ], [ -35.699143, -6.846091 ], [ -35.708817, -6.840822 ], [ -35.7016, -6.832853 ], [ -35.700548, -6.814319 ], [ -35.701916, -6.814669 ], [ -35.70577, -6.819209 ], [ -35.715893, -6.820674 ], [ -35.719747, -6.824794 ], [ -35.729098, -6.816859 ], [ -35.742223, -6.813122 ], [ -35.752156, -6.824933 ], [ -35.754955, -6.824517 ], [ -35.759198, -6.824168 ], [ -35.762419, -6.823755 ], [ -35.786522, -6.82378 ], [ -35.792002, -6.82633 ], [ -35.796143, -6.833927 ], [ -35.805065, -6.834169 ], [ -35.806331, -6.840775 ], [ -35.811642, -6.842958 ], [ -35.808148, -6.847611 ], [ -35.809839, -6.863217 ], [ -35.82862, -6.85639 ], [ -35.839075, -6.846158 ], [ -35.844026, -6.836017 ], [ -35.868979, -6.816596 ], [ -35.891179, -6.793034 ], [ -35.897383, -6.793202 ], [ -35.906568, -6.784262 ], [ -35.905308, -6.778133 ], [ -35.899349, -6.77301 ], [ -35.902617, -6.757633 ], [ -35.896152, -6.749991 ], [ -35.898548, -6.743565 ], [ -35.9222, -6.730922 ], [ -35.922393, -6.719905 ], [ -35.910872, -6.717083 ], [ -35.906851, -6.709221 ], [ -35.901022, -6.705978 ], [ -35.898575, -6.704616 ], [ -35.901417, -6.69953 ], [ -35.892943, -6.690664 ], [ -35.874105, -6.69141 ], [ -35.866727, -6.679194 ], [ -35.871312, -6.632413 ], [ -35.871938, -6.626015 ], [ -35.875206, -6.59258 ], [ -35.876619, -6.578089 ], [ -35.867863, -6.545382 ], [ -35.852762, -6.487213 ], [ -35.81699, -6.485094 ], [ -35.782302, -6.483036 ], [ -35.779598, -6.482875 ], [ -35.772996, -6.482444 ], [ -35.749899, -6.478091 ], [ -35.743233, -6.473485 ], [ -35.740828, -6.475904 ], [ -35.725864, -6.469211 ], [ -35.721529, -6.471265 ], [ -35.710929, -6.470694 ], [ -35.697854, -6.462491 ], [ -35.681646, -6.447528 ], [ -35.671021, -6.451324 ], [ -35.664831, -6.450115 ], [ -35.663277, -6.44643 ], [ -35.656937, -6.445382 ], [ -35.636472, -6.453988 ], [ -35.620052, -6.456924 ], [ -35.616548, -6.462233 ], [ -35.599862, -6.46021 ], [ -35.591838, -6.47123 ], [ -35.591386, -6.476758 ], [ -35.581059, -6.485396 ], [ -35.563865, -6.487068 ], [ -35.56447, -6.491379 ], [ -35.558188, -6.492481 ], [ -35.551774, -6.490423 ], [ -35.546368, -6.481466 ], [ -35.540437, -6.482569 ], [ -35.537632, -6.479505 ], [ -35.533311, -6.482632 ], [ -35.526771, -6.478873 ], [ -35.525564, -6.475825 ], [ -35.513629, -6.477757 ], [ -35.501085, -6.477402 ], [ -35.495468, -6.482859 ], [ -35.491657, -6.479684 ], [ -35.478995, -6.486392 ], [ -35.463899, -6.482311 ], [ -35.459721, -6.476378 ], [ -35.446372, -6.486443 ], [ -35.442331, -6.478976 ], [ -35.441404, -6.482069 ], [ -35.441774, -6.486191 ], [ -35.423646, -6.488254 ], [ -35.407434, -6.489183 ], [ -35.400425, -6.491202 ], [ -35.379496, -6.502526 ], [ -35.364188, -6.51164 ], [ -35.34094, -6.538216 ], [ -35.330449, -6.54394 ], [ -35.302391, -6.543752 ], [ -35.274241, -6.543477 ], [ -35.272895, -6.543075 ], [ -35.252887, -6.533609 ], [ -35.232025, -6.531375 ], [ -35.224106, -6.521232 ], [ -35.223137, -6.515831 ], [ -35.217912, -6.518204 ], [ -35.206987, -6.543317 ], [ -35.199152, -6.549543 ], [ -35.193684, -6.549918 ], [ -35.169976, -6.557991 ], [ -35.157162, -6.551307 ], [ -35.145485, -6.552358 ], [ -35.132308, -6.535361 ], [ -35.123132, -6.529459 ], [ -35.112228, -6.504717 ], [ -35.112228, -6.504716 ], [ -35.103359, -6.505444 ], [ -35.101337, -6.49975 ], [ -35.09522, -6.497277 ], [ -35.066825, -6.524259 ], [ -35.057411, -6.52739 ], [ -35.036642, -6.516724 ], [ -35.02822, -6.505121 ], [ -35.01848, -6.50266 ], [ -35.010796, -6.505722 ], [ -34.991747, -6.501094 ], [ -34.979372, -6.489732 ], [ -34.971253, -6.484839 ], [ -34.968461, -6.489725 ], [ -34.967183, -6.491964 ], [ -34.965179, -6.602715 ], [ -34.961946, -6.639781 ], [ -34.956003, -6.662144 ], [ -34.946865, -6.680623 ], [ -34.930838, -6.68779 ], [ -34.934388, -6.698273 ], [ -34.933792, -6.710124 ], [ -34.931627, -6.720463 ], [ -34.934381, -6.731342 ], [ -34.928859, -6.739475 ], [ -34.938778, -6.752993 ], [ -34.93288, -6.756364 ], [ -34.931651, -6.766036 ], [ -34.936956, -6.770362 ], [ -34.925662, -6.770593 ], [ -34.918779, -6.766781 ], [ -34.918334, -6.769985 ], [ -34.915475, -6.790805 ], [ -34.908561, -6.840231 ], [ -34.902394, -6.854617 ], [ -34.902441, -6.864864 ], [ -34.887695, -6.883548 ], [ -34.868415, -6.897414 ], [ -34.853298, -6.899948 ], [ -34.862693, -6.915534 ], [ -34.862947, -6.916761 ], [ -34.866712, -6.936444 ], [ -34.861078, -6.952175 ], [ -34.850463, -6.964194 ], [ -34.854775, -6.971747 ], [ -34.862686, -6.975752 ], [ -34.868527, -6.978979 ], [ -34.870582, -6.985038 ], [ -34.86801, -7.006512 ], [ -34.859277, -7.026711 ], [ -34.854808, -7.027111 ], [ -34.848309, -7.011003 ], [ -34.834831, -6.998341 ], [ -34.835192, -6.978873 ], [ -34.841507, -6.966146 ], [ -34.829893, -6.966212 ], [ -34.825468, -7.006596 ], [ -34.829864, -7.030474 ], [ -34.840529, -7.042291 ], [ -34.843358, -7.055419 ], [ -34.838001, -7.068005 ], [ -34.830117, -7.073002 ], [ -34.83369, -7.097968 ], [ -34.821973, -7.110515 ], [ -34.822003, -7.130409 ], [ -34.809747, -7.144803 ], [ -34.797001, -7.146391 ], [ -34.793335, -7.154091 ], [ -34.794477, -7.195356 ], [ -34.80269, -7.210146 ], [ -34.805252, -7.239691 ], [ -34.804263, -7.260295 ], [ -34.798698, -7.277591 ], [ -34.800468, -7.293979 ], [ -34.797555, -7.300197 ], [ -34.799346, -7.30602 ], [ -34.801464, -7.315438 ], [ -34.798823, -7.320959 ], [ -34.793614, -7.329146 ], [ -34.799669, -7.357248 ], [ -34.796836, -7.366504 ], [ -34.801976, -7.383071 ], [ -34.811135, -7.459059 ], [ -34.80333, -7.471686 ], [ -34.81072, -7.477865 ], [ -34.814608, -7.486318 ], [ -34.809445, -7.511521 ], [ -34.819996, -7.528166 ], [ -34.825831, -7.547369 ], [ -34.831941, -7.548723 ], [ -34.838265, -7.543889 ], [ -34.840038, -7.543424 ], [ -34.853521, -7.539237 ], [ -34.857698, -7.537541 ], [ -34.870391, -7.548749 ], [ -34.873269, -7.542838 ], [ -34.888414, -7.535494 ], [ -34.895217, -7.544665 ], [ -34.901717, -7.543153 ], [ -34.899574, -7.537021 ], [ -34.910165, -7.537727 ], [ -34.910696, -7.543032 ], [ -34.916987, -7.54136 ], [ -34.924122, -7.532201 ], [ -34.932357, -7.528111 ], [ -34.950292, -7.537212 ], [ -34.960461, -7.538356 ], [ -34.969115, -7.520655 ], [ -34.97874, -7.509288 ], [ -34.983898, -7.507478 ], [ -34.984831, -7.500378 ], [ -34.984812, -7.499601 ], [ -34.989857, -7.488469 ], [ -34.98388, -7.468912 ], [ -34.98509, -7.461598 ], [ -35.011304, -7.444757 ], [ -35.029231, -7.425412 ], [ -35.047773, -7.417403 ], [ -35.070019, -7.398467 ], [ -35.074858, -7.397004 ], [ -35.078694, -7.395898 ], [ -35.08458, -7.402266 ], [ -35.097465, -7.407919 ], [ -35.108992, -7.40683 ], [ -35.125091, -7.402193 ], [ -35.125833, -7.399526 ], [ -35.125942, -7.399495 ], [ -35.148057, -7.394125 ], [ -35.153466, -7.392049 ], [ -35.17174, -7.387632 ], [ -35.18048, -7.395493 ], [ -35.18942, -7.396854 ], [ -35.190418, -7.397483 ], [ -35.199779, -7.387197 ], [ -35.22425, -7.378867 ], [ -35.228987, -7.377962 ], [ -35.234048, -7.377785 ], [ -35.245741, -7.374199 ], [ -35.279852, -7.387247 ], [ -35.306192, -7.407508 ], [ -35.315829, -7.405282 ], [ -35.32377, -7.410912 ], [ -35.334692, -7.406396 ], [ -35.332563, -7.414924 ], [ -35.33319, -7.422348 ], [ -35.342295, -7.421625 ], [ -35.343502, -7.422065 ], [ -35.347826, -7.421851 ], [ -35.352026, -7.421989 ], [ -35.348273, -7.434532 ], [ -35.350776, -7.439853 ], [ -35.36258, -7.442389 ], [ -35.368627, -7.440394 ], [ -35.375631, -7.448477 ], [ -35.380363, -7.448414 ], [ -35.382307, -7.448721 ], [ -35.40791, -7.460724 ] ] ], [ [ [ -34.857949, -6.983908 ], [ -34.847392, -6.981641 ], [ -34.849308, -6.999559 ], [ -34.858836, -7.015215 ], [ -34.865276, -7.0043 ], [ -34.867163, -6.987282 ], [ -34.863666, -6.980406 ], [ -34.857949, -6.983908 ] ] ] ] } }
]
}
