{
"type": "FeatureCollection",
"name": "geojs-16-macro_regions",
"crs": { "type": "name", "properties": { "name": "urn:ogc:def:crs:OGC:1.3:CRS84" } },
"features": [
{ "type": "Feature", "properties": { "MACRO_ID": "1601", "MACRO_NAME": "Macro Única - AP", "id": "160005", "name": "Serra do Navio", "description": "Serra do Navio", "MUN_ID": "160005", "UF": "AP", "HREG_ID": "16001", "HREG_NAME": "Area Central" }, "geometry": { "type": "Polygon", "coordinates": [ [ [ -51.265257, -0.195109 ], [ -51.289145, -0.22773 ], [ -51.301655, -0.251348 ], [ -51.327627, -0.268633 ], [ -51.3455, -0.29576 ], [ -51.354314, -0.32069 ], [ -51.361424, -0.35785 ], [ -51.362054, -0.36776 ], [ -51.406823, -0.416998 ], [ -51.420274, -0.428645 ], [ -51.432027, -0.472994 ], [ -51.457337, -0.512884 ], [ -51.48625, -0.54526 ], [ -51.502634, -0.555618 ], [ -51.511513, -0.563551 ], [ -51.595083, -0.650088 ], [ -51.665028, -0.761545 ], [ -51.683129, -0.797094 ], [ -51.687752, -0.822855 ], [ -51.691908, -0.899777 ], [ -51.695136, -0.924367 ], [ -51.68931, -0.997235 ], [ -51.685193, -1.01251 ], [ -51.686777, -1.035657 ], [ -51.699973, -1.062858 ], [ -51.74746, -1.106866 ], [ -51.778918, -1.137239 ], [ -51.777945, -1.140059 ], [ -51.808642, -1.156748 ], [ -51.881558, -1.165993 ], [ -51.896731, -1.161694 ], [ -51.925501, -1.131962 ], [ -51.932917, -1.137137 ], [ -51.946448, -1.165653 ], [ -51.955421, -1.169321 ], [ -51.961083, -1.167002 ], [ -51.965474, -1.159249 ], [ -51.961502, -1.134084 ], [ -51.965137, -1.125455 ], [ -51.974529, -1.120264 ], [ -51.986035, -1.121587 ], [ -51.993232, -1.131615 ], [ -51.98658, -1.156482 ], [ -51.990666, -1.171462 ], [ -52.010875, -1.167248 ], [ -52.040444, -1.169779 ], [ -52.054608, -1.176596 ], [ -52.063525, -1.185577 ], [ -52.062505, -1.192538 ], [ -52.047107, -1.21393 ], [ -52.046608, -1.218955 ], [ -52.054192, -1.233866 ], [ -52.070003, -1.23563 ], [ -52.101617, -1.225614 ], [ -52.109415, -1.217762 ], [ -52.110333, -1.204322 ], [ -52.106307, -1.182714 ], [ -52.116192, -1.149603 ], [ -52.119806, -1.145845 ], [ -52.146274, -1.148438 ], [ -52.161932, -1.133699 ], [ -52.173114, -1.129779 ], [ -52.22169, -1.134175 ], [ -52.238204, -1.125886 ], [ -52.272864, -1.128178 ], [ -52.300527, -1.115556 ], [ -52.33253, -1.115538 ], [ -52.351567, -1.069421 ], [ -52.357697, -1.062232 ], [ -52.382662, -1.053639 ], [ -52.39972, -1.043278 ], [ -52.419608, -1.052348 ], [ -52.426581, -1.050442 ], [ -52.428776, -1.042289 ], [ -52.416333, -1.025259 ], [ -52.414006, -1.008919 ], [ -52.417756, -0.998673 ], [ -52.41947, -0.965611 ], [ -52.436178, -0.947915 ], [ -52.439037, -0.935195 ], [ -52.428888, -0.919979 ], [ -52.413499, -0.918632 ], [ -52.410033, -0.917197 ], [ -52.404365, -0.913067 ], [ -52.400837, -0.88717 ], [ -52.402699, -0.876797 ], [ -52.419392, -0.854346 ], [ -52.443863, -0.833818 ], [ -52.455059, -0.829915 ], [ -52.467947, -0.840743 ], [ -52.496377, -0.849185 ], [ -52.516474, -0.858265 ], [ -52.528331, -0.858775 ], [ -52.538197, -0.854456 ], [ -52.534582, -0.841688 ], [ -52.517291, -0.821396 ], [ -52.509391, -0.813101 ], [ -52.520726, -0.800783 ], [ -52.522264, -0.791342 ], [ -52.521173, -0.784859 ], [ -52.501366, -0.746412 ], [ -52.497417, -0.730398 ], [ -52.496948, -0.710933 ], [ -52.501274, -0.69241 ], [ -52.509928, -0.678833 ], [ -52.512055, -0.664754 ], [ -52.51539, -0.663221 ], [ -52.510585, -0.65652 ], [ -52.510771, -0.639522 ], [ -52.512724, -0.619296 ], [ -52.522719, -0.588725 ], [ -52.53472, -0.573738 ], [ -52.569345, -0.575613 ], [ -52.59258, -0.581347 ], [ -52.61253, -0.594544 ], [ -52.628726, -0.593498 ], [ -52.639549, -0.584556 ], [ -52.667304, -0.543787 ], [ -52.669389, -0.537848 ], [ -52.666831, -0.524763 ], [ -52.673167, -0.51904 ], [ -52.681341, -0.516084 ], [ -52.694976, -0.496053 ], [ -52.690558, -0.476811 ], [ -52.702222, -0.458883 ], [ -52.692612, -0.441803 ], [ -52.684304, -0.434286 ], [ -52.678691, -0.423326 ], [ -52.680615, -0.414737 ], [ -52.69811, -0.386819 ], [ -52.695492, -0.371654 ], [ -52.681389, -0.339617 ], [ -52.683711, -0.313966 ], [ -52.688359, -0.303789 ], [ -52.700441, -0.292495 ], [ -52.715781, -0.292348 ], [ -52.739753, -0.27626 ], [ -52.753966, -0.261841 ], [ -52.757975, -0.239335 ], [ -52.835637, -0.185802 ], [ -52.844308, -0.15938 ], [ -52.855098, -0.147706 ], [ -52.87636, -0.14241 ], [ -52.897137, -0.154121 ], [ -52.903551, -0.154591 ], [ -52.932282, -0.141961 ], [ -52.959555, -0.062876 ], [ -52.97056, -0.042764 ], [ -52.976297, -0.007283 ], [ -52.97683, 0.024142 ], [ -52.98478, 0.035986 ], [ -53.003222, 0.044213 ], [ -53.014503, 0.060037 ], [ -53.010667, 0.095391 ], [ -53.028803, 0.105064 ], [ -53.036053, 0.120163 ], [ -53.039144, 0.136346 ], [ -53.051664, 0.157683 ], [ -53.069639, 0.169886 ], [ -53.082914, 0.188964 ], [ -53.093829, 0.195651 ], [ -53.105945, 0.232087 ], [ -53.094418, 0.262556 ], [ -53.11147, 0.286874 ], [ -53.133887, 0.300523 ], [ -53.138332, 0.330806 ], [ -53.150834, 0.352233 ], [ -53.159834, 0.356661 ], [ -53.173586, 0.374648 ], [ -53.174847, 0.38206 ], [ -53.159471, 0.403311 ], [ -53.158776, 0.42067 ], [ -53.167282, 0.446072 ], [ -53.154665, 0.480522 ], [ -53.159085, 0.488566 ], [ -53.169305, 0.494077 ], [ -53.159169, 0.514151 ], [ -53.16225, 0.522829 ], [ -53.151601, 0.532236 ], [ -53.147919, 0.542 ], [ -53.147692, 0.552398 ], [ -53.154384, 0.563697 ], [ -53.146858, 0.600676 ], [ -53.122248, 0.630432 ], [ -53.115142, 0.648697 ], [ -53.11547, 0.656925 ], [ -53.10528, 0.679803 ], [ -53.105835, 0.684323 ], [ -53.116474, 0.691912 ], [ -53.123666, 0.697696 ], [ -53.13944, 0.693442 ], [ -53.146474, 0.700127 ], [ -53.150612, 0.719742 ], [ -53.156943, 0.729415 ], [ -53.184144, 0.747843 ], [ -53.189809, 0.768724 ], [ -53.201971, 0.776131 ], [ -53.206526, 0.773689 ], [ -53.213944, 0.78607 ], [ -53.254683, 0.809552 ], [ -53.274363, 0.825271 ], [ -53.28703, 0.846056 ], [ -53.301831, 0.859336 ], [ -53.354471, 0.888594 ], [ -53.360886, 0.896451 ], [ -53.411029, 0.929684 ], [ -53.413274, 0.947759 ], [ -53.410204, 0.956982 ], [ -53.410338, 0.982382 ], [ -53.417002, 0.989608 ], [ -53.426364, 0.992765 ], [ -53.427796, 1.01197 ], [ -53.42947, 1.020151 ], [ -53.420885, 1.029289 ], [ -53.421864, 1.034076 ], [ -53.427002, 1.043655 ], [ -53.434226, 1.048349 ], [ -53.435498, 1.059919 ], [ -53.452243, 1.071566 ], [ -53.455357, 1.07771 ], [ -53.458692, 1.134019 ], [ -53.452888, 1.143968 ], [ -53.439308, 1.154012 ], [ -53.420809, 1.147699 ], [ -53.403944, 1.151512 ], [ -53.399413, 1.158747 ], [ -53.395615, 1.17963 ], [ -53.402525, 1.194269 ], [ -53.416972, 1.203114 ], [ -53.424838, 1.221817 ], [ -53.426055, 1.243058 ], [ -53.430079, 1.243597 ], [ -53.43328, 1.234825 ], [ -53.438303, 1.232472 ], [ -53.473272, 1.23967 ], [ -53.492557, 1.226998 ], [ -53.533442, 1.21051 ], [ -53.538527, 1.212764 ], [ -53.545855, 1.228845 ], [ -53.530109, 1.24567 ], [ -53.522861, 1.261676 ], [ -53.530053, 1.273961 ], [ -53.552244, 1.280626 ], [ -53.556224, 1.285142 ], [ -53.562167, 1.306919 ], [ -53.560775, 1.311167 ], [ -53.539669, 1.317335 ], [ -53.532919, 1.322766 ], [ -53.541695, 1.345171 ], [ -53.548025, 1.34887 ], [ -53.563391, 1.350031 ], [ -53.565003, 1.340088 ], [ -53.570223, 1.337639 ], [ -53.59475, 1.358491 ], [ -53.632779, 1.347695 ], [ -53.641417, 1.335304 ], [ -53.6505, 1.33656 ], [ -53.66261, 1.349832 ], [ -53.648584, 1.357439 ], [ -53.643055, 1.364223 ], [ -53.644664, 1.380579 ], [ -53.640473, 1.388808 ], [ -53.640804, 1.399472 ], [ -53.646366, 1.407961 ], [ -53.654776, 1.407047 ], [ -53.659862, 1.400173 ], [ -53.664387, 1.375586 ], [ -53.670083, 1.372326 ], [ -53.680003, 1.372857 ], [ -53.68258, 1.384692 ], [ -53.687028, 1.386134 ], [ -53.700992, 1.378255 ], [ -53.710994, 1.3843 ], [ -53.712968, 1.396769 ], [ -53.695336, 1.418478 ], [ -53.696361, 1.423266 ], [ -53.71672, 1.432099 ], [ -53.723586, 1.428565 ], [ -53.715555, 1.418273 ], [ -53.714946, 1.405712 ], [ -53.730887, 1.396114 ], [ -53.731859, 1.386625 ], [ -53.754637, 1.394911 ], [ -53.762004, 1.408729 ], [ -53.767584, 1.396252 ], [ -53.774143, 1.397239 ], [ -53.783254, 1.40319 ], [ -53.791223, 1.417009 ], [ -53.803524, 1.423861 ], [ -53.820024, 1.419593 ], [ -53.822306, 1.414169 ], [ -53.807022, 1.402349 ], [ -53.804587, 1.397565 ], [ -53.806582, 1.392139 ], [ -53.823134, 1.38995 ], [ -53.830304, 1.394189 ], [ -53.849871, 1.392178 ], [ -53.852364, 1.394072 ], [ -53.850612, 1.398863 ], [ -53.841142, 1.402398 ], [ -53.843836, 1.406643 ], [ -53.854503, 1.401931 ], [ -53.875835, 1.407867 ], [ -53.882359, 1.401083 ], [ -53.887282, 1.408124 ], [ -53.876273, 1.435788 ], [ -53.880254, 1.440572 ], [ -53.892778, 1.443717 ], [ -53.895528, 1.455462 ], [ -53.91706, 1.457239 ], [ -53.92203, 1.442597 ], [ -53.937835, 1.435799 ], [ -53.94, 1.443658 ], [ -53.929918, 1.450266 ], [ -53.930116, 1.458036 ], [ -53.925415, 1.465812 ], [ -53.928295, 1.469515 ], [ -53.934699, 1.467066 ], [ -53.943082, 1.471662 ], [ -53.953615, 1.468306 ], [ -53.955437, 1.480229 ], [ -53.966607, 1.484731 ], [ -53.975665, 1.472613 ], [ -53.985694, 1.479375 ], [ -53.996998, 1.476107 ], [ -54.003001, 1.489741 ], [ -53.999057, 1.505106 ], [ -54.00858, 1.52 ], [ -54.019804, 1.516099 ], [ -54.027109, 1.517174 ], [ -54.020724, 1.507155 ], [ -54.024108, 1.500193 ], [ -54.039528, 1.506495 ], [ -54.055469, 1.493825 ], [ -54.061967, 1.495081 ], [ -54.06869, 1.501305 ], [ -54.078969, 1.495237 ], [ -54.077495, 1.486026 ], [ -54.085996, 1.488633 ], [ -54.088278, 1.492333 ], [ -54.084693, 1.505798 ], [ -54.088559, 1.514016 ], [ -54.08412, 1.526667 ], [ -54.098308, 1.550859 ], [ -54.114054, 1.551558 ], [ -54.117055, 1.55851 ], [ -54.109883, 1.575324 ], [ -54.101475, 1.58464 ], [ -54.10153, 1.590966 ], [ -54.118081, 1.581815 ], [ -54.122359, 1.591204 ], [ -54.127886, 1.591648 ], [ -54.130914, 1.597244 ], [ -54.122108, 1.602135 ], [ -54.122612, 1.607736 ], [ -54.133027, 1.617476 ], [ -54.129335, 1.624256 ], [ -54.141889, 1.628844 ], [ -54.143193, 1.640947 ], [ -54.146383, 1.644104 ], [ -54.151999, 1.639668 ], [ -54.168446, 1.644339 ], [ -54.175663, 1.648304 ], [ -54.177893, 1.657784 ], [ -54.181747, 1.658409 ], [ -54.185934, 1.644792 ], [ -54.18694, 1.628323 ], [ -54.190633, 1.625244 ], [ -54.196996, 1.632099 ], [ -54.202471, 1.649343 ], [ -54.227887, 1.665651 ], [ -54.229668, 1.676306 ], [ -54.243974, 1.676464 ], [ -54.248864, 1.684134 ], [ -54.263187, 1.680497 ], [ -54.262273, 1.688717 ], [ -54.268772, 1.694577 ], [ -54.265195, 1.696118 ], [ -54.269107, 1.705146 ], [ -54.266329, 1.708401 ], [ -54.274023, 1.710827 ], [ -54.279612, 1.708016 ], [ -54.291888, 1.70908 ], [ -54.282471, 1.716594 ], [ -54.28117, 1.724183 ], [ -54.289418, 1.720917 ], [ -54.292717, 1.726331 ], [ -54.29997, 1.72415 ], [ -54.304806, 1.72965 ], [ -54.309309, 1.729733 ], [ -54.31294, 1.733791 ], [ -54.305304, 1.737237 ], [ -54.308833, 1.741384 ], [ -54.316411, 1.737126 ], [ -54.322969, 1.737837 ], [ -54.329084, 1.74415 ], [ -54.34419, 1.740962 ], [ -54.343725, 1.747013 ], [ -54.350356, 1.747725 ], [ -54.35122, 1.754407 ], [ -54.37725, 1.764021 ], [ -54.386969, 1.745489 ], [ -54.403473, 1.760092 ], [ -54.417421, 1.756904 ], [ -54.424188, 1.760774 ], [ -54.434137, 1.754434 ], [ -54.464335, 1.759527 ], [ -54.470139, 1.756082 ], [ -54.470803, 1.751839 ], [ -54.484249, 1.755787 ], [ -54.485138, 1.751631 ], [ -54.495472, 1.747278 ], [ -54.501358, 1.75142 ], [ -54.508081, 1.748608 ], [ -54.511948, 1.753747 ], [ -54.523497, 1.756344 ], [ -54.527634, 1.765277 ], [ -54.536524, 1.770587 ], [ -54.570614, 1.777925 ], [ -54.570437, 1.784789 ], [ -54.580581, 1.777995 ], [ -54.601443, 1.784907 ], [ -54.611246, 1.779651 ], [ -54.625411, 1.780978 ], [ -54.643166, 1.768934 ], [ -54.651087, 1.771989 ], [ -54.670722, 1.765991 ], [ -54.67855, 1.769226 ], [ -54.691689, 1.768206 ], [ -54.700023, 1.776044 ], [ -54.701774, 1.772609 ], [ -54.718059, 1.771402 ], [ -54.744305, 1.776135 ], [ -54.74597, 1.786782 ], [ -54.752192, 1.791013 ], [ -54.753947, 1.798142 ], [ -54.746446, 1.806102 ], [ -54.750197, 1.814581 ], [ -54.733551, 1.83231 ], [ -54.740137, 1.832386 ], [ -54.739304, 1.839611 ], [ -54.74801, 1.842661 ], [ -54.7494, 1.84627 ], [ -54.752721, 1.851319 ], [ -54.752614, 1.876053 ], [ -54.758588, 1.890486 ], [ -54.763057, 1.892822 ], [ -54.76139, 1.905917 ], [ -54.765444, 1.907983 ], [ -54.771113, 1.940832 ], [ -54.764553, 1.944277 ], [ -54.757889, 1.95747 ], [ -54.759661, 1.960537 ], [ -54.755391, 1.960638 ], [ -54.753967, 1.970931 ], [ -54.763526, 1.979126 ], [ -54.771669, 1.978745 ], [ -54.76855, 1.996536 ], [ -54.7804, 1.999939 ], [ -54.790496, 2.00759 ], [ -54.7945, 2.017149 ], [ -54.80333, 2.026155 ], [ -54.806778, 2.037702 ], [ -54.810861, 2.039769 ], [ -54.805494, 2.054043 ], [ -54.812357, 2.063146 ], [ -54.811605, 2.071361 ], [ -54.805693, 2.076701 ], [ -54.813355, 2.101146 ], [ -54.804217, 2.10821 ], [ -54.808746, 2.123095 ], [ -54.803106, 2.132585 ], [ -54.805779, 2.139259 ], [ -54.800495, 2.142884 ], [ -54.798054, 2.150473 ], [ -54.789168, 2.156542 ], [ -54.790914, 2.161685 ], [ -54.781006, 2.167486 ], [ -54.782747, 2.174523 ], [ -54.767417, 2.181243 ], [ -54.769002, 2.18792 ], [ -54.762399, 2.192772 ], [ -54.762636, 2.20265 ], [ -54.770162, 2.20877 ], [ -54.774638, 2.220673 ], [ -54.781112, 2.223727 ], [ -54.798473, 2.24589 ], [ -54.810945, 2.266709 ], [ -54.80861, 2.286755 ], [ -54.802445, 2.290382 ], [ -54.806747, 2.298225 ], [ -54.801555, 2.308076 ], [ -54.793774, 2.313064 ], [ -54.804578, 2.329555 ], [ -54.807085, 2.342005 ], [ -54.865608, 2.403223 ], [ -54.867221, 2.409267 ], [ -54.874221, 2.415655 ], [ -54.875775, 2.427024 ], [ -54.871775, 2.434076 ], [ -54.796919, 2.439347 ], [ -54.782629, 2.448042 ], [ -54.743558, 2.471816 ], [ -54.684444, 2.447153 ], [ -54.691612, 2.361726 ], [ -54.661775, 2.327317 ], [ -54.601219, 2.337497 ], [ -54.436107, 2.210218 ], [ -54.188608, 2.179159 ], [ -54.13795, 2.192961 ], [ -53.998918, 2.231763 ], [ -53.9895, 2.237754 ], [ -53.974441, 2.232723 ], [ -53.966719, 2.243401 ], [ -53.952497, 2.245598 ], [ -53.945278, 2.241367 ], [ -53.941889, 2.242727 ], [ -53.942275, 2.252847 ], [ -53.935219, 2.259728 ], [ -53.941608, 2.278416 ], [ -53.936133, 2.286562 ], [ -53.939693, 2.29107 ], [ -53.935836, 2.297314 ], [ -53.929111, 2.291003 ], [ -53.915555, 2.291029 ], [ -53.915888, 2.277568 ], [ -53.907338, 2.274332 ], [ -53.898221, 2.288445 ], [ -53.892163, 2.284121 ], [ -53.888746, 2.286567 ], [ -53.892332, 2.291439 ], [ -53.887332, 2.299129 ], [ -53.889327, 2.306806 ], [ -53.883448, 2.316667 ], [ -53.870835, 2.316602 ], [ -53.865441, 2.311915 ], [ -53.859111, 2.320331 ], [ -53.851946, 2.310588 ], [ -53.841607, 2.307987 ], [ -53.823581, 2.317962 ], [ -53.814384, 2.317349 ], [ -53.820165, 2.329989 ], [ -53.831194, 2.328428 ], [ -53.836579, 2.33393 ], [ -53.834529, 2.33999 ], [ -53.814084, 2.342742 ], [ -53.811331, 2.357024 ], [ -53.805029, 2.35785 ], [ -53.799165, 2.365362 ], [ -53.790392, 2.365018 ], [ -53.783622, 2.373074 ], [ -53.77283, 2.37391 ], [ -53.772389, 2.377254 ], [ -53.766752, 2.379253 ], [ -53.757557, 2.375385 ], [ -53.741165, 2.375328 ], [ -53.738693, 2.372984 ], [ -53.743189, 2.36692 ], [ -53.753107, 2.364279 ], [ -53.74436, 2.359237 ], [ -53.738057, 2.362593 ], [ -53.727524, 2.351408 ], [ -53.722998, 2.3544 ], [ -53.730247, 2.340829 ], [ -53.739249, 2.335662 ], [ -53.73614, 2.32428 ], [ -53.740195, 2.325266 ], [ -53.750301, 2.319915 ], [ -53.748307, 2.313141 ], [ -53.732141, 2.309377 ], [ -53.726504, 2.31472 ], [ -53.707194, 2.309427 ], [ -53.695055, 2.312613 ], [ -53.685692, 2.294916 ], [ -53.680055, 2.297368 ], [ -53.681745, 2.301523 ], [ -53.663414, 2.305712 ], [ -53.660716, 2.300027 ], [ -53.652858, 2.30275 ], [ -53.655828, 2.284852 ], [ -53.635413, 2.281906 ], [ -53.625748, 2.284906 ], [ -53.61453, 2.278782 ], [ -53.611804, 2.28674 ], [ -53.600809, 2.286489 ], [ -53.583777, 2.269257 ], [ -53.577717, 2.273155 ], [ -53.567161, 2.271818 ], [ -53.549448, 2.258654 ], [ -53.531054, 2.258054 ], [ -53.519777, 2.26684 ], [ -53.509468, 2.262339 ], [ -53.494914, 2.26137 ], [ -53.484916, 2.265184 ], [ -53.472611, 2.257069 ], [ -53.454528, 2.264603 ], [ -53.455443, 2.27355 ], [ -53.465116, 2.277239 ], [ -53.469192, 2.289163 ], [ -53.460857, 2.291346 ], [ -53.439916, 2.280627 ], [ -53.433168, 2.28823 ], [ -53.421364, 2.290149 ], [ -53.414807, 2.297482 ], [ -53.404612, 2.29786 ], [ -53.398468, 2.308538 ], [ -53.385306, 2.30874 ], [ -53.376725, 2.318155 ], [ -53.367167, 2.320975 ], [ -53.359526, 2.334095 ], [ -53.359556, 2.349643 ], [ -53.347856, 2.354995 ], [ -53.337716, 2.353929 ], [ -53.333082, 2.344805 ], [ -53.322832, 2.347444 ], [ -53.316522, 2.340132 ], [ -53.314579, 2.327027 ], [ -53.305558, 2.315833 ], [ -53.29436, 2.309343 ], [ -53.282357, 2.310087 ], [ -53.277057, 2.299247 ], [ -53.261645, 2.290502 ], [ -53.261606, 2.276671 ], [ -53.24539, 2.273442 ], [ -53.23425, 2.275719 ], [ -53.229051, 2.262709 ], [ -53.252855, 2.246853 ], [ -53.25928, 2.253261 ], [ -53.262782, 2.228848 ], [ -53.266947, 2.22405 ], [ -53.279334, 2.223669 ], [ -53.276863, 2.221864 ], [ -53.279522, 2.205136 ], [ -53.286558, 2.196899 ], [ -53.284921, 2.192796 ], [ -53.27872, 2.186319 ], [ -53.276089, 2.188492 ], [ -53.277404, 2.192792 ], [ -53.265058, 2.189121 ], [ -53.256953, 2.192782 ], [ -53.255137, 2.198032 ], [ -53.246111, 2.199283 ], [ -53.242304, 2.207908 ], [ -53.232603, 2.205737 ], [ -53.228078, 2.19809 ], [ -53.220224, 2.193944 ], [ -53.217165, 2.196159 ], [ -53.215027, 2.194122 ], [ -53.207914, 2.199571 ], [ -53.18472, 2.199567 ], [ -53.17492, 2.204565 ], [ -53.138193, 2.212229 ], [ -53.099085, 2.214612 ], [ -53.079084, 2.210802 ], [ -53.065975, 2.201099 ], [ -53.060337, 2.192671 ], [ -53.052108, 2.182026 ], [ -53.040058, 2.173738 ], [ -53.007384, 2.169647 ], [ -52.984036, 2.157505 ], [ -52.943829, 2.169071 ], [ -52.936834, 2.18394 ], [ -52.939284, 2.189955 ], [ -52.936005, 2.192508 ], [ -52.929054, 2.188681 ], [ -52.922918, 2.192499 ], [ -52.905531, 2.185852 ], [ -52.903153, 2.192563 ], [ -52.89167, 2.209054 ], [ -52.890945, 2.214832 ], [ -52.884561, 2.218527 ], [ -52.887218, 2.234615 ], [ -52.875277, 2.23785 ], [ -52.871386, 2.257271 ], [ -52.853533, 2.259587 ], [ -52.85119, 2.266549 ], [ -52.856915, 2.277757 ], [ -52.84103, 2.277284 ], [ -52.837415, 2.279451 ], [ -52.839665, 2.28731 ], [ -52.834721, 2.286492 ], [ -52.799496, 2.298642 ], [ -52.78603, 2.308467 ], [ -52.780996, 2.30756 ], [ -52.777385, 2.314964 ], [ -52.77344, 2.311171 ], [ -52.766611, 2.318117 ], [ -52.764726, 2.316217 ], [ -52.743248, 2.325945 ], [ -52.737417, 2.331719 ], [ -52.732473, 2.329904 ], [ -52.715746, 2.335939 ], [ -52.716557, 2.343706 ], [ -52.661167, 2.381765 ], [ -52.662783, 2.38456 ], [ -52.657224, 2.394944 ], [ -52.660416, 2.404621 ], [ -52.642362, 2.422035 ], [ -52.64189, 2.43603 ], [ -52.627662, 2.448574 ], [ -52.626334, 2.446041 ], [ -52.612946, 2.44639 ], [ -52.605028, 2.452611 ], [ -52.614555, 2.463913 ], [ -52.610136, 2.475381 ], [ -52.586943, 2.473731 ], [ -52.5853, 2.494504 ], [ -52.564915, 2.512609 ], [ -52.554385, 2.515301 ], [ -52.552301, 2.527613 ], [ -52.556969, 2.52704 ], [ -52.56311, 2.544922 ], [ -52.549975, 2.557655 ], [ -52.539422, 2.55473 ], [ -52.535916, 2.571309 ], [ -52.52714, 2.577148 ], [ -52.535418, 2.595736 ], [ -52.552419, 2.606939 ], [ -52.545364, 2.619283 ], [ -52.558134, 2.634314 ], [ -52.549944, 2.648201 ], [ -52.542028, 2.650064 ], [ -52.532859, 2.647403 ], [ -52.523496, 2.678935 ], [ -52.511723, 2.693929 ], [ -52.50169, 2.72085 ], [ -52.495586, 2.727251 ], [ -52.485276, 2.750158 ], [ -52.488553, 2.755397 ], [ -52.481107, 2.762745 ], [ -52.483274, 2.776889 ], [ -52.477941, 2.790551 ], [ -52.457916, 2.822692 ], [ -52.450919, 2.842282 ], [ -52.426637, 2.886649 ], [ -52.410831, 2.895394 ], [ -52.402526, 2.892029 ], [ -52.396442, 2.89344 ], [ -52.381223, 2.913805 ], [ -52.38486, 2.916702 ], [ -52.392942, 2.913766 ], [ -52.394974, 2.920974 ], [ -52.40106, 2.924609 ], [ -52.394528, 2.93619 ], [ -52.397912, 2.940977 ], [ -52.391, 2.944636 ], [ -52.384699, 2.954156 ], [ -52.373879, 2.984329 ], [ -52.373473, 2.997406 ], [ -52.36822, 3.003031 ], [ -52.364972, 3.0222 ], [ -52.355832, 3.027664 ], [ -52.343112, 3.057116 ], [ -52.32861, 3.080471 ], [ -52.347004, 3.100958 ], [ -52.346304, 3.111361 ], [ -52.339559, 3.121359 ], [ -52.340976, 3.124317 ], [ -52.352751, 3.125863 ], [ -52.353829, 3.131307 ], [ -52.350446, 3.138038 ], [ -52.34389, 3.136488 ], [ -52.338748, 3.140052 ], [ -52.340666, 3.149448 ], [ -52.334313, 3.158578 ], [ -52.332803, 3.172561 ], [ -52.305714, 3.177396 ], [ -52.309971, 3.20465 ], [ -52.298168, 3.21924 ], [ -52.295053, 3.231429 ], [ -52.268696, 3.244583 ], [ -52.266439, 3.253238 ], [ -52.261946, 3.256593 ], [ -52.253726, 3.253822 ], [ -52.246, 3.241993 ], [ -52.233413, 3.247197 ], [ -52.201891, 3.294508 ], [ -52.191666, 3.301675 ], [ -52.19275, 3.31444 ], [ -52.162332, 3.354467 ], [ -52.154844, 3.37214 ], [ -52.113551, 3.452877 ], [ -52.098641, 3.46581 ], [ -52.093697, 3.489744 ], [ -52.080334, 3.500103 ], [ -52.074642, 3.508804 ], [ -52.075503, 3.519039 ], [ -52.060951, 3.523283 ], [ -52.024694, 3.59196 ], [ -52.003974, 3.612346 ], [ -51.995835, 3.626669 ], [ -51.988805, 3.675333 ], [ -51.979863, 3.685408 ], [ -51.971586, 3.719229 ], [ -51.957279, 3.731858 ], [ -51.932669, 3.727174 ], [ -51.927857, 3.729241 ], [ -51.92108, 3.747145 ], [ -51.928809, 3.772588 ], [ -51.923883, 3.783756 ], [ -51.906193, 3.791431 ], [ -51.901359, 3.79913 ], [ -51.890355, 3.799492 ], [ -51.875717, 3.807689 ], [ -51.864288, 3.82441 ], [ -51.859887, 3.829719 ], [ -51.852803, 3.838747 ], [ -51.845558, 3.846689 ], [ -51.827947, 3.854725 ], [ -51.822872, 3.864245 ], [ -51.820388, 3.870186 ], [ -51.801574, 3.882169 ], [ -51.789624, 3.90232 ], [ -51.779504, 3.925197 ], [ -51.778706, 3.945754 ], [ -51.777166, 3.957416 ], [ -51.770739, 3.966948 ], [ -51.755315, 3.98842 ], [ -51.746053, 3.995314 ], [ -51.709381, 4.000908 ], [ -51.697522, 4.00942 ], [ -51.685114, 4.025542 ], [ -51.665526, 4.028785 ], [ -51.646082, 4.044856 ], [ -51.6425, 4.062983 ], [ -51.644169, 4.074112 ], [ -51.635721, 4.087206 ], [ -51.619311, 4.142449 ], [ -51.604527, 4.167514 ], [ -51.595059, 4.19172 ], [ -51.59739, 4.230103 ], [ -51.59169, 4.235614 ], [ -51.585644, 4.262515 ], [ -51.573393, 4.344743 ], [ -51.553697, 4.415047 ], [ -51.549197, 4.424655 ], [ -51.539996, 4.43048 ], [ -51.513585, 4.43706 ], [ -51.500195, 4.42674 ], [ -51.489971, 4.423365 ], [ -51.452359, 4.390249 ], [ -51.427226, 4.373919 ], [ -51.345642, 4.295599 ], [ -51.251557, 4.191735 ], [ -51.251136, 4.185654 ], [ -51.23047, 4.159088 ], [ -51.226442, 4.143843 ], [ -51.209833, 4.123497 ], [ -51.189219, 4.063744 ], [ -51.190307, 4.056312 ], [ -51.184445, 4.051098 ], [ -51.18169, 4.008915 ], [ -51.176334, 3.987471 ], [ -51.17558, 3.960515 ], [ -51.178558, 3.94516 ], [ -51.166308, 3.936346 ], [ -51.122616, 3.910753 ], [ -51.093966, 3.910239 ], [ -51.081442, 3.899871 ], [ -51.083446, 3.89839 ], [ -51.080692, 3.892826 ], [ -51.075162, 3.890933 ], [ -51.074163, 3.851237 ], [ -51.079388, 3.832277 ], [ -51.079503, 3.7842 ], [ -51.084248, 3.77271 ], [ -51.081866, 3.761746 ], [ -51.085469, 3.750179 ], [ -51.084276, 3.732416 ], [ -51.089384, 3.723068 ], [ -51.090476, 3.706073 ], [ -51.090388, 3.680249 ], [ -51.082332, 3.632886 ], [ -51.070556, 3.491849 ], [ -51.078582, 3.459664 ], [ -51.082892, 3.460076 ], [ -51.088948, 3.454143 ], [ -51.090139, 3.447145 ], [ -51.087165, 3.392086 ], [ -51.079854, 3.3695 ], [ -51.021608, 3.208406 ], [ -51.025978, 3.185291 ], [ -51.033553, 3.175261 ], [ -51.031223, 3.156051 ], [ -51.03536, 3.137458 ], [ -51.027385, 3.117177 ], [ -51.006669, 3.094095 ], [ -51.006168, 3.079725 ], [ -51.01244, 3.066215 ], [ -51.014385, 3.04579 ], [ -50.999891, 3.017991 ], [ -50.988468, 3.003659 ], [ -50.984309, 2.975072 ], [ -50.987693, 2.961299 ], [ -50.980777, 2.937319 ], [ -50.971471, 2.925978 ], [ -50.962448, 2.905771 ], [ -50.943916, 2.884514 ], [ -50.94197, 2.854553 ], [ -50.947083, 2.836477 ], [ -50.940996, 2.814843 ], [ -50.941808, 2.803699 ], [ -50.926506, 2.808616 ], [ -50.907801, 2.801207 ], [ -50.90153, 2.794941 ], [ -50.900114, 2.785979 ], [ -50.905029, 2.773782 ], [ -50.902833, 2.756671 ], [ -50.890722, 2.752459 ], [ -50.881388, 2.741742 ], [ -50.88225, 2.686091 ], [ -50.868218, 2.679796 ], [ -50.852749, 2.659906 ], [ -50.850027, 2.644421 ], [ -50.840581, 2.639052 ], [ -50.840998, 2.601767 ], [ -50.845639, 2.594455 ], [ -50.842751, 2.594447 ], [ -50.842421, 2.586482 ], [ -50.835364, 2.574599 ], [ -50.831033, 2.533503 ], [ -50.836722, 2.508547 ], [ -50.852475, 2.504449 ], [ -50.854496, 2.49105 ], [ -50.851637, 2.486474 ], [ -50.850583, 2.495153 ], [ -50.844254, 2.498315 ], [ -50.836369, 2.493002 ], [ -50.815194, 2.509091 ], [ -50.805671, 2.509591 ], [ -50.791052, 2.501323 ], [ -50.783585, 2.487893 ], [ -50.782723, 2.476703 ], [ -50.774615, 2.468411 ], [ -50.764385, 2.448394 ], [ -50.763917, 2.425991 ], [ -50.770106, 2.412088 ], [ -50.760693, 2.397938 ], [ -50.755976, 2.381014 ], [ -50.759724, 2.366142 ], [ -50.750482, 2.359643 ], [ -50.743256, 2.342239 ], [ -50.742139, 2.311627 ], [ -50.73422, 2.303138 ], [ -50.722026, 2.276737 ], [ -50.724031, 2.257013 ], [ -50.721809, 2.237532 ], [ -50.715091, 2.237534 ], [ -50.70806, 2.231116 ], [ -50.692863, 2.208809 ], [ -50.685571, 2.189283 ], [ -50.681919, 2.173355 ], [ -50.68319, 2.154732 ], [ -50.688221, 2.147979 ], [ -50.701829, 2.144281 ], [ -50.702085, 2.138538 ], [ -50.665417, 2.151206 ], [ -50.600893, 2.180491 ], [ -50.579068, 2.189043 ], [ -50.521554, 2.208714 ], [ -50.484149, 2.203302 ], [ -50.456058, 2.20419 ], [ -50.445694, 2.199571 ], [ -50.443085, 2.18979 ], [ -50.437752, 2.19353 ], [ -50.432376, 2.1887 ], [ -50.421998, 2.180179 ], [ -50.412058, 2.159666 ], [ -50.38528, 2.125241 ], [ -50.385527, 2.119374 ], [ -50.378281, 2.115774 ], [ -50.371529, 2.101254 ], [ -50.365585, 2.101645 ], [ -50.352, 2.087145 ], [ -50.349506, 2.077546 ], [ -50.355447, 2.065861 ], [ -50.34883, 2.062543 ], [ -50.345416, 2.053654 ], [ -50.347167, 2.051051 ], [ -50.337169, 2.036044 ], [ -50.333195, 2.020376 ], [ -50.316692, 2.008108 ], [ -50.31222, 1.977667 ], [ -50.305782, 1.971586 ], [ -50.299975, 1.958524 ], [ -50.272931, 1.887768 ], [ -50.237698, 1.803515 ], [ -50.169171, 1.814605 ], [ -50.105442, 1.792299 ], [ -50.091306, 1.791745 ], [ -50.055859, 1.774888 ], [ -50.033363, 1.770924 ], [ -50.002698, 1.753628 ], [ -49.92131, 1.704284 ], [ -49.914614, 1.695853 ], [ -49.91286, 1.687776 ], [ -49.916889, 1.677347 ], [ -49.922054, 1.674624 ], [ -49.907756, 1.670499 ], [ -49.896833, 1.631854 ], [ -49.888748, 1.541101 ], [ -49.875776, 1.481152 ], [ -49.878305, 1.464496 ], [ -49.876387, 1.450907 ], [ -49.883674, 1.402409 ], [ -49.881394, 1.390441 ], [ -49.896083, 1.332028 ], [ -49.909944, 1.296865 ], [ -49.906251, 1.274186 ], [ -49.898949, 1.232508 ], [ -49.89248, 1.214817 ], [ -49.893222, 1.193357 ], [ -49.912306, 1.156147 ], [ -49.917615, 1.137246 ], [ -49.936084, 1.114251 ], [ -49.942304, 1.113013 ], [ -49.94539, 1.108589 ], [ -49.941501, 1.102836 ], [ -49.945115, 1.070598 ], [ -49.948527, 1.040157 ], [ -49.943253, 1.032598 ], [ -49.940213, 1.00947 ], [ -49.940338, 0.993883 ], [ -49.945534, 0.983289 ], [ -49.970144, 0.959476 ], [ -49.97619, 0.95896 ], [ -49.994977, 0.928208 ], [ -50.001823, 0.909455 ], [ -50.024285, 0.869309 ], [ -50.042032, 0.85675 ], [ -50.043331, 0.851291 ], [ -50.051256, 0.851228 ], [ -50.053747, 0.855092 ], [ -50.052858, 0.846673 ], [ -50.058139, 0.839604 ], [ -50.052834, 0.835729 ], [ -50.06136, 0.825884 ], [ -50.053755, 0.82178 ], [ -50.053089, 0.806504 ], [ -50.05697, 0.803441 ], [ -50.065087, 0.80898 ], [ -50.069588, 0.799763 ], [ -50.068085, 0.792552 ], [ -50.080718, 0.790678 ], [ -50.08589, 0.783881 ], [ -50.092639, 0.782524 ], [ -50.093472, 0.702433 ], [ -50.15653, 0.70552 ], [ -50.197564, 0.701236 ], [ -50.247383, 0.692239 ], [ -50.314197, 0.678356 ], [ -50.346793, 0.667186 ], [ -50.409417, 0.623685 ], [ -50.436102, 0.600448 ], [ -50.451875, 0.571303 ], [ -50.46682, 0.531264 ], [ -50.475764, 0.481842 ], [ -50.485545, 0.459247 ], [ -50.503555, 0.43543 ], [ -50.523447, 0.372734 ], [ -50.555703, 0.307061 ], [ -50.599222, 0.249701 ], [ -50.623155, 0.23212 ], [ -50.644376, 0.209093 ], [ -50.675216, 0.179523 ], [ -50.707141, 0.156335 ], [ -50.751523, 0.12647 ], [ -50.803071, 0.106668 ], [ -50.907626, 0.079824 ], [ -50.910581, 0.079063 ], [ -50.933721, 0.070026 ], [ -50.974385, 0.042139 ], [ -50.984668, 0.029766 ], [ -50.996464, 0.003797 ], [ -51.000025, 0.0 ], [ -51.007027, 0.0 ], [ -51.029144, -0.027929 ], [ -51.065225, -0.07588 ], [ -51.084469, -0.087194 ], [ -51.096585, -0.088013 ], [ -51.117945, -0.097191 ], [ -51.142911, -0.100933 ], [ -51.174449, -0.104188 ], [ -51.215913, -0.118266 ], [ -51.265257, -0.195109 ] ] ] } }
]
}
